ref:ISIL,ref:SBN,name,addr,postcode,city,latitudine,longitudine,telefono,fax,mail1,website
IT-BO0001,UBOAE,"Biblioteca comunale ""Edmondo De Amicis""",piazza Giovanni XXIII 2,40011,Anzola dell'Emilia,44.5469884,11.1934419,+39 0516502222,+39 0516502223,biblioteca@comune.anzoladellemilia.bo.it,http://www.bibliotecanzola.it
IT-BO0002,UBONA,Biblioteca comunale di Funo,"Via Don Francesco Pasti, 80",40050,Argelato,44.5885275,11.3665739,+39 0516634624,,biblioteca.funo@renogalliera.it,http://www.comune.argelato.bo.it/servizi/Menu/dinamica.aspx?idSezione=1009&idArea=6597&idCat=6604&ID=1205&TipoElemento=pagina#
IT-BO0003,UBOAQ,Biblioteca comunale Antonio Gramsci,Via Europa 3,40052,Baricella,44.644897,11.5335249,+39 0516622438,,biblioteca@comune.baricella.bo.it,https://www.comune.baricella.bo.it/it-it/servizi/vivere-il-tempo-libero-e-la-cultura-c/biblioteca-132-35-1-bab4c5adfc74c53e0771c83e6543fd2a?servizi-culturali-5771#hservizi-culturali
IT-BO0006,UBOAU,"Biblioteca comunale ""Remo Dotti""",via Marconi 5,40010,Bentivoglio,44.6349034,11.4208069,+39 0516643592,+39 0516640803,biblioteca.be@renogalliera.it,http://www.comune.bentivoglio.bo.it/servizi/menu/dinamica.aspx?ID=2136
IT-BO0174,UBOBO,Biblioteca comunale Mario Visani,"via Giovanni XXIII, 11",40021,Borgo Tossignano,44.27678359999999,11.5935147,+39 054290220,+39 054294414,biblioteca@comune.borgotossignano.bo.it,http://www.comune.borgotossignano.bo.it/uffici/biblioteca-comunale
IT-BO0175,UBOBZ,Biblioteca comunale Augusto Majani-Nasica,via G. Garibaldi 39,40054,Budrio,44.5375349,11.5375219,+39 051801220,+39 051808106,biblioteca@comune.budrio.bo.it,http://www.comune.budrio.bo.it/ita/docs/cultura/homebiblio.htm
IT-BO0176,UBOCV,"Biblioteca comunale ""Rinaldo Veronesi""",via Roma 27,40012,Calderara di Reno,44.5651109461585,11.2720295925903,+39 0516461247,,biblioreno@comune.calderaradireno.bo.it,http://www.comune.calderaradireno.bo.it/aree-tematiche/cultura-e-spettacolo/attivita-e-servizi/biblioteca-201cbiblioreno-rinaldo-veronesi201d
IT-BO0177,,Biblioteca comunale Paolo Guidotti,piazza Kennedy 1,40032,Camugnano,44.1690331,11.0877647,+39 053441722,+39 053446827,biblioteca@comune.camugnano.bo.it,http://www.comunecamugnano.gov.it/servizi/Menu/dinamica.aspx?idSezione=616&amp
IT-BO0178,UBOCH,Biblioteca comunale,"viale Andrea Costa, 27",40020,Casalfiumanese,44.2984446,11.6190778,+39 0542668035,+39 0542666251,biblioteca@comune.casalfiumanese.bo.it,http://www.comune.casalfiumanese.bo.it/aree-tematiche/biblioteca#null
IT-BO0179,,Biblioteca comunale Multimediale,"via Carlo Lenzi, 18",40034,Castel d'Aiano,44.280993,11.0007,+39 0516735711,+39 051914818,biblioteca@comune.casteldaiano.bo.it,http://www.comune.casteldaiano.bo.it/servizi/Menu/dinamica.aspx?idArea=16928&idCat=16934&ID=16964&TipoElemento=Categoria
IT-BO0180,UBOCT,Biblioteca comunale,"piazza della Repubblica, 96",40022,Castel del Rio,44.21272039999999,11.5046692,+39 054295906,+39 054295313,urp@comune.casteldelrio.bo.it,http://www.comune.casteldelrio.bo.it/uffici/biblioteca-1
IT-BO0181,UBOCU,Biblioteca comunale,"via Antonio Gramsci, 22",40023,Castel Guelfo di Bologna,44.4318052,11.6788383,+39 054253460,+39 054253082,biblioteca@comune.castelguelfo.bo.it,http://www.comune.castelguelfo.bo.it/default.asp?pag=biblioteca%5Chome
IT-BO0183,UBODQ,Biblioteca comunale Raffaele Orsi,"via Giacomo Matteotti, 150",40050,Castello d'Argile,44.68275,11.2967993,+39 0516868882,+39 0516868810,biblioteca.ca@renogalliera.it,http://www.comune.castello-d-argile.bo.it/main/main.asp?doc=08105
IT-BO0184,UBODM,Biblioteca comunale di Castello di Serravalle,via Sant' Apollinare 1352,40053,Valsamoggia,44.4407691,11.0654949,+39 0516710728,,biblioteca.castellodiserravalle@comune.valsamoggia.bo.it,
IT-BO0186,UBODI,Biblioteca comunale,Via Aldo Moro 31,40035,Castiglione dei Pepoli,44.1419254,11.1569137,+39 053491946,,biblioteca@comune.castiglionedeipepoli.bo.it,http://www.comune.castiglionedeipepoli.bo.it/servizi/Menu/dinamica.aspx?idArea=16879&idCat=20169&ID=20169
IT-BO0187,UBODH,Biblioteca comunale di Crespellano,Via Marconi 47,40053,Valsamoggia,44.5146270017165,11.1289295,+39 0516723059,,biblioteca.crespellano@comune.valsamoggia.bo.it,http://www.frb.valsamoggia.bo.it/biblioteche/
IT-BO0188,UBODR,Biblioteca comunale,"viale Caduti di via Fani, 302",40014,Crevalcore,44.71571369999999,11.14859,+39 051988552,+39 0516803580,biblioteca@comune.crevalcore.bo.it,
IT-BO0190,UBOBT,Biblioteca comunale,"piazza Libertà, 3",40060,Dozza,44.3834946,11.6382932,+39 0542673564,+39 0542678270,biblioteca@comune.dozza.bo.it,http://www.comune.dozza.bo.it/uffici/biblioteca
IT-BO0192,UBOBF,Biblioteca comunale La Fonte,"via Giuseppe Mengoni, 4/6",40025,Fontanelice,44.2591477,11.5602181,+39 054292855,+39 054293528,biblioteca@comune.fontanelice.bo.it,http://www.comune.fontanelice.bo.it/uffici/biblioteca
IT-BO0193,UBOGM,Biblioteca comunale,"piazza Arnaldo Brasa, 1",40041,Gaggio Montano,44.198485,10.936038,+39 053437664,+39 053437013,biblioteca.gaggio@cosea.bo.it,http://gaggio.wix.com/biblioteca
IT-BO0194,UBOAZ,Biblioteca comunale Giovanna Zangrandi,"via Dante Alighieri, 3A",40015,Galliera,44.73348,11.44031,+39 051815442,+39 051815560,biblioteca.ga@renogalliera.it,http://www.comune.galliera.bo.it/upload/galliera_ecm8/gestionedocumentale/Notizie%20sulla%20Biblioteca_784_2083.pdf
IT-BO0196,UBODT,Biblioteca comunale,"via Pietrafitta, 46",40030,Grizzana Morandi,44.257283,11.152177,+39 0516730329,+39 051913014,grizzana.biblioteca@gmail.com,http://www.comune.grizzanamorandi.bo.it/servizi/Menu/dinamica.aspx?idArea=16612&idCat=17033&ID=17033&TipoElemento=categoria
IT-BO0199,UBOBC,Biblioteca comunale,via Emilia 80,40026,Imola,44.3536525,11.7136724,+39 0542602636,+39 0542602602,bim@comune.imola.bo.it,http://www.bim.comune.imola.bo.it
IT-BO0204,UBOLO,Biblioteca comunale,via Roma 55,40050,Loiano,44.2701055,11.3220424,+39 0516543617,+39 0516545246,biblio@comune.loiano.bologna.it,
IT-BO0205,UBOEA,Biblioteca comunale,piazza Caduti della Resistenza 1,40051,Malalbergo,44.7190136,11.5315677,+39 0516620280,+39 0516620281,biblioteca@comune.malalbergo.bo.it,http://www.comune.malalbergo.bo.it/14/130/vivere-malalbergo/biblioteca.html
IT-BO0206,UBOMF,"Biblioteca comunale ""Casa della Cultura e della Memoria""",via Aldo Moro 2/a,40043,Marzabotto,44.3412242,11.2043552,+39 0516780501,+39 051931350,biblio@comune.marzabotto.bo.it,http://http://www.comune.marzabotto.bo.it/servizi/menu/dinamica.aspx?idArea=17075&amp
IT-BO0207,UBOFH,Biblioteca comunale,via Pillio 1,40059,Medicina,44.4763918,11.6394739,+39 0516979209,+39 0516979321,serviziculturali@comune.medicina.bo.it,http://www.comune.medicina.bo.it/moduli/ufficio.aspx?ID=1&amp
IT-BO0208,UBODV,Biblioteca comunale Prometeo,"piazza Carlo Alberto Dalla Chiesa, 1",40061,Minerbio,44.6222715,11.4872415,+39 0516611766,+39 051876144,biblioteca@comune.minerbio.bo.it,http://www.comune.minerbio.bo.it/uffici_servizi/-categoria2/pagina73.html
IT-BO0209,UBOMT,Biblioteca comunale Bjørnstjerne Bjørnson,"via Idice, 58a",40050,Monterenzio,44.35327160000001,11.4132724,+39 0516556104,+39 051929292,biblioteca@comune.monterenzio.bologna.it,https://www.comunemonterenzio.eu/go/servizi-persona/32-biblioteca-comunale
IT-BO0210,UBOMM,Biblioteca comunale Mario Marri,"via Casaglia, 1",40036,Monzuno,44.278092,11.270962,+39 0516770307,+39 0516770307,bibliomonzuno@comune.monzuno.bologna.it,http://www.comune.monzuno.bologna.it/news/read.asp?newsID=734
IT-BO0211,UBOMO,Biblioteca comunale,"via Borgo Generale Vitali, 12",40027,Mordano,44.3967374,11.8115129,+39 054252510,+39 054252510,bibliomordano@yahoo.com,http://www.comune.mordano.bo.it/uffici/biblioteca-1
IT-BO0212,UBOOZ,Biblioteca comunale 8 Marzo 1908,"piazza Salvador Allende, 18",40064,Ozzano dell'Emilia,44.443207,11.475675,+39 051791370,+39 0516521365,biblioteca@comune.ozzano.bo.it,http://www.comune.ozzano.bo.it/aree-tematiche/cultura-e-turismo/biblioteca-comunale
IT-BO0213,UBOEH,Biblioteca comunale,"piazza Andrea Costa, 10",40066,Pieve di Cento,44.7138911,11.306789,+39 0516862636,+39 051975533,biblioteca.pc@renogalliera.it,http://www.comune.pievedicento.bo.it/aree-tematiche/cultura-sport-sviluppoeconomico/cultura/istituti-culturali/biblioteca-comunale-1/biblioteca-comunale
IT-BO0216,UBOBQ,"Biblioteca comunale ""Gilberto Martinelli""",via Roma 32,40046,Alto Reno Terme,44.1518836,10.9804275,+39 053424205,+39 0534 24072,biblioteca@comune.altorenoterme.bo.it,http://www.comune.altorenoterme.bo.it/servizi/Menu/dinamica.aspx?idSezione=616&amp
IT-BO0217,UBOVA,Biblioteca comunale,"piazza Guglielmo Marconi, 5",40010,Sala Bolognese,44.6293994,11.2771779,+39 0516822541,,biblioteca@comune.sala-bolognese.bo.it,http://www.comune.sala-bolognese.bo.it/comune/uffici-e-servizi/servizio-cultura-sport-volontariato-politiche-giovanili/biblioteca-comunale-di-sala-bolognese
IT-BO0219,UBOTC,Biblioteca comunale Luigi Arbizzani,"piazza Indipendenza, 1",40016,San Giorgio di Piano,44.6463645,11.3758698,+39 0516638529,+39 0516638525,biblioteca.sg@renogalliera.it,https://comune.san-giorgio-di-piano.bo.it/scuola-biblioteca-servizi-sociali/biblioteca-e-cultura/
IT-BO0220,UBOGP,Biblioteca comunale Giulio Cesare Croce,piazza Garibaldi 7,40017,San Giovanni in Persiceto,44.6376266,11.1880915,+39 0516812961,+39 051827017,bibliocroce@comunepersiceto.it,http://www.comunepersiceto.it/gli-uffici-comunali/cultura/biblioteche-1
IT-BO0222,UBOEO,Biblioteca comunale Mario Luzi,"via Matteotti, 123",40018,San Pietro in Casale,44.7030171,11.4064872,+39 0516669536,,biblioteca.adulti.sp@renogalliera.it,http://www.comune.san-pietro-in-casale.bo.it/biblioteche-comunali/biblioteca-mario-luzi
IT-BO0224,UBOEN,"Biblioteca comunale ""Margherita Hack""",via Circondaria Est 23,40019,Sant'Agata Bolognese,44.6648392942517,11.1349130896187,+39 051957720,+39 0516818950,biblioteca@comune.santagatabolognese.bo.it,
IT-BO0226,UBOVM,Biblioteca comunale Mauro Lelli,"via Guglielmo Marconi, 49",40053,Valsamoggia,44.3888104,11.0735317,+39 0516708749,,biblioteca.savigno@comune.valsamoggia.bo.it,https://www.cittametropolitana.bo.it/cultura/Guida_Biblioteche_2/Biblioteca_Comunale_di_Savigno
IT-BO0227,UBOVE,Biblioteca comunale Paolo Guidotti,galleria I Maggio 86A,40038,Vergato,44.2795316,11.1127443,+39 + 39 051910559,+39 051912034,biblioteca@comune.vergato.bo.it,http://www.comune.vergato.bo.it/servizi/Menu/dinamica.aspx?idArea=16889&idCat=17491&ID=17491&TipoElemento=categoria
IT-BO0231,UBOOG,Biblioteca comunale Osteria Grande,"viale Broccoli, 41",40060,Castel San Pietro Terme,44.4228947,11.517201,+39 051945413,+39 051940064,biblioteca@cspietro.it,http://www.comune.castelsanpietroterme.bo.it/ufficio/1/14/5/biblioteche-comunali-e-archivio-storico
IT-BO0234,,Biblioteca comunale. Sala di lettura di Palata Pepoli,Via Provanone 4964,40014,Crevalcore,44.792253,11.2325882,+39 051985152,,,
IT-BO0238,,Biblioteca comunale Lionello Bertacci,Via Vittorio Veneto 10,40030,Castel di Casio,44.1626769,11.0370341,+39 053444133,+39 053444286,,
IT-BO0239,UBODA,Biblioteca comunale Cesare Pavese,Via Porrettana 360,40033,Casalecchio di Reno,44.4784566624666,11.2770696465576,+39 051598300,+39 051598200,biblioteca@comune.casalecchio.bo.it,https://www.comune.casalecchio.bo.it/contenuto/contenuti--ecm/casa-della-conoscenza--biblioteca.ashx
IT-BO0240,UBONG,Biblioteca comunale Natalia Ginzburg,via Bondanello 30,40013,Castel Maggiore,44.5786239,11.359249,+39 051713017,+39 0516321195,biblioteca.cm@renogalliera.it,http://www.comune.castel-maggiore.bo.it/servizi/menu/dinamica.aspx?idArea=3&amp
IT-BO0241,UBOBS,Biblioteca comunale,via Marconi 29,40024,Castel San Pietro Terme,44.3984485813191,11.5884710615157,+39 051940064,+39 0516949573,biblioteca@cspietro.it,http://www.cspietro.it/index.php?q=infocraft/testo_libero/177&amp
IT-BO0247,UBOMP,"Biblioteca comunale ""Peppino Impastato""",piazza della Pace 4,40050,Monte San Pietro,44.4575793,11.1996735,+39 0516764437,+39 0516764455,biblioteca@comune.montesanpietro.bo.it,https://www.comune.montesanpietro.bo.it/index.php/2016-01-30-11-40-40/biblioteca
IT-BO0248,UBOBH,Biblioteca comunale Mauro Zagnoni di Monteveglio,"piazza della Libertà, 12",40053,Valsamoggia,44.470425,11.10066,+39 0516702739,+39 0516702739,biblioteca.monteveglio@comune.valsamoggia.bo.it,http://www.biblioteche.valsamoggia.bo.it
IT-BO0249,,Biblioteca comunale. Sala di lettura Centro sociale di Borgonuovo di Pontecchio,"via Cartiera, 6",40044,Sasso Marconi,44.4458045,11.2728856,+39 051843584,+39 051840802,bibliosasso@comune.sassomarconi.bo.it,http://www.comune.sassomarconi.bologna.it/servizi/Menu/dinamica.aspx?idSezione=18737&idArea=18738&idCat=28386&ID=28457&TipoElemento=categoria
IT-BO0250,UBOEF,Biblioteca comunale,Piazza dei Martiri della Liberazione 3,40037,Sasso Marconi,44.3945747,11.245339000000058,+39 051843584,,bibliosasso@comune.sassomarconi.bo.it,http://www.comune.sassomarconi.bologna.it/servizi/Menu/dinamica.aspx?idSezione=18737&idArea=18740&idCat=5422&ID=5422
IT-BO0254,UBOZP,Biblioteca comunale,"piazza Guglielmo Marconi, 4",40069,Zola Predosa,44.4906224,11.2226268,+39 0516161800,+39 0516161800,biblioteca@comune.zolapredosa.bo.it,https://www.comune.zolapredosa.bo.it/il-comune/uffici-sedi-orari/biblioteca-comunale
IT-BO0257,UBOEE,Biblioteca comunale Severino Ferrari,"piazza Anselmo Martoni, 19/1",40062,Molinella,44.6208965,11.6698243,+39 0516906860,,biblio@comune.molinella.bo.it,http://www.comune.molinella.bo.it/vivere/biblio/servizi.aspx
IT-BO0258,,Biblioteca comunale Gastone Stefanini,"via Roma, 4",40048,San Benedetto Val di Sambro,44.2156131,11.2345547,+39 053495026,+39 053495595,paolo.barbi@unioneappennino.bo.it,http://www.comune.sanbenedettovaldisambro.bo.it/Main/Main.asp?doc=15212
IT-BO0302,UBOSV,Biblioteca comunale Scandellara - Mirella Bartolotti,Via Scandellara 50,40138,Bologna,44.4968366,11.3833079,+39 0512194301,+39 0512194301,bibliotecascandellara@comune.bologna.it,http://www.bibliotechebologna.it//luoghi/52056/id/55862
IT-BO0304,UBOGA,Biblioteca comunale dell'Archiginnasio,piazza Galvani 1,40124,Bologna,44.4917372,11.3432431,+39 051276811,+39 051261160,archiginnasio@comune.bologna.it,http://www.archiginnasio.it
IT-BO0527,UBONR,Biblioteca comunale Silvio Mucini,via Padre Marella 19,40065,Pianoro,44.388579,11.3441785,+39 051774654,+39 0516517238,biblioteca.pianoro@comune.pianoro.bo.it,http://www.comune.pianoro.bo.it/servizi/cultura/-Biblioteche_Comunali/pagina22.html
IT-BO0528,UBONB,"Biblioteca comunale ""Giorgio Celli"" Sezione Ragazzi","via Mario Musolesi, 4a",40036,Monzuno,44.3179302,11.2585778,+39 0516778405,,bibliovado@comune.monzuno.bo.it,http://www.comune.monzuno.bologna.it/Aree-tematiche/biblioteche-comunali/biblioteca-giorgio-celli-di-vado
IT-BO0529,UBOLX,Biblioteca comunale,"via Roma, 51",40042,Lizzano in Belvedere,44.1605015,10.8938735,+39 053451822,,alessandro.riccioni@comune.lizzano.bo.it,http://www.comune.lizzano.bo.it/index.php?option=com_content&view=article&id=26&Itemid=128
IT-BO0530,UBOED,"Biblioteca comunale ""Clemente Mezzini""",Largo Giovanni Pierluigi da Palestrina 1,40063,Monghidoro,44.2194035706294,11.3142724972229,+39 0516555639,+39 0516555520,biblioteca@comune.monghidoro.bo.it,https://comune.monghidoro.bo.it/
IT-BO0533,UBOCQ,Biblioteca comunale Casa Bondi,"via XXI Ottobre 1944, 7/2",40055,Castenaso,44.5109263,11.4696687,+39 051788025,+39 051789612,biblio@comune.castenaso.bo.it,http://www.comune.castenaso.bo.it/aree-tematiche/cultura/biblioteca
IT-BO0560,UBOAP,Biblioteca comunale,Via Centese 48,40050,Argelato,44.6421802,11.3488875,+39 0516634623,+39 0516634627,biblioteca.ar@renogalliera.it,https://www.comune.argelato.bo.it/servizi/Menu/dinamica.aspx?idSezione=1009&idArea=6597&idCat=1149&ID=1204&TipoElemento=Pagina
IT-BO0611,UBOEZ,Biblioteca comunale di San Pietro in Casale - Sezione distaccata Ragazzi,piazza Martiri della Liberazione 12,40018,San Pietro in Casale,44.7003192,11.404321,+39 0516669504,+39 051810658,biblioteca.ragazzi.sp@renogalliera.it,http://www.comune.san-pietro-in-casale.bo.it/biblio_ragazzi.htm
IT-BO0625,UBOGI,"Biblioteca comunale ""Giulio Cesare Croce"" - Sezione ragazzi","parco Pettazzoni, 2",40017,San Giovanni in Persiceto,44.637535,11.188637,+39 0516812971,+39 051.6812976,biblioragazzi@comunepersiceto.it,http://www.cittametropolitana.bo.it/cultura/Guida_Biblioteche_2/Biblioteca_Comunale_Giulio_Cesare_Croce_Sezione_Ragazzi/Ragazzi/Biblioteca_Comunale_Giulio_Cesare_Croce_Sezione_Ragazzi
IT-FC0004,RAVBT,"Biblioteca comunale ""Aldo Spallicci""",via Mainardi 2,47032,Bertinoro,44.1497763,12.1327065,+39 0543469215,+39 0543444486,biblioteca@comune.bertinoro.fc.it,
IT-FC0016,,Biblioteca comunale Antonio Raineri Biscia,Via Carducci 3,47013,Dovadola,44.1204558,11.8862714,+39 0543934703,,,
IT-FC0018,RAVFO,Biblioteca comunale Aurelio Saffi e Fondo Piancastelli,Corso della Repubblica 78,47121,Forlì,44.22021489999999,12.0449234,+39 0543712610,+39 0543712616,biblioteca-saffi@comune.forli.fc.it,http://www.cultura.comune.forli.fc.it/servizi/menu/dinamica.aspx?idArea=16315&idCat=17158&ID=17189&TipoElemento=Categoria
IT-FC0025,RAVFP,Biblioteca comunale Pellegrino Artusi,"via Andrea Costa, 27",47034,Forlimpopoli,44.1884369,12.1263368,+39 0543749271,+39 0543743247,biblioteca@comune.forlimpopoli.fc.it,http://www.casartusi.it/it/biblioteca/
IT-FC0028,RAVGA,Biblioteca comunale,"corso Mazzini, 73",47035,Gambettola,44.11780144649233,12.338965203704815,+39 054745338,+39 054745305,biblioteca@comune.gambettola.fc.it,http://www.comune.gambettola.fc.it/servizi/Menu/dinamica.aspx?idSezione=616&idArea=19003&idCat=20546&ID=21253&TipoElemento=categoria
IT-FC0029,RAVGT,Biblioteca comunale Giuseppe Ceccarelli,via Roma 13,47043,Gatteo,44.1072557,12.385337,+39 0541932377,+39 0541812505,biblioteca@comune.gatteo.fc.it,
IT-FC0033,RAVME,Biblioteca comunale Francesco Torricelli,"via Mazzini, 18",47014,Meldola,44.1277082,12.0629426,+39 0543499456,+39 0543490862,biblioteca@comune.meldola.fc.it,http://www.comune.meldola.fc.it/servizi/Menu/dinamica.aspx?idSezione=616&idArea=19136&idCat=19222&ID=24709&TipoElemento=categoria
IT-FC0035,RAVMS,Biblioteca comunale Antonio Veggiani,piazzetta del Savio 4,47025,Mercato Saraceno,43.9562437,12.1967956,+39 054790584,+39 054790141,biblioteca@unionevallesavio.it,
IT-FC0038,RAVMD,Biblioteca comunale don Giovanni Verità e della Accademia degli Incamminati,Piazza G. Matteotti 5,47015,Modigliana,44.1215966,11.886851,+39 0546941019,+39 0546949514,biblioteca@comune.modigliana.fc.it,http://www.comune.modigliana.fc.it
IT-FC0044,,Biblioteca comunale,"piazza Maggiore, 3",47020,Montiano,44.08358146345414,12.305119149212652,+39 054751032,+39 054751160,scuola-cultura@comune.montiano.fc.it,http://www.comune.montiano.fc.it/servizi-culturali-sport-e-turismo
IT-FC0049,,Biblioteca comunale,"via Roma, 34",47010,Premilcuore,43.979237422292215,11.781062419049091,+39 0543956945,+39 0543956557,cultura@comune.galeata.fc.it,http://www.comune.premilcuore.fc.it
IT-FC0055,,Biblioteca comunale,"via Giuseppe Mazzini, 19",47017,Rocca San Casciano,44.0612927,11.8429544,+39 0543960124,+39 0543951336,segreteria@comune.roccasancasciano.fc.it,
IT-FC0061,RAVMP,Biblioteca comunale Giovanni Pascoli,piazza G. Mazzini 7,47030,San Mauro Pascoli,44.1067863,12.4155126,+39 0541933656,+39 0541933656,biblioteca@comune.sanmauropascoli.fc.it,
IT-FC0064,RAVSF,Biblioteca comunale,"piazza Giacomo Matteotti, 4",47018,Santa Sofia,43.9467773,11.9075152,+39 0543974551,+39 0543970345,ufficio.cultura@comune.santa-sofia.fc.it,http://www.comune.santa-sofia.fc.it
IT-FC0066,,Biblioteca comunale Tito Maccio Plauto,via Roma 24,47027,Sarsina,43.9185667,12.1416849,+39 0547698164,+39 054795384,info@comune.sarsina.fc.it,http://www.comune.sarsina.fc.it/servizi/numeriutili.htm#biblioteche
IT-FC0068,RAVSL,Biblioteca comunale Agostino Venanzio Reali,piazzetta G. Garibaldi 19,47030,Sogliano al Rubicone,43.9556902,12.1949371,+39 0541817350,+39 0541948540,biblioteca@comune.sogliano.fc.it,http://www.comune.sogliano.fc.it/ilpaese/Attivita/Biblioteca/Biblioteca.htm
IT-FC0069,RAVTZ,Biblioteca comunale,via XX Settembre 32,47019,Tredozio,44.077777,11.742341,+39 0546943676,+39 0546943921,milena.rossi@comune.tredozio.fc.it,
IT-FC0071,RAVBG,Biblioteca comunale di Palazzo del Capitano,via Fiorentina 38,47021,Bagno di Romagna,43.8332207,11.9585698,+39 0543911037,+39 0543911026,biblioteca@bagnodiromagnaturismo.it,
IT-FC0074,RAVMM,Biblioteca comunale Marino Moretti,"piazza Ciceruacchio, 21",47042,Cesenatico,44.2014061,12.3976906,+39 054779264,+39 0547674094,biblioteca@cesenatico.it,http://biblioteca.comune.cesenatico.fc.it/servizi/notizie/notizie_homepage.aspx
IT-FC0082,RAVGL,Biblioteca comunale,"via Cenno Cenni, 10",47010,Galeata,43.9963518,11.9101194,+39 0543975047,+39 0543975047,bibliogaleata@libero.it,http://www.bibliotecheromagna.it/main/index.php?id_pag=12&id_loc=61&id_bib=140
IT-FC0089,,Biblioteca comunale Aurelio Saffi. Sezione moderna A. Schiavi,corso della Repubblica 78,47121,Forlì,44.2203552,12.0447505,+39 0543712615,+39 0543712616,biblioteca-saffi@comune.forli.fc.it,http://www.cultura.comune.forli.fc.it/servizi/menu/dinamica.aspx?idArea=16315&amp
IT-FC0097,RAVPL,"Biblioteca comunale ""Plebino Battanini"" - Sezione ""Domenica Ancarani-Tronconi""",viale Marconi 115,47011,Castrocaro Terme e Terra del Sole,44.178591,11.9535197,+39 0543766394,+39 0543768445,biblocastrocaro@libero.it,
IT-FC0105,RAVRF,Biblioteca comunale Fratelli Carnacini,via R. Comandini 12,47020,Roncofreddo,44.0402989,12.3141949,+39 0541949355,+39 0541949444,servizisociali@comune.roncofreddo.fc.it,
IT-FC0113,,Biblioteca comunale,"piazza Guglielmo Marconi, 3",47010,Portico e San Benedetto,44.0258598,11.7809771,+39 0543967047,,serena.verdi@comune.portico-e-san-benedetto.fc.it,
IT-FC0114,RAVHP,Biblioteca comunale per ragazzi Paul Percy Harris,"viale Fratelli Spazzoli, 13 A",47121,Forlì,44.2141758,12.0464574,+39 054326039,,biblioteca.p.harris@comune.forli.fc.it,http://www.comune.forli.fc.it/servizi/menu/dinamica.aspx?idArea=190170&idCat=190181&ID=86301
IT-FC0136,RAVPB,"Biblioteca comunale ""Palazzo Vendemini""","corso Gino Vendemini, 67",47039,Savignano sul Rubicone,44.0925705,12.3966759,+39 0541944017,+39 0541942194,biblioteca@comune.savignano-sul-rubicone.fc.it,http://www.comune.savignano-sul-rubicone.fc.it/servizi/Menu/dinamica.aspx?idSezione=12028&idArea=13691&idCat=515&ID=1331&TipoElemento=categoria
IT-FC0142,,Biblioteca comunale,via CADUTI D'UNGHERIA 11,47028,Verghereto,43.7955216,12.0060801,+39 0543902313,+39 0543902377,segreteria@comune.verghereto.fc.it,
IT-FE0001,UFEAG,Biblioteca comunale Francesco Leopoldo Bertoldi,"via Cappuccini, 4 A",44011,Argenta,44.618158,11.837121,+39 0532330264,+39 0532330271,biblioteca@comune.argenta.fe.it,http://www.comune.argenta.fe.it/ufficio/1/1/33/bibliotecamediateca-flbertoldi
IT-FE0002,UFEBB,Biblioteca comunale,"Via Piave, 69",44033,Riva del Po,44.9786338513412,11.9819892447357,+39 0532 1673045,,bibliotecaberra@comune.rivadelpo.fe.it,http://www.comuneberra.gov.it/canali-tematici/centro-di-documentazione-culturale-biblioteca/scheda-illustrativa-del-centro-di-documentazione-culturale-biblioteca-comunale
IT-FE0006,UFEBC,"Biblioteca comunale ""Ludovico Antonio Muratori""",via Agatopisto 5,44022,Comacchio,44.6927267,12.1813535,+39 0533315882,+39 0533315814,biblio@comune.comacchio.fe.it,http://195.62.166.245/comacchio/common/AmvSezione.do?MVPD=0&amp
IT-FE0007,UFECP,Biblioteca comunale di Copparo,"via Roma, 20 B",44034,Copparo,44.8956926,11.8274234,+39 0532864633,+39 0532864660,biblioteca@comune.copparo.fe.it,http://biblioteca.comune.copparo.fe.it/
IT-FE0017,UFEAR,Biblioteca comunale Ariostea,via delle Scienze 17,44121,Ferrara,44.8330257,11.621657,+39 0532418200,+39 0532204296,info.ariostea@comune.fe.it,http://www.artecultura.fe.it/index.phtml?id=271
IT-FE0037,UFEFR,Biblioteca comunale,"viale Roberto Mari, 4",44035,Tresignana,44.841977297515434,11.859409957672122,+39 0533 59012,+39 053359031,biblioteca.formignana@comune.tresignana.fe.it,
IT-FE0038,UFEGO,Biblioteca comunale,"via Cesare Battisti, 74",44020,Goro,44.8537353,12.3009484,+39 0533996395,+39 0533792056,biblioteca@comune.goro.fe.it,http://www.comune.goro.fe.it/c038025/zf/index.php/uffici/index/detail/categoria/80/id/12
IT-FE0039,UFEIO,Biblioteca comunale,corso Matteotti 20,44037,Jolanda di Savoia,44.8865088,11.9732774,+39 0532835757,+39 0532835576,biblioteca@comune.jolandadisavoia.fe.it,http://www.comune.jolandadisavoia.fe.it
IT-FE0040,UFELA,Biblioteca comunale,via Roma 19/a,44023,Lagosanto,44.7656088,12.1401063,+39 0533948529,+39 0533900057,biblioteca@comune.lagosanto.fe.it,http://www.comune.lagosanto.fe.it/lagosanto/common/AmvSezione.do?MVPD=0&amp
IT-FE0041,UFEMT,Biblioteca comunale,"viale Adriatico, 158 A",44020,Masi Torello,44.79412,11.797035,+39 05328191134,+39 0532816677,,http://www.comune.masitorello.fe.it/c038012/zf/index.php/uffici/index/detail/id/9
IT-FE0044,UFEMF,"Biblioteca comunale ""Bruno Pasini"" di Massa Fiscaglia",via Castello 18,44027,Fiscaglia,44.8093774,12.0129758,+39 0533654150,+39 0533539641,servizibibliotecari@comune.fiscaglia.fe.it,https://www.comune.fiscaglia.fe.it/home/vivere/biblioteche.html
IT-FE0045,UFEMG,Biblioteca comunale di Migliarino,"viale Giacomo Matteotti, 11",44027,Fiscaglia,44.76998649999999,11.9380483,+39 0533640338,+39 0533640338,micaela.spadoni@comune.fiscaglia.fe.it,http://www.comune.fiscaglia.fe.it/home/vivere/biblioteche.html
IT-FE0047,UFEOS,"Biblioteca comunale ""Mario Soldati""",via Marcavallo 35/C,44020,Ostellato,44.7439027,11.9405008,+39 0533680379,+39 0533681056,biblioteca@comune.ostellato.fe.it,http://www.comune.ostellato.fe.it/ostellato/common/AmvSezione.do?MVPD=0&amp
IT-FE0048,UFEPG,"Biblioteca comunale e Mediateca ""Gianluca Topa""",via Don Minzoni 1,44028,Poggio Renatico,44.7489687,11.4239062,+39 0532829017,+39 0532829235,biblioteca.poggior@libero.it,
IT-FE0050,UFESA,Biblioteca comunale,Via Statale 191,44047,Terre del Reno,44.7679199,11.3217914,+39 0532845705,+39 0532845705,bibliotecasantagostino@comune.terredelreno.fe.it,http://www.provincia.fe.it/sito?doc=C1257037003749CEC12571C7003BD9BD
IT-FE0051,UFETR,Biblioteca comunale,Via del Lavoro 2,44039,Tresignana,44.818025,11.8946943,+39 0533607761,+39 0533607766,biblioteca.tresigallo@comune.tresignana.fe.it,
IT-FE0052,UFEVM,"Biblioteca comunale ""Carlo Rambaldi""",via Marconi 91,44049,Vigarano Mainarda,44.841718,11.5008579,+39 0532436426,+39 0532436426,biblioteca@comune.vigarano.fe.it,http://www.comune.vigarano.fe.it/Biblioteca
IT-FE0053,UFEBO,Biblioteca comunale Lorenza Meletti,"via dei Mille, 8 A",44012,Bondeno,44.8867871,11.4124789,+39 0532899290,+39 0532899295,biblioteca@comune.bondeno.fe.it,http://comunebondenofe.it/news-biblioteca
IT-FE0098,UFEQB,Biblioteca comunale Giorgio Bassani,Via G. Grosoli 42,44122,Ferrara,44.8643892,11.6047632,+39 0532797484,+39 0532797417,info.bassani@comune.fe.it,http://www.artecultura.fe.it/index.phtml?id=298
IT-FE0101,UFERO,"Biblioteca comunale ""Riccardo Bacchelli""",piazza Umberto I 6,44030,Riva del Po,44.9465402,11.7611273,+39 0532869001,+39 0532868932,biblioteca@comune.ro.fe.it,http://www.comune.ro.fe.it/biblioteca.php
IT-FE0141,UFEMI,Biblioteca comunale Il Volano,"Via Matteotti, 123",44027,Fiscaglia,44.7960486,11.9732059,+39 0533654050,+39 0533655039,biblioteca.migliaro@comune.fiscaglia.fe.it,http://195.62.166.245/fiscaglia/common/AmvSezione.do?MVPD=0&MVSZ=46
IT-FE0142,UFEPR,Biblioteca comunale Aldo Luppi,Via Arginone 320,44124,Ferrara,44.8389536,11.5918114,+39 0532797484,+39 0532731957,bibl.porotto@comune.fe.it,http://www.artecultura.fe.it/index.phtml?id=302
IT-FE0143,UFEGR,"Biblioteca comunale ""Dino Tebaldi"" San Giorgio",via Ferrariola 12,44124,Ferrara,44.8219194,11.6285715,+39 053264215,,bibl.sangiorgio@comune.fe.it,http://archibiblio.comune.fe.it/303/biblioteca-comunale-dino-tebaldi-san-giorgio
IT-FE0144,UFERD,Biblioteca comunale Gianni Rodari,Via Krasnodar 102,44124,Ferrara,44.8229649,11.6009014,+39 053264215,+39 053291957,bibl.rodari@comune.fe.it,http://www.artecultura.fe.it/index.phtml?id=301
IT-FE0145,UFECD,Biblioteca comunale Giorgio Bassani,"riviera Felice Cavallotti, 27",44021,Codigoro,44.8291721,12.1086556,+39 0533729585,+39 0533714561,biblioteca@comune.codigoro.fe.it,http://www.comune.codigoro.fe.it/biblioteca-comunale-e-archivio-storico
IT-FE0146,,"Biblioteca comunale ""Ileana Ardizzoni""","piazza Donatori di Sangue, 1",44041,Cento,45.55997,12.23722,+39 3476848246,,biblioteca@casumaro-fe.it,http://www.comune.cento.fe.it/aree-tematiche/volontariato-e-associazionismo/elenco-associazioni/biblioteca-ileana-ardizzoni-casumaro
IT-FE0147,UFEVO,Biblioteca comunale Luciano Chiappini,"viale Bruno Buozzi, 15",44019,Voghiera,44.75811119999999,11.7509506,+39 0532328542,+39 0532818030,biblioteca.voghiera@gmail.com,http://www.comune.voghiera.fe.it/116/biblioteca
IT-FE0148,UFEME,Biblioteca comunale,Via Mazzini 16 A,44026,Mesola,44.9231021,12.2305259,+39 0533993220,+39 0533993662,biblioteca@comune.mesola.fe.it,http://www.comune.mesola.fe.it/mesola/common/AmvSezione.do?MVPD=0&MVSZ=6
IT-FE0149,UFEPT,Biblioteca comunale,corso Vittorio Emanuele II 75,44015,Portomaggiore,44.69599,11.807817,+39 0532323258,+39 0532320462,servizibiblioteca@comune.portomaggiore.fe.it,http://www.facebook.com/bibliotecaportomaggiore/
IT-FE0175,UFEMB,Biblioteca comunale,Via Giovecca 34,44043,Terre del Reno,44.8232895,11.4611049,+39 0532/849995,+39 0532849267,bibliotecamirabello@comune.terredelreno.fe.it,http://www.comune.terredelreno.fe.it/canali-tematici/cultura-spettacolo-turismo/la-biblioteca-comunale
IT-FE0330,UFENI,"Biblioteca comunale per ragazzi ""Casa Niccolini""",Via Romiti 13,44121,Ferrara,44.8318781,11.621383199999968,+39 0532418231,,w.panizzolo@edu.comune.fe.it,https://bibliofe.unife.it/SebinaOpac/library/biblioteca-comunale-per-ragazzi-casa-niccolini/UFENI
IT-MO0002,MODBT,Biblioteca comunale,piazza Repubblica 57,41030,Bastiglia,44.7265687988856,11.0001880073403,+39 059800912,+39 059815132,biblioteca@comune.bastiglia.mo.it,http://www.comune.bastiglia.mo.it
IT-MO0004,MODBP,"Biblioteca comunale ""J.R.R. Tolkien""",Via Verdi 8/a,41030,Bomporto,44.72846000000001,11.037950000000023,+39 059909780,+39 0598170003,biblioteca@comune.bomporto.mo.it,http://www.comune.bomporto.mo.it/uffici/area_contabile_finanziaria_e_tributi_ragioneria__tributi/servizio_biblioteca/index.htm
IT-MO0008,MODCG,"Biblioteca comunale ""Edmondo Berselli""",via Rubiera 1,41011,Campogalliano,44.688338778672,10.8405047826172,+39 059526176,+39 059851633,biblioteca@comune.campogalliano.mo.it,http://www.comune.campogalliano.mo.it/default/Il_Comune/Biblioteca/
IT-MO0010,MODCP,Biblioteca comunale Bibliomondo,"via Francesco Baracca, 36",41031,Camposanto,44.7897323,11.1378466,+39 + 39 053580936,,biblioteca@comune.camposanto.mo.it,http://www.comune.camposanto.mo.it/il-comune/servizi-comunali/area-socio-culturale/biblioteca
IT-MO0014,MODCF,Biblioteca comunale Lea Garofalo,Piazza della Liberazione 5,41013,Castelfranco Emilia,44.5957726720484,11.0546250160398,+39 059959375,,bibliotecacomunale@comune.castelfranco-emilia.mo.it,http://www.comune.castelfranco-emilia.mo.gov.it/servizi/Menu/dinamica.aspx?idSezione=616&idArea=17077&idCat=17084&ID=35496&TipoElemento=categoria
IT-MO0016,MODCA,Biblioteca comunale,"via Giacomo Matteotti, 2",41051,Castelnuovo Rangone,44.5488537,10.9391155,+39 059534874,+39 059534955,biblio.castelnuovo@comune.castelnuovo-rangone.mo.it,http://www.comune.castelnuovo-rangone.mo.it/pagine_dedicate/biblioteche/index.htm
IT-MO0017,MODCS,Biblioteca comunale Augusto Simonini,"via Cavedoni, 14",41014,Castelvetro di Modena,44.5029262583921,10.9432825859802,+39 059758842,+39 059790771,biblioteca@comune.castelvetro-di-modena.mo.it,http://www.comune.castelvetro-di-modena.mo.it/servizi/Menu/dinamica.aspx?idSezione=616&idArea=8882&idCat=16564&ID=17412&TipoElemento=categoria
IT-MO0021,MODCN,Biblioteca comunale,via per San Possidonio 1,41033,Concordia sulla Secchia,44.9113142,10.9838349,+39 0535412937,+39 0535412942,biblioteca@comune.concordia.mo.it,http://www.comune.concordia.mo.it
IT-MO0022,,Biblioteca comunale Rossi - Di Bella,piazza Marconi 1,41021,Fanano,44.2074407,10.7950573,+39 053668803,+39 053666547,cultura@comune.fanano.mo.it,
IT-MO0023,MODFL,Biblioteca comunale Giuseppe Pederiali,viale della Rinascita 6/2,41034,Finale Emilia,44.840325,11.296416,+39 0535788331,,biblioteca@comune.finale-emilia.mo.it,http://comunefinale@cert.comune.finale-emilia.mo.it
IT-MO0026,MODFM,Biblioteca comunale Albano Biondi,"via Capitano Coppi, 10",41022,Fiumalbo,44.1795463,10.6477196,+39 053673909,+39 053673909,biblioteca@comune.fiumalbo.mo.it,http://www.comune.fiumalbo.mo.it/canali_tematici/cultura_tempo_libero/biblioteca_comunale_albano_biondi_fiumalbo.aspx
IT-MO0027,MODFG,Biblioteca comunale Daria Bertolani Marchetti,via Sant'Antonio 4,41043,Formigine,44.5733335647685,10.8504723994446,+39 059416246,+39 059416354,biblio.formigine@comune.formigine.mo.it,
IT-MO0028,MODFS,"Biblioteca comunale ""Mons. Adolfo Lunardi""",piazza Miani 16,41044,Frassinoro,44.2958179,10.5729472,+39 0536971813,+39 0536971002,alba.bianchi@comune.frassinoro.mo.it,https://www.comune.frassinoro.mo.it/aree-tematiche/cultura-sport-e-tempo-libero/biblioteca-comunale-mons-adolfo-lunardi/biblioteca-comunale-mons-adolfo-lunardi
IT-MO0029,,Biblioteca comunale Ercole Del Rio,via Di Vittorio,41052,Guiglia,44.4277403,10.9556223,+39 059709930,+39 059709955,guiglia@comune.guiglia.mo.it,http://www.comuneguiglia.it/index.php/biblioteca-e-archivio-storico
IT-MO0030,MODLM,Biblioteca comunale,via XXIV Maggio 4,41023,Lama Mocogno,44.3083732,10.730667,+39 0536344390,+39 0536343570,biblioteca@comune.lamamocogno.mo.it,http://www.comune.lamamocogno.mo.it/canali_tematici/turismo/servizi_turistici.aspx
IT-MO0031,MODMN,Biblioteca comunale,via Roma 21,41054,Marano sul Panaro,44.454954,10.966681,+39 059705771,+39 059744116,biblioteca@comune.marano.mo.it,
IT-MO0033,MODMD,Biblioteca comunale,via Genova 10/A,41036,Medolla,44.8499371148805,11.0685659358902,+39 053553850,+39 053553840,biblioteca@comune.medolla.mo.it,http://www.comune.medolla.mo.it
IT-MO0035,MODMR,"Biblioteca comunale ""Eugenio Garin""",via 29 Maggio 9,41037,Mirandola,44.8786134771885,11.0783697235565,+39 053529778,,biblioteca@comune.mirandola.mo.it,http://www.comune.mirandola.mo.it/comune/settori-e-servizi/cultura-istruzione-e-sport/servizio-biblioteca-ed-archivio/biblioteca-1/?searchterm=biblioteca
IT-MO0095,,Biblioteca comunale,via Panoramica 25,41055,Montese,44.2670269,10.9386706,+39 059971122,+39 059971100,biblioteca@comune.montese.mo.it,http://www.comune.montese.mo.it/uffici/pag136.aspx
IT-MO0097,MODNN,Biblioteca comunale,"Via Provinciale Ovest, 57",41015,Nonantola,44.67800744771302,11.031739612164317,+39 059549700,+39 059896590,biblioteca@comune.nonantola.mo.it,http://www.comune.nonantola.mo.it/uffici/area_servizi_alla_persona_servizi_socialiscuola__cultura/biblioteca/index.htm
IT-MO0099,MODNV,Biblioteca comunale Vittorio Lugli,"via Giuseppe di Vittorio, 30",41016,Novi di Modena,44.892637,10.9037469,+39 0596789220,+39 0596789120,biblioteca1@comune.novi.mo.it,https://www.bibliomo.it/SebinaOpac/library/novi-di-modena-comunale-v-lugli/MODNV
IT-MO0100,,Biblioteca comunale decentrata di Rovereto sulla Secchia,Via IV Novembre 38,41030,Novi di Modena,44.654509,10.917486,+39 059672456,+39 059677105,biblio.rovereto@cedoc.mo.it,
IT-MO0101,MODPA,Biblioteca comunale,via Marconi 6/A,41046,Palagano,44.3223098,10.6469525,+39 0536970918,,segreteria@comune.palagano.mo.it,http://www.comune.palagano.mo.it/aree-tematiche/cultura-sport-e-tempo-libero/biblioteca-iscrizione
IT-MO0102,MODPV,Biblioteca comunale Giovanni Santini,via Giardini 3,41026,Pavullo nel Frignano,44.3413686,10.8345587,+39 053621213,+39 053629025,biblioteca@comune.pavullo-nel-frignano.mo.it,
IT-MO0105,MODPP,Biblioteca comunale Adolfo Ferrari,piazza Vittorio Veneto 18,41027,Pievepelago,44.2070178,10.6170049,+39 053671304,+39 053672025,info@comune.pievepelago.mo.it,http://www.comune.pievepelago.mo.it/canali_tematici/cultura_tempo_libero/default.aspx
IT-MO0107,,Biblioteca comunale,"via Sorbelli, 2",41040,Polinago,44.34432,10.72561,+39 053647023,+39 053647262,,http://www.comune.polinago.mo.it/canali_tematici/servizi_scolastici/istituo_comprensivo.aspx
IT-MO0108,MODPG,Biblioteca comunale,"via Alcide De Gasperi, 15",41048,Prignano sulla Secchia,44.4360748,10.6898045,+39 0536892554,+39 0536893227,biblioteca@comune.prignano.mo.it,http://www.bibliomo.it/SebinaOpac/library/prignano-sulla-secchiacomunale/MODPG
IT-MO0110,MODRV,"Biblioteca comunale ""Sibilla Aleramo""",Via Roma 97,41017,Ravarino,44.7242727,11.098354699999959,+39 059800844,+39 059900179,biblioteca@comune.ravarino.mo.it,http://www.comune.ravarino.mo.it/uffici/area_servizi_alla_persona/servizio_biblioteca/index.htm
IT-MO0111,MODRL,Biblioteca comunale,"piazza Guglielmo Marconi, 6-7",41020,Riolunato,44.2307012,10.6532224,+39 053675119,+39 053675324,segreteria@comune.riolunato.mo.it,http://www.comune.riolunato.mo.it
IT-MO0113,MODSC,Biblioteca comunale,corso Libertà 49,41018,San Cesario sul Panaro,44.5610998,11.0351618,+39 059936770,+39 059936741,biblioteca@comune.sancesariosulpanaro.mo.it,
IT-MO0115,MODSF,Biblioteca comunale Campi - Costa Giani,via Campi 41 B,41038,San Felice sul Panaro,44.836748,11.140333,+39 0535671120,+39 053586164,biblioteca@comunesanfelice.net,http://biblioteca.comunesanfelice.net/
IT-MO0116,MODSS,"Biblioteca comunale ""Irene Bernardini""",via Focherini 3,41039,San Possidonio,44.8905411,10.9967012,+39 0535417957,,biblioteca@comune.sanpossidonio.mo.it,http://www.bibliotecacomunalesanpossidonio.it/
IT-MO0118,MODSP,Biblioteca comunale,via Chiletti 6/d,41030,San Prospero,44.7872983,11.0254571,+39 059906010,+39 059906010,biblioteca@comune.sanprospero.mo.it,http://www.comune.sanprospero.mo.it/index.asp?ind=biblioteca.htm
IT-MO0120,MODSA,"Biblioteca comunale ""Natale Cionini""",Via Rocca 19,41049,Sassuolo,44.5421307,10.7807904,,+39 0536874908,biblioteca@comune.sassuolo.mo.it,https://www.comune.sassuolo.mo.it/chi-siamo/biblioteca
IT-MO0122,MODSV,Biblioteca comunale,"piazza Paolo Borsellino, 1",41056,Savignano sul Panaro,44.48005209999999,11.0333466,+39 059731439,+39 059731439,biblioteca@comune.savignano-sul-panaro.mo.it,http://www.savignano.it/eventi_e_cultura/biblioteca/index.htm
IT-MO0123,MODSZ,Biblioteca comunale,"Via Roma, 301",41028,Serramazzoni,44.4202292,10.7963164,+39 0536951210,+39 0536954665,biblioteca@comune.serramazzoni.mo.it,http://www.comune.serramazzoni.mo.it/comune/biblioteca/default.aspx
IT-MO0124,MODSE,Biblioteca comunale,via Macello 10/12,41029,Sestola,44.2315983565492,10.771347935582,+39 053662190,,biblioteca@comune.sestola.mo.it,http://www.cedoc.mo.it/biblioteca_sestola.php
IT-MO0126,MODST,Biblioteca comunale Peppino Impastato,"via Santa Maria, 12",41057,Spilamberto,44.5327382,11.0248158,+39 059789965,+39 059783842,biblioteca@comune.spilamberto.mo.it,http://www.comune.spilamberto.mo.it/tempo_libero/biblioteca/index.htm
IT-MO0127,MODVG,Biblioteca comunale Francesco Selmi,"via San Francesco, 165",41058,Vignola,44.4796708,11.0071437,+39 059771093,+39 059766076,biblioteca@comune.vignola.mo.it,http://www.auris.it
IT-MO0128,MODZC,"Biblioteca comunale ""Zosimo Marinelli""",via del Mercato 104,41059,Zocca,44.3460742,10.9942936,+39 059985736,+39 059985700,biblioteca@comune.zocca.mo.it,
IT-MO0129,,Biblioteca comunale di Spezzano,Via Ghiarella 211,41040,Fiorano Modenese,44.5280673,10.8377701,+39 0536843744,,,
IT-MO0142,MODMF,"Biblioteca Comunale ""Guido Bucciardi""",Via Rocca 1,41045,Montefiorino,44.3594791,10.6252068,,,segreteria@comune.montefiorino.mo.it,https://www.comune.montefiorino.mo.it/chi-siamo/biblioteca
IT-MO0192,MODFN,Biblioteca comunale Albano Sorbelli,via Abà 253,41021,Fanano,44.2065189,10.7899903,+39 053666044,+39 053668954,biblioteca@comune.fanano.mo.it,
IT-MO0213,,Biblioteca comunale Alessandra Lori,"via Zenzalose, 33A",41051,Castelnuovo Rangone,44.5716744,10.9110708,+39 059530527,+39 059530527,biblio.montale@comune.castelnuovo-rangone.mo.it,http://www.comune.castelnuovo-rangone.mo.it
IT-PC0001,PIAAL,"Biblioteca comunale ""Guido Magnelli""",piazza XXV Aprile 1,29010,Alseno,44.896342,9.964939,+39 0523945516,+39 0523949445,biblioteca@comune.alseno.pc.it,
IT-PC0004,PIABB,Biblioteca comunale del Centro culturale polivalente,"piazza S. Chiara, 11",29022,Bobbio,44.7691599,9.385804,+39 0523962804,+39 0523936666,biblioteca.bobbio@sintranet.it,http://www.comune.bobbio.pc.it/sottolivello.asp?idsa=1&idam=&idbox=20&idvocebox=167
IT-PC0005,PIABR,Biblioteca comunale,"piazza Giuseppe Garibaldi, 2",29011,Borgonovo Val Tidone,45.017395,9.4456469,+39 0523861080,+39 0523861861,biblioborgo@yahoo.it,http://www.comune.borgonovo.pc.it/tipologie-di-procedimento/settore-i/servizio-cultura-e-biblioteca-sport-e-tempo-libero/
IT-PC0007,PIABC,Biblioteca comunale,"Piazza della Rocca, 1",29012,Caorso,45.0496166,9.87737040000002,+39 0523814747,+39 0523821109,biblioteca.caorso@sintranet.it,http://www.comune.caorso.pc.it/pagina.asp?IDpag=112&idbox=20&idvocebox=149
IT-PC0008,PIACA,Biblioteca comunale,piazza XX Settembre 1,29013,Carpaneto Piacentino,44.9150175,9.78829919999998,+39 0523853719,+39 0523850090,biblioteca@comune.carpaneto.pc.it,http://www.comune.carpaneto.pc.it
IT-PC0009,PIACS,Biblioteca comunale Villa Braghieri,via Mulini 2,29015,Castel San Giovanni,45.0584097092251,9.4439971423584,+39 0523889613,+39 0523737833,villabraghieri@sintranet.it,
IT-PC0013,PIACO,Biblioteca comunale e Università Pallavicinia dell'età libera,via Boni Brighenti 2,29016,Cortemaggiore,44.9945669858898,9.93076520370482,+39 0523839197,+39 0523836598,biblioteca@comune.cortemaggiore.pc.it,http://www.comune.cortemaggiore.pc.it//index.php/biblioteca
IT-PC0014,PIABF,Biblioteca comunale Mario Casella,"Piazzale San Giovanni, 5",29017,Fiorenzuola d'Arda,44.928939,9.9072635,+39 0523983093,+39 0523944834,biblioteca@comune.fiorenzuola.pc.it,http://leggerepiace.it/SebinaOpac/.do?pb=PIABF
IT-PC0015,PIAGS,Biblioteca comunale,via XXV Aprile 4,29020,Gossolengo,44.9993033,9.61356499999999,+39 0523770136,,biblioteca@comune.gossolengo.pc.it,
IT-PC0017,PIAGR,Biblioteca comunale,via Roma 121,29010,Gragnano Trebbiense,45.0119061,9.56886880000002,+39 0523788250,+39 0523788354,biblioteca.gragnano@sintranet.it,
IT-PC0018,PIALU,Biblioteca comunale,via Piacenza 24,29018,Lugagnano Val d'Arda,44.8229437,9.829816,+39 0523802140,+39 0523801008,biblioteca.lugagnano@sintranet.it,
IT-PC0019,PIADZ,Biblioteca comunale Don Carlo Zucchi,"via Aldo Moro, 20",29010,Monticelli d'Ongina,45.0905826,9.9315202,+39 0523820066,+39 0523827682,biblioteca.monticelli@sintranet.it,http://www.comune.monticelli.pc.it/pagina.php?IDpag=94&idbox=30&idvocebox=134
IT-PC0030,PIAPL,Biblioteca comunale Passerini-Landi,"via Giosuè Carducci, 14",29121,Piacenza,45.0524853,9.6961234,+39 0523492410,+39 0523492400,biblioteca.passerinilandi@comune.piacenza.it,http://www.passerinilandi.piacenza.it/
IT-PC0036,PIAPD,Biblioteca comunale,piazza Nuova,29027,Podenzano,44.956285,9.688832999999999,+39 0523554636,+39 0523550228,mediateca@comune.podenzano.pc.it,http://www.comune.podenzano.pc.it/servizi/Menu/dinamica.aspx?idSezione=616&idArea=23373&idCat=23374&ID=23656&TipoElemento=categoria
IT-PC0037,,Biblioteca comunale,"via Vittorio Veneto, 147",29028,Ponte dell'Olio,44.8679529,9.642536,+39 0523874020,+39 0523878852,biblioteca@comune-pontedellolio.it,https://www.halleyweb.com/c033036/zf/index.php/servizi-aggiuntivi/index/index/idtesto/20055
IT-PC0038,PIAPN,Biblioteca comunale,"piazza Tre Martiri, 12",29010,Pontenure,44.9993943,9.7892656,+39 0523511504,+39 0523511504,biblioteca.pontenure@sintranet.it,http://www.comune.pontenure.pc.it
IT-PC0040,PIARI,Biblioteca comunale,via Bonistalli 7,29029,Rivergaro,44.9129182638992,9.59833421163944,+39 0523957815,,biblioteca@comune.rivergaro.pc.it,
IT-PC0041,PIART,Biblioteca comunale di San Nicolò a Trebbia,"via Dante Alighieri, 2",29010,Rottofreno,45.05370449999999,9.608223899999999,+39 0523760494,+39 0523780387,biblioteca.rottofreno@sintranet.it,http://www.comune.rottofreno.pc.it/leggiarticolo.php?idArt=959
IT-PC0042,PIASG,Biblioteca comunale,via Castello 6,29019,San Giorgio Piacentino,44.9545017,9.73815560000003,+39 0523370116,+39 0523379638,biblioteca@comune.sangiorgiopiacentino.pc.it,
IT-PC0043,PIASA,Biblioteca comunale,piazza Roma 11,29010,Sarmato,45.0601038158365,9.49155398710252,+39 3485220439,+39 0523887784,biblioteca.sarmato@sintranet.it,http://www.comune.sarmato.pc.it/pagina.asp?IDpag=133&amp
IT-PC0044,,Biblioteca comunale,"piazza Vittoria, 1",29010,Vernasca,44.7995303,9.8300269,+39 0523891382,+39 0523891625,biblioteca.comunedivernasca@gmail.com,
IT-PC0045,PIAVI,"Biblioteca comunale ""Don Franco Molinari""",Via Castignoli 2,29020,Vigolzone,44.9109799,9.66782000000001,+39 0523872746,+39 0523872789,biblioteca@comune.vigolzone.pc.it,http://www.comune.vigolzone.pc.it/servizi/Menu/dinamica.aspx?idSezione=616&idArea=23480&idCat=23483&ID=24123&TipoElemento=categoria
IT-PC0046,,Biblioteca comunale,piazza Marocchi 1,29010,Villanova sull'Arda,45.0257949,9.9981342,+39 0523837927,+39 0523837757,comune.villanova@sintranet.it,http://www.comune.villanova.pc.it
IT-PC0059,PIAPI,Biblioteca comunale Giovanni Bavagnoli,via Roma 23,29010,Pianello Val Tidone,44.9474224917398,9.40596392394264,+39 0523998939,,biblioteca.pianello@libero.it,http://www.comunepianellovaltidone.it/c033033/zf/index.php/servizi-aggiuntivi/index/index/idtesto/2
IT-PC0062,PIADE,"Biblioteca comunale ""Passerini-Landi"" - Sede decentrata di Viale Dante",viale Dante Alighieri 46,29122,Piacenza,45.0423947,9.6914045,+39 0523458878,+39 0523458878,biblio.dante@comune.piacenza.it,http://www.passerinilandi.piacenza.it
IT-PC0064,,Biblioteca comunale,"via Aldo Moro, 59",29020,Morfasso,44.7228035,9.7034802,+39 3471094324,+39 0523908187,fperotti1@virgilio.it,
IT-PC0065,,Biblioteca comunale M. Teresa Maestri Del Boca,via Roma 1,29010,Gazzola,44.9638863,9.5505161,+39 0523975221,,protocollo@comune.gazzola.pc.it,
IT-PC0066,PIAPB,Biblioteca comunale,piazza Biazzi 1,29010,Castelvetro Piacentino,45.095569,9.98877649999997,+39 0523823859,+39 0523824734,biblioteca@comune.castelvetro.pc.it,http://www.comune.castelvetro.pc.it/
IT-PC0067,PIAAR,Biblioteca comunale,piazza del Municipio 3,29014,Castell'Arquato,44.85105,9.86734,+39 0523804008,+39 0523803982,biblioteca@comune.castellarquato.pc.it,http://www.comune.castellarquato.pc.it/pagina.asp?IDpag=107&amp
IT-PC0068,PIADF,"Biblioteca comunale ""Passerini-Landi"" - Sede decentrata Farnesiana",via Marinai d'Italia - Galleria del Sole 34,29122,Piacenza,45.037457,9.71443679999993,+39 0523492649,+39 0523492400,biblio.farnesiana@comune.piacenza.it,http://passerinilandi.biblioteche.piacenza.it/pagine/pag161.aspx
IT-PC0071,PIAGA,"Biblioteca comunale ""Passerini-Landi"" - Sezione ragazzi ""Giana Anguissola""",vicolo San Pietro 5 B,29121,Piacenza,45.0528582,9.69529599999998,+39 0523492436,+39 0523492400,biblio.ragazzi@comune.piacenza.it,http://www.passerinilandi.piacenza.it/sedi/biblioteca-ragazzi-giana-anguissola
IT-PC0072,,"Biblioteca comunale ""Bruno Cassinari""",piazza Roma 1,29025,Gropparello,44.8319571,9.7300855,+39 0523856121,+39 0523856363,comune@comune.gropparello.pc.it,http://www.comune.gropparello.pc.it
IT-PC0078,PIATR,Biblioteca comunale Pietro Agnelli,"via Giambattista Anguissola, 8",29020,Travo,44.8597586,9.542759499999999,+39 0523955466,+39 0523959474,biblioteca.travo@sintranet.it,http://www.comune.travo.pc.it/zf/index.php/uffici/index/detail/categoria/80/id/7
IT-PC0080,PIACL,Biblioteca comunale Corrado Confalonieri,"via Giuseppe Mazzini, 2",29010,Calendasco,45.0875597,9.5965765,+39 0523771107,+39 0523772744,protocollo@comunecalendascopc.it,http://www.comune.calendasco.pc.it/pagina.asp?IDpag=112&idbox=40&idvocebox=149
IT-PC0139,,Biblioteca comunale Rio Canto,piazza dei Tigli 5,29010,Piozzano,44.9254686,9.49575709999999,+39 0523970450,,biblioteca.piozzano@gmail.com,
IT-PC0142,,"Biblioteca comunale ""Angelo Ferrari""",Piazza Europa 7,29010,Agazzano,44.9468022315249,9.52046348968815,,,,http://www.comune.agazzano.pc.it/servizi/notizie/notizie_homepage.aspx
IT-PC0143,,Biblioteca comunale “Carla Carloni”,Via Roma 176,29010,Ziano Piacentino,45.0013267,9.40088000000003,+39 0523861036,,biblioteca@comune.ziano.pc.it,http://www.comune.ziano.pc.it/cgi-bin/CSA/tw1/I/it/Comune/Biblioteca%20Comunale
IT-PC0144,PIAVA,Biblioteca comunale Passerini-Landi. Sede decentrata Besurica,"Via Perfetti, 2",29121,Piacenza,45.0334521,9.6625473,+39 0523 492912,,biblio.besurica@comune.piacenza.it,http://www.passerinilandi.piacenza.it/
IT-PR0001,,Biblioteca comunale,"via Pietro Cella, 1",43032,Bardi,44.631659,9.7310833,+39 052572065,+39 052571044,biblioteca@comune.bardi.pr.it,http://www.comune.bardi.pr.it/c034002/zf/index.php/uffici/index/detail/categoria/80/id/1
IT-PR0009,,Biblioteca comunale Cesare Pavese,"via Giuseppe Verdi, 4",43035,Felino,44.6941522,10.2416793,+39 0521336078,+39 0521834661,biblioteca@comune.felino.pr.it,http://www.comune.felino.pr.it/servizi/Menu/dinamica.aspx?idSezione=41744&idArea=41902&idCat=62170&ID=62332&TipoElemento=categoria
IT-PR0013,PARLE,Biblioteca comunale Michele Leoni,"via Andrea Costa, 2",43036,Fidenza,44.8648612,10.0659013,+39 0524517390,+39 0524519217,bibliofidenza@comune.fidenza.pr.it,http://www.comune.fidenza.pr.it/il-comune/servizi-e-uffici/cultura/biblioteca-civica/
IT-PR0015,,"Biblioteca comunale ""Giannina Bocchi""","via Donnino Pozzi, 1",43012,Fontanellato,44.8799333,10.1729174,+39 0521821222,+39 0521824042,biblioteca@comune.fontanellato.pr.it,http://www.comune.fontanellato.pr.it/servizi/Menu/dinamica.aspx?idSezione=616&idArea=18259&idCat=19584&ID=20330&TipoElemento=pagina
IT-PR0016,,Biblioteca comunale Vanda Negri,"via Roma, 9",43010,Fontevivo,44.85732549999999,10.1758689,+39 0521611123,+39 0521610331,biblioteca@comune.fontevivo.pr.it,http://www.comune.fontevivo.pr.it/comune/servizi-e-uffici/ufficio-cultura-e-sport/ufficio-cultura/biblioteca-comunale-%E2%80%9Cvanda-negri%E2%80%9D
IT-PR0017,,Biblioteca comunale,"via Achille Grandi, 2",43045,Fornovo di Taro,44.69542389999999,10.0988849,+39 0525400248,+39 052530246,biblioteca.fornovo@libero.it,http://www.comune.fornovo-di-taro.pr.it/la-citt%C3%A0/biblioteca-comunale
IT-PR0018,,Biblioteca comunale Emma Agnetti Bizzi,"via Cesare Battisti, 20",43013,Langhirano,44.61143650168724,10.268303139811694,+39 0521351352,+39 0521351354,biblioteca@comune.langhirano.pr.it,http://www.comune.langhirano.pr.it/il-territorio/biblioteca
IT-PR0020,PARBM,Biblioteca comunale,"via G. Marconi, 13 bis",43022,Montechiarugolo,44.727536,10.3939982,+39 0521657519,+39 0521657519,biblioteca@comune.montechiarugolo.pr.it,http://www.comune.montechiarugolo.pr.it/servizi/Menu/dinamica.aspx?idSezione=58885&idArea=58896&idCat=59004&ID=59004&TipoElemento=categoria
IT-PR0021,,Biblioteca comunale Don Lorenzo Milani,"via Boni e Gavazzi, 2",43015,Noceto,44.8101399,10.18469,+39 0521621116,+39 0521622100,biblioteca@comune.noceto.pr.it,http://www.comune.noceto.pr.it/comune/struttura-organizzativa/servizio-istruzione-cultura-e-sport/servizi-culturali/biblioteca
IT-PR0022,,Biblioteca comunale Matildica e delle Valli dei Cavalieri,"strada Bonifacio di Canossa, 10",43025,Palanzano,44.4364694,10.1943382,+39 0521891321,+39 0521891547,g.candellari@comune.palanzano.pr.it,
IT-PR0030,PARBG,Biblioteca comunale Ugo Guanda,vicolo delle Asse 5,43121,Parma,0,0,+39 0521031983,+39 0521218892,guanda@comune.parma.it,"http://biblioteche.comune.parma.it/portal/page?_pageid=193,334414&amp"
IT-PR0100,PARSL,Biblioteca comunale Vilma Preti,"piazza Antonio Gramsci, 1",43038,Sala Baganza,44.71262650000001,10.227684,+39 0521331346,+39 0521336429,biblioteca@comune.sala-baganza.pr.it,
IT-PR0102,,Biblioteca comunale Gian Domenico Romagnosi,viale Romagnosi 7/A,43039,Salsomaggiore Terme,44.8132258,9.9837717,+39 0524580204,+39 0524580209,biblioteca@comune.salsomaggiore-terme.pr.it,http://www.comune.salsomaggiore-terme.pr.it/notizie/biblioteca-comunale-g-d-romagnosi
IT-PR0104,,Biblioteca comunale,"via Giuseppe Garibaldi, 52",43019,Soragna,44.927552,10.1258492,+39 0524597005,+39 0524597973,biblioteca@comune.soragna.pr.it,https://comune.soragna.pr.it/menu/27607/biblioteca
IT-PR0105,PARTR,Biblioteca comunale,via Fratelli Cantini 8,43029,Traversetolo,44.6385073,10.3835093,+39 0521842436,+39 0521344550,biblioteca@comune.traversetolo.pr.it,http://www.comune.traversetolo.pr.it/page.asp?IDCategoria=3119&amp
IT-PR0106,,Biblioteca comunale Maria Luisa Zanzucchi Castelli,piazza Michelangelo Buonarroti,43040,Varano de' Melegari,44.6860021,10.0163038,+39 052553283,,biblioteca@comune.varano-demelegari.pr.it,http://www.comune.varano-demelegari.pr.it/notizie/biblioteca-comunale
IT-PR0108,,Biblioteca comunale,Via Albareto 64,43051,Albareto,0,0,+39 0525999231,+39 0525999283,,
IT-PR0111,PARCO,Biblioteca comunale Villa Soragna,"via Valli, 2",43044,Collecchio,44.745447,10.21992,+39 0521301281,+39 0521332217,biblcoll@comune.collecchio.pr.it,http://www.comune.collecchio.pr.it/servizi/Menu/dinamica.aspx?idSezione=18144&idArea=18150&idCat=60534&ID=60608&TipoElemento=categoria
IT-PR0112,,Biblioteca comunale Giuseppe Micheli,"via Micheli, 20",43021,Corniglio,44.475724,10.0883019,+39 0521881339,+39 0521880272,segreteria@comune.corniglio.pr.it,http://www.comune.corniglio.pr.it/fasi-della-vita/biblioteca
IT-PR0122,,Biblioteca comunale Matilde di Canossa,"via Chiesa, 10 A",43024,Neviano degli Arduini,44.5827895,10.3159532,+39 0521345025,+39 0521843590,biblioteca@comune.neviano-degli-arduini.pr.it,http://www.comune.neviano-degli-arduini.pr.it/comune/personale-e-uffici/biblioteca-comunale
IT-PR0128,PARBP,Biblioteca comunale Cesare Pavese,"via Isac Newton, 8 A",43123,Parma,44.79154140000001,10.358192,+39 0521493345,,pavese@comune.parma.it,http://biblioteche.comune.parma.it
IT-PR0134,,Biblioteca comunale,"strada del Municipio, 7",43040,Terenzo,44.6100476,10.0874115,+39 0525527603,+39 0525527169,biblioteca@comune.terenzo.pr.it,
IT-PR0156,PARCN,Biblioteca comunale Glauco Lombardi,"piazza Giuseppe Garibaldi, 23",43052,Colorno,44.9303701,10.3751366,+39 0521313477,+39 0521825505,biblioteca@comune.colorno.pr.it,http://www.comune.colorno.pr.it/la-citt%C3%A0/biblioteca-comunale-g-lombardi
IT-PR0161,PARSB,Biblioteca comunale,via Gruppini 4,43058,Sorbolo Mezzani,44.8466833,10.4460392,+39 0521669644,+39 0521697712,biblioteca@comune.sorbolo.pr.it,
IT-PR0162,,Biblioteca comunale Giovannino Guareschi,"via Cavallotti, 18",43017,San Secondo Parmense,44.9214951,10.2303822,+39 0521871500,+39 0521872757,biblioteca.sansecondo@gmail.com,http://www.comune.san-secondo-parmense.pr.it/servizi/Menu/dinamica.aspx?idSezione=616&idArea=20127&idCat=21247&ID=21281&TipoElemento=categoria
IT-PR0163,,Biblioteca comunale,Viale Matteotti,43047,Pellegrino Parmense,44.7343068,9.9251956,+39 052464271,,,
IT-PR0165,,Biblioteca comunale Fulvio Provasi di Mezzano Inferiore,via Martiri della Libertà 32,43055,Sorbolo Mezzani,44.9054695,10.467611,+39 0521669711,+39 0521316005,info@comune.mezzani.pr.it,
IT-PR0166,,Biblioteca Comunale Sandro Pertini,"via Europa, 9",43014,Medesano,44.7557826,10.1399175,+39 0525422790,+39 0525422710,biblioteca@comune.medesano.pr.it,http://www.comune.medesano.pr.it/it-IT/biblioteca-comunale-1.aspx
IT-PR0167,,Biblioteca comunale per bambini Opplà,Piazza Libertà 6,43045,Fornovo di Taro,44.6896383,10.0988625,+39 0525400230,+39 052530310,servsociali@comune.fornovo-di-taro.pr.it,http://www.comune.fornovo-di-taro.pr.it
IT-PR0202,,Biblioteca comunale Giuseppe Tonna,"via della Costituzione, 37",43018,Sissa Trecasali,44.9633585,10.257923,+39 0521379050,+39 0521877160,p.fontana@comune.sissatrecasali.pr.it,https://www.comune.sissatrecasali.pr.it/come-fare/canali-tematici/cultura/biblioteca
IT-PR0203,,Biblioteca comunale,"via Aldo Moro, 15",43028,Tizzano Val Parma,44.518755,10.200023,+39 0521869017,+39 0521868937,biblioteca@comune.tizzano-val-parma.pr.it,http://www.comune.tizzano-val-parma.pr.it/notizie/biblioteca
IT-PR0237,,Biblioteca comunale,via Provinciale 1,43050,Valmozzola,44.589003,9.8350003,+39 052567144,+39 052567001,l.galli@comune.valmozzola.pr.it,http://www.comune.valmozzola.pr.it/page.asp?IDCategoria=3209&amp
IT-PR0239,,Biblioteca comunale Monica Porcari,piazza L. Guidotti 1,43010,Polesine Zibello,45.0173703,10.0884629,+39 052496235,,everelina@virgilio.it,
IT-PR0298,,Biblioteca comunale,parco Cattaneo,43041,Bedonia,44.5018609,9.6293506,+39 0525824148,,bibliotecabedonia@gmail.com,http://www.facebook.com/bibliotecabedonia
IT-PU0089,,Biblioteca comunale,Piazza Garibaldi,61010,Talamello,43.905085,12.285735,+39 0541319985,,,
IT-PU0124,,Biblioteca Comunale di Sant'Agata Feltria,"Piazza Garibaldi, 12",47866,Sant'Agata Feltria,43.8641288,12.2084084,+39 0541 929440,,bibliocomunalesaf@gmail.com,http://www.comune.santagatafeltria.rn.it/
IT-PU0141,RAVVF,Biblioteca comunale,via Saffi 79,47863,Novafeltria,43.8937408,12.2906977,+39 0541922256,+39 0541845611,biblioteca@comune.novafeltria.rn.it,
IT-RA0001,RAVAL,Biblioteca comunale Pino Orioli,Piazza della Resistenza 2,48011,Alfonsine,44.506517,12.039178,+39 0544866675,+39 054484375,referencebiblioteca@comune.alfonsine.ra.it.,http://www.comune.alfonsine.ra.it/Citta-e-territorio/Biblioteca-comunale-P.-Orioli/Informazioni-orari-e-contatti
IT-RA0002,RAVBC,Biblioteca comunale Giuseppe Taroni,Via Vittorio Veneto 1/a,48012,Bagnacavallo,44.418722,11.975375,+39 0545280912,+39 0545.280921,biblioteca@comune.bagnacavallo.ra.it,http://www.comune.bagnacavallo.ra.it
IT-RA0003,RAVBR,Biblioteca comunale Carlo Pasini,"viale Pascoli, 1",48013,Brisighella,44.2220734,11.7682476,+39 054681645,,biblioteca@comune.brisighella.ra.it,http://www.comune.brisighella.ra.it/Servizi/Cultura-e-Sport/Biblioteca-Comunale
IT-RA0005,RAVCA,Biblioteca comunale Giuseppe Pittano,"via Cardinale Giovanni Soglia, 13",48010,Casola Valsenio,44.223182,11.6237046,+39 054676168,+39 054676168,biblioteca@comune.casolavalsenio.ra.it,http://www.comune.casolavalsenio.ra.it/Servizi/Cultura-e-Biblioteca
IT-RA0006,RAVCB,Biblioteca comunale Luigi Dal Pane,"piazzale Simon Maria Poggi, 6",48014,Castel Bolognese,44.3193843,11.7981924,+39 0546655827,+39 0546655848,biblioteca@comune.castelbolognese.ra.it,http://www.comune.castelbolognese.ra.it/Citta/Cultura-Biblioteca
IT-RA0009,RAVCR,Biblioteca comunale Maria Goia,"Circonvallazione Sacchetti, 111",48015,Cervia,44.26062,12.3512450000001,+39 0544.979384 / 38,+39 0544.970643,biblioteca@comunecervia.it,http://www.biblioteca.comunecervia.it/
IT-RA0012,RAVCN,Biblioteca comunale Giovanna Righini Ricci,via Garibaldi 12,48017,Conselice,44.51268,11.82855,+39 0545986930,+39 0545986966,biblioteca@comune.conselice.ra.it,http://www.comune.conselice.ra.it/Citta-e-territorio/Cultura/Biblioteca-Giovanna-Righini-Ricci
IT-RA0014,RAVCT,Biblioteca comunale Luigi Varoli,"corso Sforza, 24",48033,Cotignola,44.3837916,11.9414455,+39 0545908874,+39 054541574,biblioteca@comune.cotignola.ra.it,http://www.comune.cotignola.ra.it/Citta-e-territorio/Biblioteca
IT-RA0016,RAVFA,Biblioteca comunale Manfrediana,Via Manfredi 14,48018,Faenza,44.2844672,11.8850198,+39 0546691700,+39 0546691729,manfrediana@romagnafaentina.it,http://manfrediana2.racine.ra.it/
IT-RA0024,RAVFU,Biblioteca comunale Carlo Piancastelli,piazza Corelli 16,48034,Fusignano,44.46747,11.95994,+39 0545955675,+39 054552607,bibliotecapiancastelli@comune.fusignano.ra.it,http://www.comune.fusignano.ra.it/contenuti/index.php?t=biblioteca&amp
IT-RA0025,RAVCE,Biblioteca comunale Fabrizio Trisi,piazza Trisi 19,48022,Lugo,44.4199314,11.9098071,+39 054538556,+39 054538534,trisi@comune.lugo.ra.it,http://www.bibliotecatrisi.it
IT-RA0036,RAVCL,Biblioteca comunale Classense,Via Baccarini 3,48121,Ravenna,44.4145567906631,12.2000272227539,+39 0544482112,+39 0544482104,informazioni@classense.ra.it,http://www.classense.ra.it/
IT-RA0039,RAVAB,Biblioteca comunale decentrata Olindo Guerrini di Sant'Alberto,"via Olindo Guerrini, 60",48123,Ravenna,44.5421395,12.157327,+39 0544529805,+39 0544529805,biblio.salberto@classense.ra.it,http://www.classense.ra.it/santalberto/
IT-RA0041,RAVRT,Biblioteca comunale,Via Antonio Gramsci 11,48025,Riolo Terme,44.2776798,11.726468599999976,+39 054677451,+39 054670602,bibriolo@provincia.ra.it,http://www.comune.rioloterme.ra.it/Citta/Biblioteca
IT-RA0042,RAVRU,Biblioteca comunale,"via Godo Vecchia, 10",48026,Russi,44.3731114,12.0365935,+39 0544587640,+39 0544582237,biblioteca@comune.russi.ra.it,https://www.comune.russi.ra.it/il-comune/biblioteca-e-archivio-storico-1/biblioteca-e-archivio-storico#autotoc-item-autotoc-0
IT-RA0043,RAVSA,Biblioteca comunale Loris Ricci Garotti,"piazza mons. E. Rambelli, 4",48020,Sant'Agata sul Santerno,44.4425223,11.8618388,+39 0545919902,,biblioteca@comune.santagatasulsanterno.ra.it,http://www.comune.santagatasulsanterno.ra.it/Citta-e-territorio/Cultura/Biblioteca
IT-RA0044,RAVSO,"Biblioteca comunale ""Mario Mariani""",via Mirasole 5,48027,Solarolo,44.3591451,11.8447826,+39 0546618471,+39 0546618472,biblioteca@comune.solarolo.ra.it,http://www.comune.solarolo.ra.it/La-Citta/Biblioteca
IT-RA0054,RAVPI,Biblioteca comunale decentrata di Piangipane,piazza XXII Giugno 6,48124,Ravenna,44.420263,12.086945,+39 0544418853,+39 0544418146,biblio.piangipane@comune.ra.it,http://www.classense.ra.it/piangipane/
IT-RA0055,RAVFR,Biblioteca comunale Manfrediana Ragazzi,"via Manfredi, 18",48018,Faenza,44.284258,11.8848523,+39 0546691715,+39 0546664907,manfrediana.ragazzi@romagnafaentina.it,
IT-RA0059,RAVBA,"Biblioteca comunale ""Il Torrioncello""","via Terraglio Ponente, 15-17",48031,Bagnara di Romagna,44.3899245,11.8264713,+39 0545905550,+39 054576564,bibliobagnara@provincia.ra.it,http://www.comune.bagnaradiromagna.ra.it/Citta-e-territorio/Cultura/Biblioteca-comunale
IT-RA0071,RAVSS,Biblioteca comunale decentrata Manara Valgimigli di Santo Stefano,via Cella 488,48125,Ravenna,44.315547,12.185685,+39 0544563662,,biblio.valgimigli@classense.ra.it,http://www.classense.ra.it/santostefano/
IT-RA0072,,Biblioteca comunale Maria Gioia. Sezione ragazzi,"via Circonvallazione E. Sacchetti, 113",48015,Cervia,44.2606253,12.3512603,+39 0544979384,,biblioteca@comunecervia.it,http://www.biblioteca.comunecervia.it
IT-RA0074,RAVRE,Biblioteca comunale Manfrediana. Sede di Reda,via Birandola 100,48020,Faenza,44.3009038,11.9561494,+39 0546639241,,manfrediana.reda@romagnafaentina.it,
IT-RA0083,,Biblioteca comunale di Voltana,piazza T. Guerra 1,48028,Lugo,44.5381343,11.9307097,+39 054571398,,trisi@comune.lugo.ra.it,
IT-RA0119,RAVGR,Biblioteca comunale Manfrediana. Sede di Granarolo,via Risorgimento 10,48019,Faenza,44.295262,11.864762,+39 054641977,,manfrediana.granarolo@manfrediana.it,
IT-RA0130,,Biblioteca comunale Classense. Sezione emeroteca Classense-Oriani,via G. DA POLENTA 4,48121,Ravenna,44.416099,12.2003977,+39 0544482055,,informazioni@classense.ra.it,http://www.classense.ra.it
IT-RA0131,,Biblioteca comunale Classense. Sezione multimediateca,Via G. Da Polenta 4,48100,Ravenna,44.416099,12.2003977,+39 0544482056,,multimediateca@provincia.ra.it,http://www.classense.ra.it
IT-RE0001,RE201,Biblioteca comunale Pablo Neruda,via Morandi 9,42020,Albinea,44.6204701,10.6011985,+39 0522590262,+39 0522590236,biblioteca@comune.albinea.re.it,http://biblioteche.provincia.re.it/albinea
IT-RE0003,RE209,Biblioteca comunale Gian Battista Rasori - Centro Culturale Cà Rossa,"via della Repubblica, 14",42011,Bagnolo in Piano,44.7636878,10.671854,+39 0522951948,+39 0522951037,biblioteca@comune.bagnolo.re.it,http://comune.bagnolo.re.it/uffici/189738/biblioteca-bagnolo-piano-gian-battista-rasori
IT-RE0005,RE244,Biblioteca comunale Gian Battista Toschi,"via Gian Battista Toschi, 53",42031,Baiso,44.5005417,10.6016666,+39 0522993520,+39 0522843980,biblioteca@comune.baiso.re.it,http.//biblioteche.provincia.re.it/baiso
IT-RE0008,RE210,"Biblioteca comunale ""Milena Fiocchi""",piazza Damiano Chiesa 1/10,42021,Bibbiano,44.6633788,10.4730625,+39 0522253230,+39 0522253233,biblioteca@comune.bibbiano.re.it,
IT-RE0010,RE235,Biblioteca comunale Claudio Zanichelli,"via Roma, 20 A",42022,Boretto,44.9053195,10.5531864,+39 0522963759,+39 0522965287,biblioteca@comune.boretto.re.it,http://www.comune.boretto.re.it/uffici/biblioteca/
IT-RE0012,RE230,Biblioteca comunale Antonio Panizzi,piazza Mingori 2,42041,Brescello,44.9033883,10.5349055,+39 0522482520,+39 0522684422,biblioteca.brescello@comune.brescello.re.it,http://biblioteche.provincia.re.it/brescello
IT-RE0013,RE232,Biblioteca comunale Arturo Panarari,piazza della Libertà 2,42023,Cadelbosco di Sopra,44.76279,10.594055,+39 0522918525,+39 0522917302,biblioteca@comune.cadelbosco-di-sopra.re.it,http://biblioteche.provincia.re.it/cadelbosco
IT-RE0016,RE212,Biblioteca comunale,"piazza Roma, 9",42012,Campagnola Emilia,44.842288,10.7601952,+39 0522669844,+39 0522669197,biblioteca@comune.campagnola-emilia.re.it,http://biblioteche.provincia.re.it/campagnola
IT-RE0017,RE208,Biblioteca comunale,"via Giorgio Amendola, 51",42040,Campegine,44.7824935,10.5312023,+39 39 0522677906,+39 0522676314,biblioteca@comune.campegine.re.it,http://biblioteche.provincia.re.it
IT-RE0021,RE202,Biblioteca comunale Sognalibro,"piazza Roberto Ruffilli, 3",42013,Casalgrande,44.5895854,10.7380374,+39 0522849397,+39 0522841039,biblioteca@comune.casalgrande.re.it,
IT-RE0022,RE203,"Biblioteca comunale ""Alma ed Emma Chiavelli""",via Roma 56,42014,Castellarano,44.5093114,10.7293096,+39 0536075470,+39 0536850334,mariangela.rivi@comune.castellarano.re.it,http://biblioteche.provincia.re.it/castellarano
IT-RE0023,RE206,Biblioteca comunale,piazza Prampolini 5,42024,Castelnovo di Sotto,44.8113479,10.5627964,+39 0522682533,+39 0522683603,biblioteca@comune.castelnovo-di-sotto.re.it,http://biblioteche.provincia.re.it/Sezione.jsp?idSezione=54
IT-RE0024,RE229,"Biblioteca comunale ""Raffaele Crovi""",via Roma 4,42035,Castelnovo ne' Monti,44.434114,10.4078375,+39 0522610204,+39 0522610275,biblioteca@comune.castelnovo-nemonti.re.it,http://biblioteche.provincia.re.it/castelnovomonti
IT-RE0029,RE207,Biblioteca comunale,"piazza Matilde di Canossa, 2",42026,Canossa,44.5935661,10.4094289,+39 0522248423,+39 0522878050,biblio@comune.canossa.re.it,http://www.comune.canossa.re.it/Sezione.jsp?idSezione=68
IT-RE0031,RE213,Biblioteca comunale Giulio Einaudi,corso Cavour 7,42015,Correggio,44.7703205,10.7797953,+39 0522693296,+39 0522641105,biblioteca@comune.correggio.re.it,http://biblioteche.provincia.re.it/correggio
IT-RE0033,RE247,Biblioteca comunale Salvador Allende,corso Roma 35,42042,Fabbrico,44.8715243,10.8092765,+39 0522751923,+39 0522655368,biblioteca@comune.fabbrico.re.it,http://biblioteche.provincia.re.it/fabbrico
IT-RE0034,RE233,Biblioteca comunale Amos Tragni,via Cicalini 14,42043,Gattatico,44.8067544,10.4742456,+39 0522678657,+39 0522678794,biblioteca@comune.gattatico.re.it,http://biblioteche.provincia.re.it/gattatico
IT-RE0035,RE222,Biblioteca comunale Walter Bonassi,"piazza Bentivoglio, 36",42044,Gualtieri,44.904967,10.6310549,+39 0522221851,+39 0522828444,biblioteca@comune.gualtieri.re.it,http://biblioteche.provincia.re.it/Sezione.jsp?idSezione=61
IT-RE0039,RE236,Biblioteca comunale Cesare Zavattini,"viale F. Filippini, 35",42045,Luzzara,44.9605132,10.6910573,+39 0522977612,+39 0522977612,biblioteca@fondazioneunpaese.org,http://biblioteche.provincia.re.it/luzzara
IT-RE0040,RE218,Biblioteca comunale Angelo Umiltà,"via Alfonso d'Este, 5",42027,Montecchio Emilia,44.700488,10.4459,+39 0522861864,+39 0522863066,biblioteca@comune.montecchio-emilia.re.it,http://biblioteche.provincia.re.it/Sezione.jsp?idSezione=64
IT-RE0042,RE242,Biblioteca comunale Giuseppe Malagoli,"piazzale Guglielmo Marconi, 1",42017,Novellara,44.844898,10.73208,+39 0522655419,+39 0522652057,biblioteca@comune.novellara.re.it,http://biblioteche.provincia.re.it/Sezione.jsp?idSezione=65
IT-RE0043,RE204,Biblioteca comunale,via Parma 1,42028,Poviglio,44.8412809,10.5391175,+39 0522960426,+39 0522967680,biblioteca@comune.poviglio.re.it,http://biblioteche.provincia.re.it/Sezione.jsp?idSezione=66
IT-RE0045,RE234,Biblioteca comunale Carlo Levi,piazza Dante 4,42020,Quattro Castella,44.6358777,10.4728134,+39 0522249232,+39 0522.249268,biblioteca@comune.quattro-castella.re.it,http://biblioteche.provincia.re.it/quattrocastella
IT-RE0058,RE223,Biblioteca comunale,via XX Settembre 2-4,42010,Rio Saliceto,44.8088275,10.8023936,+39 0522647839,+39 0522.647519,biblioteca@comune.riosaliceto.re.it,http://biblioteche.provincia.re.it/Sezione.jsp?idSezione=69
IT-RE0060,RE217,Biblioteca comunale,"via Cesare Battisti, 9",42047,Rolo,44.8875386,10.856679,+39 0522658015,+39 0522666953,biblioteca@comune.rolo.re.it,http://www.comune.rolo.re.it/servizi/Menu/dinamica.aspx?idArea=63&idCat=162&ID=599
IT-RE0068,RE219,Biblioteca comunale Meuccio Ruini,piazza IV Novembre 1,42020,San Polo d'Enza,44.626215,10.420924,+39 0522241729,+39 0522874867,biblioteca@comune.sanpolodenza.re.it,http://biblioteche.provincia.re.it/Sezione.jsp?idSezione=75
IT-RE0069,RE225,Biblioteca comunale,piazza Repubblica 11 E,42049,Sant'Ilario d'Enza,0,0,+39 0522672154,+39 0522472426,biblioteca@comune.santilariodenza.re.it,http://biblioteche.provincia.re.it/Sezione.jsp?idSezione=73
IT-RE0072,RE243,Biblioteca comunale Gaetano Salvemini,"via Vittorio Veneto, 2 A",42019,Scandiano,44.5966475,10.6849679,+39 0522764291,+39 0522764220,biblioteca@comune.scandiano.re.it,http://biblioteche.provincia.re.it/scandiano
IT-RE0073,,Biblioteca comunale Pasquale Marconi,"viale Italia, 2",42020,Vetto,44.4836492,10.3393976,+39 0522815221,+39 0522815694,servizio.sociale@comune.vetto.re.it,https://www.comune.vetto.re.it/?page_id=23
IT-RE0074,RE245,Biblioteca comunale Pablo Neruda,via Tintoria 6,42030,Vezzano sul Crostolo,44.601605910246,10.5478405952454,+39 0522601229,+39 0522.601947,biblioteca@comune.vezzano-sul-crostolo.re.it,http://www.comune.vezzano-sul-crostolo.re.it/page/biblioteca-comunale-pablo-neruda
IT-RE0081,RE248,Biblioteca comunale Sincero Bresciani,"via Guglielmo Marconi, 7",42034,Casina,44.5102586,10.5000269,+39 0522604725,+39 0522609464,biblioteca@comune.casina.re.it,http://biblioteche.provincia.re.it/casina
IT-RE0082,RE241,Biblioteca comunale di Palazzo Frattini,"piazza Giuseppe Garibaldi, 1",42016,Guastalla,44.9214366,10.6522849,+39 0522839755,+39 0522839756,biblioteca@comune.guastalla.re.it,http://biblioteche.provincia.re.it/guastalla
IT-RE0085,RE282,Biblioteca comunale decentrata Rosta Nuova Domenico Manfredi,"via Wibicky, 27",42122,Reggio nell'Emilia,44.6863179,10.6386065,+39 0522585636,+39 0522436322,rosta@comune.re.it,http://panizzi.comune.re.it/Sezione.jsp?titolo=Biblioteca+Rosta+Nuova&idSezione=3057
IT-RE0086,RE283,Biblioteca comunale decentrata di Ospizio,via Emilia Ospizio 30/b,42122,Reggio nell'Emilia,44.6938876,10.6439897,+39 0522585639,+39 0522558974,ospi@comune.re.it,http://panizzi.comune.re.it/Sezione.jsp?titolo=Biblioteca+Ospizio&amp
IT-RE0101,RE281,"Biblioteca comunale decentrata San Pellegrino ""Marco Gerra""",via Rivoluzione d'Ottobre 29,42123,Reggio nell'Emilia,44.6822166,10.6175776,+39 0522585616,+39 0522285924,spell@comune.re.it,http://panizzi.comune.re.it/Sezione.jsp?titolo=Biblioteca+San+Pellegrino-Marco+Gerra&amp
IT-RE0107,,Biblioteca comunale Collagna,"piazza Natale Caroli, 2",42032,Ventasso,44.34717814191358,10.279131619238262,+39 0522891972,+39 0522897242,biblioventasso@gmail.com,http://www.provincia.re.it/biblioteche/civiche.htm
IT-RE0113,,Biblioteca comunale,Corso Trieste 66,42010,Toano,44.3764747,10.5594434,+39 0522805377,+39 0522805542,,
IT-RE0123,RE286,Biblioteca comunale decentrata Santa Croce,via Adua 57,42124,Reggio nell'Emilia,44.7044743,10.6499521,+39 0522585600,+39 0522.920783,bibliotecasantacroce@comune.re.it,http://panizzi.comune.re.it/Sezione.jsp?titolo=Biblioteca+Santa+Croce&amp
IT-RN0001,RAVCP,Biblioteca comunale,piazza della Repubblica 31,47841,Cattolica,43.961458,12.749478,+39 0541966612,+39 0541967803,biblioteca@cattolica.net,http://www.cattolica.net/retecivica/italiano/cultura/bibblioteca/index.php3?RESEARCH_PAGE=informazioni.htm
IT-RN0003,RAVCI,Biblioteca comunale Giovanni Antonio Battarra,Via Martin Luther King 13,47853,Coriano,43.9651157,12.6033481,+39 0541657113,+39 0541657469,biblioteca@comune.coriano.rn.it,http://www.comune.coriano.rn.it/biblioteca/orari.asp
IT-RN0005,RAVMI,Biblioteca comunale,via Rossini 7,47843,Misano Adriatico,43.9795749,12.689005,+39 0541618484,+39 0541616113,biblioteca@comune.misano-adriatico.rn.it,http://www.misano.org/?IDC=132
IT-RN0009,,Biblioteca comunale,"via Villa Parigi, 2",47837,Montegridolfo,43.8589896,12.6889146,+39 0541855208,+39 0541855042,comune@montegridolfo.eu,http://www.montegridolfo.eu
IT-RN0010,RAVGM,Biblioteca comunale Gaspare Mariotti,"via Giovanni Pascoli, 32",47833,Morciano di Romagna,43.9123948,12.6453866,+39 0541987221,+39 0541.987221,biblioteca@comune.morcianodiromagna.rn.it,https://www.comune.morcianodiromagna.rn.it/uffici-e-servizi/biblioteca/
IT-RN0011,RAVPG,Biblioteca comunale Pio Campidelli,"via Santarcangiolese, 4641",47824,Poggio Torriana,44.0222908,12.4123118,+39 0541688273,+39 0541688098,a.teodorani@comune.poggiotorriana.rn.it,http://www.comune.poggiotorriana.rn.it/biblioteca
IT-RN0015,RAVSD,Biblioteca comunale Publio Francesco Modesti,Via Piazza Beato Amato Ronconi 1,47835,Saludecio,43.8728,12.668480000000045,+39 0541869730,+39 0541981624,biblioteca.saludecio@provincia.rimini.it,http://www.comunesaludecio.it/vecchio/sezioni/comune/biblioteca.html
IT-RN0016,RAVSE,Biblioteca comunale Giuseppe Tasini,Piazza G. Mazzini 3,47832,San Clemente,43.932372,12.625405,+39 0541862446,,biblioteca@sanclemente.it,http://www.sanclemente.it/biblioteca/
IT-RN0020,RAVBE,Biblioteca comunale Alfredo Panzini,"via Paolo Guidi, 108",47814,Bellaria-Igea Marina,44.1491058,12.4619029,+39 0541343889,+39 0541349563,biblioteca@comune.bellaria-igea-marina.rn.it,http://www.comune.bellaria-igea-marina.rn.it/citta/cms/page/biblioteca-informazioni/
IT-RN0023,RAVSG,Biblioteca comunale,via Roma 59,47842,San Giovanni in Marignano,43.9391995,12.7138376,+39 0541828165,+39 0541957610,biblio@marignano.net,http://www.comune.san-giovanni-in-marignano.rn.it/index.php?IDC=99
IT-RN0027,RAVRC,Biblioteca comunale Osvaldo Berni,"viale Lazio, 10",47838,Riccione,43.9945647,12.6525915,+39 0541600504,+39 0541698182,biblioteca@comune.riccione.rn.it,http://www.comune.riccione.rn.it/Engine/RAServePG.php/P/31151RIC0404
IT-RN0028,RAVST,Biblioteca comunale Antonio Baldini,Via Pascoli 3,47822,Santarcangelo di Romagna,44.0631658,12.44761589999996,+39 0541356299,,biblioteca@comune.santarcangelo.rn.it,http://www.comune.santarcangelo.rn.it/biblioteca
IT-RN0031,RAVVV,"Biblioteca comunale ""Don Lorenzo Milani""",via Casale 119,47827,Verucchio,44.0051775,12.4365316,+39 0541671166,+39 0541679570,biblioteca@comune.verucchio.rn.it,http://www.comune.verucchio.rn.it/Index.aspx?idarg=52&amp
IT-RN0043,,Biblioteca comunale,via Europa 96,47834,Montefiore Conca,43.8872102,12.6118854,+390541980035,+39 0541 980206,segreteria@comune.montefiore-conca.rn.it,http://www.comune.montefiore-conca.rn.it/biblioteca
IT-RN0083,RAVMT,Biblioteca comunale,Via Indipendenza 128,47854,Montescudo-Monte Colombo,43.9134379,12.5602526,+39 0541657113,,biblioteca@comune.coriano.rn.it,http://comune-montescudo-montecolombo.rn.it/
