operator,name,addr:city,addr:street,addr:housenumber,lon,lat,addr:postcode,opening_hours,note1,note2
3 M SRL,PANINOTECA,Roma,Via Quintino Sella,53,12.4957291,41.9076898,00187,Mo-Fr,,
4.5 IL BISTROT SRL,4.5 IL BISTROT,Roma,Viale America,3,12.4615623,41.8317475,00144,Mo-Su,,
4.5 IL BISTROT SRL,4.5 IL BISTROT RISTORANTE,Roma,Via Amsterdam,140,12.4495265,41.8231537,00144,Mo-Sa,,
A E V SRL,BLACK DIAMOND CAFE',Roma,Viale Beethoven,64/66,12.467229,41.8339338,00144,Mo-Sa,,
A G SRLS,PRONTO CHEF,Roma,Viale Città D'europa,630/632,12.448813,41.8212913,00144,Mo-Su,,
A. E G. CAFFE' SAS DI ALLEGRINI ROBERTO S.A.S.,CAFFE TORRINO,Roma,Piazzale Cina,55/56,12.4328406,41.8078666,00144,Mo-Sa,,
A.E.M.M.A. SRL,IL CHICCO E IL CALICE,Roma,Viale Europa,288,12.4691938,41.8308093,00144,Mo-Sa,,
ABA SRL,IL GUSTO IN PIAZZA BAR,Roma,Piazza Regina Margherita,25/26,12.5053962,41.9137054,00198,Mo-Su,,
ACQUA E FARINA SRL,ALICE PIZZA,Roma,Via Torre Di Mezzavia,35,12.5948862,41.8374253,00173,Tu-Su,,
ACRI CYSIVE SRL,L'INSALATA RICCA RISTORANTE,Roma,Via Francesco Acri,50/52,12.4823937,41.8434096,00142,Mo-Su,,
ADETA SRL,CONAD SUPERMERCATO,Roma,Via Del Torraccio Di Torrenova,182/B,12.6278951,41.8666194,00133,Mo-Sa,,
AELLE IN SRL,CRUCIANI GASTRONOMIA,Roma,Piazzale Delle Provincie,14/16,12.521177137250914,41.909366500000004,00162,Mo-Sa,,
AHMED KEDR,RE DELLA PIZZA TAVOLA CALDA PIZZERIA,Roma,Via Domenico De Dominicis,1,12.5347767,41.9009277,00159,Mo-Su,,
AIDA SRL,AIDA SUPERMERCATI,Roma,Via Di Rocca Cencia,68,12.6949397,41.881937,00132,Mo-Su,,
AIELLO DANIELE,BAR IL GALEONE,Roma,Via Della Lega Lombarda,53,12.5253453,41.9085614,00162,Mo-Sa,,
AL DISCO VOLANTE SRL,DISCO VOLANTE RISTORANTE,Roma,Via Alessandria,50,12.5005346,41.9105957,00198,Mo-Su,,
AL FORNO DELLA SOFFITTA SRL,AL FORNO DELLA SOFFITTA RISTORANTE PIZZERIA,Roma,Via Piave,62/64,12.4219779,41.6581424,00187,Mo-Su,,
AL SA ALIMENTARI SRL,CARREFOUR MARKET,Roma,Viale Giulio Agricola,104/108,12.5606269,41.8546679,00174,Mo-Su,,
ALBA SRL,CARREFOUR,Roma,Via Francesco Carrara,28,12.4746954,41.9123859,00196,Mo-Su,,
ALBA SRL,CARREFOUR,Roma,Via Degli Orti Della Farnesina,83,12.4639611,41.9393964,00135,Mo-Su,,
ALBA SRL,CARREFOUR EXPRESS,Roma,Via Dei Cestari,42,12.47736,41.8969468,00186,Mo-Su,,
ALBA SRL,CARREFOUR MARKET,Roma,Via Cassia,764,12.4265864,41.9746287,00189,Mo-Su,,
ALBA SRL,CARREFOUR EXPRESS,Roma,Via Filippo Civinini,54,12.4813168,41.9247874,00197,Mo-Su,,
ALBI SRLS,CAFE ROUGE,Roma,Via Dell'Amba Aradam,19,12.5014101,41.8845867,00184,Mo-Fr,,
ALE E ALE STREET FOOD SRLS,ALE E ALE STREET FOOD FROM PUGLIA,Roma,Via Del Gazometro,43255,12.4790154,41.8716321,00154,Mo-Sa,,
ALEO R. G. & C. SAS,NATURAL BAR,Roma,Viale Regina Margherita,167,12.5053302,41.9140578,00198,Mo-Sa,,
ALEXANDER BAR SRL,ALEXANDER BAR,Roma,Via Di Portonaccio,124,12.5345194,41.9074398,00159,Mo-Sa,,
ALFA SRL,CONAD,Roma,Via Marco Celio Rufo,22,12.5523963,41.8654506,00175,Mo-Su,,
ALIMENTARI BORSIERI SAS PIERINI E. E C.,ALIMENTARI BORSIERI,Roma,Via Pietro Borsieri,9/A/11,12.4613179,41.9130953,00195,Mo-Sa,,
ALIMENTARI COLLATINA  SRL,IPERCARNI,Roma,Viale Alessandrino,318,12.5801753,41.8721773,00172,Mo-Su,,
ALIMENTARI DANDINI ARTURO SNC E C,CONAD,Roma,Via Campi D'Annibale,110,12.7143518,41.7607926,00168,Mo-Su,,
ALIMENTARI DI SANTE LUCA,ALIMENTARI DI SANTE LUCA,Roma,Via Piero Foscari,111,12.5175988,41.9516195,00139,Mo-Sa,,
ALIMENTARI EREDI SALVATORI GIOVANNI SAS,ALIMENTARI,Roma,Viale Dei Salesiani,92/94,12.5667015,41.857446,00175,Mo-Su,,
ALIMENTARI SANTECECCA,ALIMENTARI SANTECECCA,Roma,Via Antonino Lo Surdo,23/A/B,12.4711217,41.8631259,00146,Mo-Sa,,
ALIMENTARIA ST3 SRL,ALIMENTARIA ST3,Roma,Via Di Casal Dei Pazzi,53,12.5693703,41.9275957,00156,Mo-Sa,,
ALMA CATERING SRL,CAFFE' TORINO,Roma,Via Torino,40/A,12.4955986,41.9014889,00184,Mo-Fr,,
AMADIO TIZIANO,MACELLERIA AMADIO,Roma,Via Luciano Manara,43445,12.4703803,41.8879394,00153,Mo-Fr,,
AMG 2011 SRL,BAR DELLA RABBIA,Roma,Via Imperatore Tiberio,109,,,00145,Mo-Su,,
AMURA E CO SRL,RISTORANTE SUGHETTO,Roma,Via Del Portico D'ottavia,1/C,12.4783778,41.8923774,00186,Su-fr,,
ANDRACCHIO FRANCESCO,PASTICCERIA ANDRACCHIO BAR,Roma,Via Alessandro Severo,224,12.4876164,41.8528984,00145,Mo-Su,,
ANDRACCHIO GIUSEPPE CAFFE',CAFFE ANDRACCHIO,Roma,Via Cornelio Magni,33/35,12.4974888,41.8653681,00147,Mo-Sa,,
ANDRACCHIO GIUSEPPE CAFFE',BAR CAFFE' ANDRACCHIO,Roma,Via Cristoforo Colombo,149,12.4945725,41.8571439,00147,Mo-Sa,,
ANDREOTTI SRL,PASTICCERIA CAFFETTERIA ANDREOTTI,Roma,Via Ostiense,54/B,12.4797813,41.8716985,00154,Mo-Su,,
ANNA & GIPPO SNC,ALICE,Roma,Via Palermo,46,12.4923408,41.8991009,00184,Mo-Sa,,
ANNA MARIA BONVENTRE,AL 127 CAFFETTERIA,Roma,Viale Giulio Cesare,127,12.4586746,41.9093489,00192,Mo-Sa,,
ANTAKA DI MOHAMED A.M.,ANTAKA,Roma,Via Aosta,11,12.5141944,41.8827088,00182,Mo-Su,,
ANTICA BIRRERIA SRL,ANTICA BIRRERIA PERONI DAL 1906,Roma,Via Di San Marcello,19,12.4824596,41.8987739,00187,Mo-Sa,,
ANTONACCI MARCO,SAPORI DI UNA VOLTA,Roma,Via Andrea Solario,64,12.4867442,41.8379542,00142,Mo-Sa,,
ANTONINI LORENA,ANTONINI MARKET,Roma,Via Monte Cervialto,7,12.5262362,41.9504979,00139,Mo-Su,,
ANZ SRL,VINERIA ANZUINI,Roma,Viale Europa,226/278,,,00144,Mo-Sa,,
APPLE 299 SRLS,APPLE 299,Roma,Viale Europa,299,12.4691938,41.8308093,00144,Mo-Fr,,
ARCA SRL,CAFFÈ BELSITO,Roma,Via Rotterdam,43409,12.4535675,41.8205021,00144,Mo-Sa,,
ARCO SRL,IPERTRISCOUNT,Roma,Via Dell'Arco Di Travertino,88,12.534146,41.8650136,00178,Mo-Su,,
ARMENIO SNC DI ARMENIO E C,CAFFE' PIAVE,Roma,Via Piave,2/E,12.4219779,41.6581424,00187,Mo-Su,,
AROMA EUR SRL,JUST CASINI,Roma,Viale Della Civilta Del Lavoro,14/34,12.4676864,41.8361219,00144,Mo-Su,,
AROMA EUR SRL,EUR CAFFE CASINI 2 BAR,Roma,Via Chopin,27/33,12.4679361,41.8348906,00144,Mo-Su,,
ARTE E SFIZIO SRL,ARTE E SFIZIO,Roma,Via Sistina,14/A/D,12.4859016,41.9046819,00187,Mo-Su,,
ASAR MOHAMED AYMAN,PIZZA IN RISTORANTE,Roma,Viale Di Trastevere,100/102,12.4720747,41.886744,00153,Mo-Su,,
ATLANTIDE SRL,GRAN CAFFE' LA CAFFETTIERA,Roma,Piazza Di Pietra,65,12.4798402,41.9000357,00186,Mo-Su,,
AUGUSTA SRL,KFC - KENTUCKY FRIED CHICKEN,Roma,Via Collatina,858,12.6610072,41.9156089,00132,Mo-Su,ROMA EST,
AZZURRA SRL,PEWEX SUPERMERCATO,Roma,Via Simonetta Landucci Tosi,27,12.3978735,41.9588574,00135,Mo-Su,C.C. GULLIVER,
AZZURRA SRL,PEWEX SUPERMERCATO,Roma,Via Filippo Serafini,73,12.5746158,41.8616058,00173,Mo-Su,,
B. & A. SRL,BURRO E ALICI PANINOTECA,Roma,Via Mercede,34,12.4821672,41.903293,00187,Mo-Sa,,
BAGHETTIAMO SRL,BAGHETTIAMO,Roma,Via Toscana,40,12.4908031,41.9098917,00187,Mo-Fr,,
BAKERY ROMA SRLS,BAKERY,Roma,Circonvallazione Ostiense,158,12.4934056,41.8673282,00154,Mo-Su,,
BAR DEL MEF SRLS,BAR DEL MEF,Roma,Via Pastrengo,1,10.208617,43.9281856,00185,Mo-Fr,,
BAR DELLA FONTE SRLS,BAR DELLA FONTE,Roma,Via Andrea Meldola,186/188,12.507107,41.823513,00143,Mo-Sa,,
BAR DELLE VILLE SAS,BAR DELLE VILLE,Roma,Via Nomentana,303,12.5196043,41.9229722,00162,Mo-Sa,,
BAR FRATELLI IACOVONE SNC DI IACOVONE,BAR FRATELLI,Roma,Via Nomentana,99,12.5133326,41.917478,00161,Mo-Sa,,
BAR GOITO SRLS DI NARDONE NICOLA,BAR GOITO,Roma,Via Goito,31/33,12.4989209,41.9072304,00185,Mo-Sa,,
BAR PRATI SNC DI G. ANGELONI E L. IACONI,PRATI BAR,Roma,Via Silla,106/108,12.4602272,41.9068509,00192,Mo-Sa,,
BAR SOLE & FIORE SRLS,BAR SOLE & FIORE,Roma,Via Carlo Citerni,45/47,12.4931446,41.8679018,00154,Mo-Sa,,
BAR TAVOLA CALDA ROMAGNOLI SRL,BAR TAVOLA CALDA,Roma,Via Nizza,69 C/D,12.5002095,41.912433,00198,Mo-Sa,,
BAR TORTORA SNC,TORTORA BAR,Roma,Via Giandomenico Romagnosi,5,12.502125,41.6674505,00196,Mo-Fr,,
BARCOLLO SRL,BAR COLLO,Roma,Viale Gino Cervi,14,12.5331772,41.9632348,00139,Mo-Sa,,
BCL SAS DI LEONE FABIO & C,TAZZA D'ORO BAR,Roma,Via Ostiense,133/C,12.4789164,41.8639051,00154,Mo-Sa,,
BELLI RISTORAZIONE SRL,FUOCO,Roma,Via Cicerone,34,12.4678864,41.9084113,00193,Mo-Su,,
BEMA SRL,AL BELEGI BAR,Roma,Via Duccio Di Buoninsegna,115,12.4900693,41.8297961,00142,Mo-Sa,,
BENECASA SRL,SIMPLY MARKET,Roma,Via Fabio Massimo,35/37,12.4622124,41.9088108,00192,Mo-Su,,
BERNARDINI EZIO,CAFFE' BERNARDINI,Roma,Piazza Ippolito Nievo,20,12.467085707648954,41.87970385,00153,Mo-Su,,
BERNARDO ALESSANDRO,PIZZERIA GLI ARTISTI,Roma,Via Salaria,121/F/G,12.4985167,41.9195328,00198,Mo-Fr,,
BEST FRIEND'S SRLS,INCONTRIAMOCI BAR,Roma,Via Nomentana,335F,12.5196043,41.9229722,00162,Mo-Sa,,
BEZZI PIZZA SNC DI MARCO BEZZI E ALESSANDRA BEZZI,BEZZI PIZZA RISTORANTE PIZZERIA,Roma,Via Messina,23,12.5026515,41.9110535,00198,Mo-Fr,,
BIG VALE SRL,PIZZA CINQUE,Roma,Via Cicerone,76,12.4678649,41.9082617,00193,Mo-Su,,
BINARIO ZERO SRLS,BINARIO ZERO CAFFE' BAR,Roma,Via Marsala,56,12.5041579,41.901252,00185,Mo-Su,,
BINO SRL,IPERCARNI SUPERMERCATO,Roma,Via Palombarense,565,12.6187733,41.9684004,00131,Mo-Su,,
BINO SRL,IPERCARNI SUPERMERCATO,Roma,Via Di Casal Del Marmo,329,12.396822299999997,41.9497935,00135,Mo-Su,,
BIO SNACK SRL,BIO SNACK,Roma,Via Della Scrofa,53,12.4748827,41.9001522,00186,Mo-Su,,
BISTRO 72 SRLS,BAR DESAN,Roma,Via Sicilia,149/151,12.4893577,41.9081518,00187,Mo-Sa,,
BISTROT 36 DI GABRIELLI MARIO,BISTROT 36,Roma,Via Leopoldo Traversi,17,12.4931446,41.8679018,00154,Mo-Fr,,
BLB SRL,PIZZERIA I SUPPLI',Roma,Via Di San Francesco A Ripa,137,12.471737,41.8871251,00153,Mo-Sa,,
BLOMMA SRL,CONAD SUPERMERCATO,Roma,Via Tommaso Da Celano,78,12.5154678,41.8711875,00179,Mo-Su,,
BOLOGNESI CRISTIANO,RISTORANTE DA MASSI,Roma,Via Della Scala,34/A/B,12.4687216,41.8903798,00153,Mo-Su,,
BORGONOVO SRL,PIZZERIA ALICE PIZZA,Roma,Viale Regina Margherita,245,12.5053302,41.9140578,00198,Mo-Sa,,
BORGOROSSO SRL,ALICE PIZZA,Roma,Via Appia Nuova,450,12.5221156,41.874949,00181,Mo-Su,,
BRADANINI RITA,ALIMENTARI,Roma,Via Del Calice,35,12.5642814,41.8316419,00178,Mo-Sa,,
BRICK SRL,CONAD SUPERMERCATO,Roma,Via Cardinal Massimi,3,,,00167,Mo-Su,,
BROTHERS DI LOMBARDO G.SNC,VAGABONDI IN MOTO CAFFE',Roma,Via Ancona,45,12.501792,41.9099951,00198,Mo-Su,,
BU.CA SRL,QUARTO,Roma,Via Crescenzio,52,12.4659426,41.9055688,00193,Mo-Su,,
BU.CA SRL,PORTO,Roma,Via Crescenzio,56,12.4635335,41.9058688,00193,Mo-Sa,,
BUCHETTO SRL,ROSSOPOMODORO RISTORANTE PIZZERIA,Roma,Piazza Monte Grappa,1,12.4695852,41.9179588,00195,Mo-Su,,
BUSCAINI ANGELO SRL,PIM SUPERMERCATO,Roma,Via Di Bravetta,403,12.4253329,41.8756424,00164,Mo-Su,,
BUSCAINI ANGELO SRL,PIM SUPERMERCATO,Roma,Via Felice Bellotti,2,12.4405604,41.8571919,00151,Mo-Su,,
BUSCAINI ANGELO SRL,PIM SUPERMERCATO,Roma,Via Igea,42,12.4424793,41.9347876,00135,Mo-Su,,
BUSCAINI ANGELO SRL,PIM SUPERMERCATO,Roma,Via Di Torrevecchia,590,12.4110246,41.9225752,00168,Mo-Su,,
BUSCAINI ANGELO SRL,PIM SUPERMERCATO,Roma,Via Di Torrevecchia,309/313,12.4128615,41.9239219,00168,Mo-Su,,
BUSCAINI ANGELO SRL,PIM SUPERMERCATO,Roma,Via Pietro Maffi,114,12.4204038,41.9265568,00168,Mo-Su,,
BUSCAINI ANGELO SRL,IPERFAMILY,Roma,Via Di Torrevecchia,1050,12.40275195869216,41.91321055,00168,Mo-Su,,
BUSCAINI ANGELO SRL,PIM SUPERMERCATO,Roma,Via Trionfale,8044,12.4277732,41.9373887,00135,Mo-Su,,
BUSCAINI ANGELO SRL,PIM SUPERMERCATO,Roma,Via Portuense,265,12.4467389,41.8569599,00149,Mo-Su,,
BUSCAINI ANGELO SRL,ALPIM,Roma,Via Oderisi Da Gubbio,133,12.4652396,41.8653157,00146,Mo-Su,,
BUSCAINI ANGELO SRL,PIM SUPERMERCATO,Roma,Via Piedicavallo,37,12.3602893,41.923930150000004,00166,Mo-Su,,
BUSCAINI SUPERMERCATI TRIONFALE SRL,AGORA' SUPERMERCATO,Roma,Via Di Boccea,632/634,12.3874494,41.9140166,00166,Mo-Su,,
BUSCAINI SUPERMERCATI TRIONFALE SRL,AGORA SUPERMERCATI,Roma,Via T De Gubernatis Mannucci,SNC,12.4275535,41.9393085,00135,Mo-Su,,
BUSCAINI SUPERMERCATI TRIONFALE SRL,AGORA SUPERMERCATI,Roma,Via Gregorio Vii,218,12.4397948,41.8958826,00165,Mo-Su,,
C.D.K. SRL,CARREFOUR EXPRES SUPERMERCATO,Roma,Viale Cesare Pavese,282,12.4744966,41.817393,00144,Mo-Su,,
C.D.K. SRL,CARREFOUR EXPRESS SUPERMERCATO,Roma,Via Cesare Fracassini,62/66,12.4709377,41.9235994,00196,Mo-Su,,
C.D.K. SRL,CARREFOUR EXPRESS,Roma,Via Della Vite,54-55-56,12.4818422,41.9039075,00187,Mo-Su,,
C.D.K. SRL,CARREFOUR EXPRESS SUPERMERCATO,Roma,Via Cola Di Rienzo,173,12.4642224,41.9078607,00193,Mo-Su,,
C.D.K. SRL,CARREFOUR EXPRESS SUPERMERCATO,Roma,Via Del Biscione,79,12.4731553,41.895794,00186,Mo-Su,,
C.D.K. SRL,CARREFOUR MARKET,Roma,Via Del Teatro Di Marcello,2A/2B,12.4819025,41.8939672,00186,Mo-Su,,
C.D.K. SRL,ARDEA SUPERMERCATO,Roma,Via Reggio Emilia,88,12.5029981,41.9121665,00198,Mo-Su,,
C.F.C.M. SRL,EUR CAFFE' CASINI 22,Roma,Viale Della Civilta Del Lavoro,58/60,12.4676864,41.8361219,00144,Mo-Fr,,
C.R. MARKET SPA,CONAD SUPERMERCATO,Roma,Via Di Polletrara,47/49,12.3690976,41.9146869,00166,Mo-Su,CASALOTTI,
C.R. MARKET SPA,CONAD SUPERMERCATO,Roma,Via Di Castel Fusano,36,12.313329,41.7331406,00124,Mo-Su,,
C.R. MARKET SPA,CONAD SUPERMERCATO,Roma,Via Di Casal Palocco,121,12.3551635,41.7474576,00124,Mo-Su,,
C.R. MARKET SPA,CONAD SUPERMERCATO,Roma,Via Domenico Falcioni,12,12.3904538,41.9975149,00123,Mo-Su,,
C.R. MARKET SPA,CONAD SUPERMERCATO,Roma,Via Isole Del Capo Verde,22/26,12.2727971,41.7376548,00121,Mo-Su,,
C.R. MARKET SPA,CONAD SUPERMERCATO,Roma,Via Bernardino Alimena,111,12.6078389,41.8479808,00173,Mo-Su,CENTRO COMMERCIALE DOMUS,
C.R. MARKET SPA,CONAD TOR TRE TESTE SUPERMERCATO,Roma,Via Francesco Tovaglieri,21/23,12.590911,41.8815752,00155,Mo-Su,,
C.R. MARKET SPA,CONAD SUPERMERCATO,Roma,Via Casilina,1585/A,12.6086685,41.8640359,00133,Mo-Su,,
C.R. MARKET SPA,CONAD SUPERMERCATO,Roma,Via Ardeatina,850,12.5295573,41.8092814,00178,Mo-Su,,
CAFFE' 46 SRLS,CAFFÈ' 46,Roma,Via Savoia,8,12.5024534,41.9142103,00198,Mo-Sa,,
CAFFE CLAUDIO SRL,IL TEMPIO DEL CAFFE BAR,Roma,Viale Cesare Pavese,318/320,12.4744966,41.817393,00144,Mo-Su,,
CAFFE' FLORIAN ROMA SRL,CAFFE' FLORIAN ROMA,Roma,Via Giosuè Carducci,14,12.4941134,41.9062178,00187,Mo-Fr,,
CAFFE' ITALIANO SNC DI ALLETTO SALVATORE & C,CAFFE' ITALIANO,Roma,Via Calabria,14,12.5607132,42.1186727,00187,Mo-Sa,,
CAFFE' LA STELLA SRL,CAFFE' LA STELLA,Roma,Piazzale Asia,21,12.4670397,41.8328749,00144,Mo-Fr,,
CAFFE NERO SAS DI MARIO ABATE & C.,BAR CAFFE' NERO,Roma,Via Antonio Cantore,15,12.4636063,41.9186942,00195,Mo-Su,,
CAFFE' POINT DI JIANG LINGUANG,CAFFE' POINT,Roma,Via Mirandola,43/45,12.5244306,41.8828615,00182,Mo-Su,,
CAFFE' TROMBETTA SPA,CTS SUPERMERCATO,Roma,Via Gioberti,30/E/F/G,12.6822705,41.8081402,00185,Mo-Su,,
CAFFE' TROMBETTA SPA,CTS SUPERMERCATI,Roma,Via Cassia,340,12.4567055,41.9573649,00191,Mo-Su,,
CAFFE' TROMBETTA SPA,CTS SUPERMERCATI,Roma,Via Marsala,46,12.5031417,41.9019908,00185,Mo-Su,,
CAFFE' TROMBETTA SPA,CTS SUPERMERCATI,Roma,Via Andrea Millevoi,57,12.5186504,41.82234,00178,Mo-Su,,
CAFFE' TROMBETTA SPA,CTS SUPERMERCATO,Roma,Via Raffaele Conforti,95/97,12.4082634,41.8949241,00166,Mo-Su,,
CAFFE' TROMBETTA SPA,CTS SUPERMERCATO,Roma,Via Cechov,76,12.5074178,41.8392559,00142,Mo-Su,,
CAFFE' TROMBETTA SPA,CTS SUPERMERCATI,Roma,Via Tiburtina,872,12.534006,41.9081397,00159,Mo-Su,,
CAFFEINA S.R.L.,CAFFEINA,Roma,Via Giambattista Vico,44 A/B,12.4745773,41.912692,00196,Mo-Sa,,
CAFFETTERIA POTA DI POTA VALERIO,CAFFETTERIA POTA,Roma,Via Angelo Bargoni,80/84,12.4691019,41.8809892,00153,Su-fr,,
CAFFETTERIA SRL,DIESIS CAFFE',Roma,Via Gabriello Chiabrera,158,12.4793762,41.8542127,00145,Mo-Sa,,
CALVANI EDOARDO,BAR TAVOLA CALDA CALVANI,Roma,Via Tiburtina,731/735,12.534006,41.9081397,00159,Mo-Sa,,
CAMMARANO PIETRO,GROTTA AZZURRA RISTORANTE PIZZERIA,Roma,Via Cicerone,62/A,12.4678864,41.9084113,00193,Mo-Su,,
CAPSAICINA SRLS,BAGEL PLUS,Roma,Via Ancona,28,12.501792,41.9099951,00198,Mo-Sa,,
CARBO SRLS,BAR CONCA D'ORO,Roma,Via Conca D'oro,234,12.5218714,41.9420405,00141,Mo-Sa,,
CAROTTI ANTONIETTA,BAR,Roma,Via Dei Sommozzatori,10,12.4814222,41.8222131,00143,Mo-Sa,,
CASOLI GIOVANNI SAS DI CASOLI GIOVANNI E C.,DELICATEZZE ARTIGIANALI GASTRONOMIA,Roma,Via Sampiero Di Bastelica,31,12.5387182,41.8906341,00176,Mo-Sa,,
CASTRONI A VIA CATANIA SRL,CASTRONI A VIA CATANIA,Roma,Via Catania,54/56,12.5172221,41.910535,00161,Mo-Sa,,
CAVALIERE VINCENZO GERARDO,PIZZERIA PALINURO,Roma,Via Delle Vigne Nuove,604,12.5355308,41.9640846,00139,Mo-Su,,
CD 24121 SRL,PEWEX SUPERMERCATO,Roma,Via Del Serafico,220,12.4908341,41.8307928,00142,Mo-Su,,
CD 24121 SRL,PEWEX MARKET,Roma,Via Umberto Barbaro,24,12.5384337,41.9587264,00139,Mo-Su,,
CDR 200 SRL,FRANCHI,Roma,Via Cola Di Rienzo,200/204,12.4652093,41.9079707,00192,Mo-Su,,
CE.PAS. SRL,DEM SUPERMERCATI,Roma,Via Cesare Pascarella,20,12.4673869,41.8766864,00153,Mo-Su,,
CE.PAS. SRL,DEM SUPERMERCATI,Roma,Via Di Casal Selce,296,12.3414334,41.8985135,00166,Mo-Su,,
CENSONI FABIO,PIZZERIA LE PIAZZETTE,Roma,Via Donato Menichella,166,12.5891197,41.9464242,00156,Mo-Sa,,
CENTRALMARKET DUE SRL,CARREFOUR MARKET,Roma,Via Anagnina,395,12.6332776,41.805936,00118,Mo-Su,,
CENTRO FOOD SRL,PANICUNZATO,Roma,Viale Della Primavera,194,12.56021802263739,41.88211365,00172,Mo-Su,CENTRO COMMERCIALE PRIMAVERA,
CERASARI SNC DI ENRICO E LAVINIA CERASARI,BAR GASTRONOMIA,Roma,Via Salaria,288,12.5085917,41.9390045,00199,Mo-Sa,,
CERNAIA SRL,RE BASILICO,Roma,Via Cernaia,16,12.5005858,41.906848,00185,Mo-Su,,
CFINANCIAL SRL,SICILY EAT,Roma,Viale Dell'Oceano Pacifico,83,12.45950934721992,41.817101550000004,00144,Mo-Su,CC EUROMA2,
CHANG CHENG DI CHEN YU,RISTORANTE CINESE,Roma,Viale Vega,22,12.2935117,41.7272522,00122,Mo-Su,,
CHEZ LES AMIS SRL,CHEZ LES AMIS RISTORANTE,Roma,Via Quintino Sella,35,12.4957291,41.9076898,00187,Mo-Fr,,
CHIPS SRLS,PETERLAND,Roma,Via Di S Giovanni In Laterano,54,12.4967729,41.8893366,00184,Mo-Su,,
CHU TIY MARIE ODILE,BASILLICO,Roma,Via Nomentana,46/48,12.5133326,41.917478,00161,Mo-Su,,
CIAMARRA ALFREDO,PIZZA E KEBAB,Roma,Via Pietro Cossa,52,12.4722455,41.9067057,00193,Mo-Sa,,
CIEMME SNC DI CARLO ALFONZI E MATTEO VERTICCHIO,LA VONGOLA VORACE,Roma,Largo Luigi Antonelli,15,12.4845302,41.8510301,00145,Mo-Sa,,
CINQUE PANZEROTTI SRL,MATO',Roma,Via Lorenzo Il Magnifico,26,12.5216843,41.9131668,00162,Mo-Su,,
CINQUE PANZEROTTI SRL,MATO',Roma,Via Venti Settembre,41,12.4956205,41.9052704,00187,Mo-Su,,
CINQUE PANZEROTTI SRL,MATO',Roma,Via Napoli,50,12.49324,41.9015497,00184,Mo-Su,,
CINQUE PANZEROTTI SRL,MATO',Roma,Viale Eritrea,108,12.5158881,41.9269385,00199,Mo-Su,,
CINQUEG S.R.L.,TRICOLORE,Roma,Via Germanico,43286,12.4609091,41.9084867,00192,Mo-Sa,,
CIRILLO CESARE,MADE IN SUD,Roma,Via Massaciuccoli,81,12.51485,41.9262903,00199,Mo-Sa,,
COLACARNI SRLS,ECCE VINUM,Roma,Via Cherso,152,12.5572255,41.8956424,00177,Mo-Sa,,
COLASANTI MAURO,MACELLERIA COLASANTI,Roma,Via Cherso,142/144,12.5572255,41.8956424,00177,Mo-Su,,
COLOMBIA BAR SNC DI DI STEFANO DAVIDE & C.,COLOMBIA BAR,Roma,Via Flavia,54,12.4967995,41.9068305,00187,Mo-Fr,,
CONSORZIO ORGOGLIO AQUILANO,BAR,Roma,Lungotevere Ripa,1,12.4780076,41.8890682,00153,Mo-Fr,,
CONSORZIO ORGOGLIO AQUILANO,BAR,Roma,Viale Giorgio Ribotta,5,12.4587433,41.8202225,00144,Mo-Fr,,
CORTE STEFANIA,PIADATIME,Roma,Via Pietro Felter,13,12.4930411,41.8684796,00154,Mo-Sa,,
D' ALFONSO LEANDRO E C SAS,BAR IL CAFFETTINO,Roma,Via Della Moletta,27,12.4855491,41.8690636,00154,Mo-Sa,,
D.S. BISTRO SRLS,DESAINT BON BISTRO,Roma,Via Simone Da Saint Bon,27,12.4564982,41.9126419,00185,Mo-Sa,,
DA LIVIO RISTORANTE LA CANTINOLA DI CANCEDDA LIVIO,RISTORANTE LA CANTINOLA,Roma,Via Calabria,16/18,12.5607132,42.1186727,00187,Mo-Sa,,
DA.FRA. SRL,BARGONI BAR,Roma,Via Angelo Bargoni,38809,12.4691019,41.8809892,00153,Su-fr,,
DA.MI. SRLS,LE CARAVELLE CAFFE' BISTROT,Roma,Via Cristoforo Colombo,446,12.4881096,41.8526741,00145,Mo-Sa,,
DANICAR GROUP SRL,TUTTOMARKET,Roma,Via Scarpanto,5,12.5268239,41.9467507,00139,Mo-Su,,
DANIEL DE STEFANIS,PASTA ALL'UOVO,Roma,Via Gerolamo Cardano,50,12.4683476,41.8634439,00146,Mo-Sa;Su afternoon,,
DANIELE MARCHETTI,IL GUSTO DELL'IMPERATORE,Roma,Via Imperatore Tiberio,59,12.483494,41.8510623,00145,Mo-Fr,,
DAPA DRINK SRL,CHUPITO BAR,Roma,Via Gabriello Chiabrera,170,12.4793762,41.8542127,00145,Mo-Sa,,
DARUMA CENTRO SRL,DARUMA SUSHI,Roma,Via Dei Serpenti,1,12.4905821,41.8949696,00184,Mo-Su,,
DARUMA EUR SRL,DARUMA SUSHI,Roma,Viale America,9,12.4618252,41.8316706,00144,Mo-Fr,,
DARUMA GOLD SRL,DARUMA SUSHI,Roma,Via Del Portico D'ottavia,14,12.4783778,41.8923774,00186,VENERDI' POMERIGGIO,,
DARUMA NORD SRL,DARUMA SUSHI,Roma,Via Guidubaldo Del Monte,9,12.4779291,41.9284617,00197,Mo-Sa,,
DARUMA NORD SRL,DARUMA SUSHI,Roma,Via Flaminia,462,12.4846962,41.9529167,00191,Mo-Su,,
DARUMA NORD SRL,DARUMA SUSHI,Roma,Via Flaminia,464/B,12.4846962,41.9529167,00191,Mo-Sa,,
DARUMA PARLAMENTO SRL,DARUMA SUSHI,Roma,Piazza Del Parlamento,37,12.4792898,41.9023599,00186,Mo-Su,,
DARUMA PRATI SRL,DARUMA SUSHI,Roma,Via Pietro Cossa,51,12.4716518,41.906774,00193,Mo-Fr,,
DATA GROUP SRL,MONTANARI  CAFFETTERIA BAR,Roma,Circonvallazione Ostiense,333/335,12.4934056,41.8673282,00154,Mo-Su,,
DE ALBA SRLS,BAR RISTORANTE,Roma,Via Leone Iv,87,12.4554369,41.9091204,00192,Mo-Su,,
DE CAMPI MARCELLO E FIGLI SNC,CONAD ALIMENTARI,Roma,Viale Trastevere,88/90,12.3944992,41.7826788,00153,Mo-Su,,
DE CUPIS DANIELE,BAR GASTRONOMIA,Roma,Via Celimontana,22/24,12.4964896,41.8885198,00184,Mo-Sa,,
DE.MIL. SRL,IL FIENILE BAR,Roma,Via Affile,53,12.6499738,41.9550411,00131,Mo-Sa,,
DELICATI SAPORI SRL,DELICATI  SAPORI LUCARELLI GASTRONOMIA,Roma,Via Nomentana,161/163,12.5133326,41.917478,00161,Mo-Sa,,
DELIZIE ALIMENTARI SAS DI RACCOGLI SIMONA,DELIZIE ALIMENTARI,Roma,Via Andrea Meldola,143,12.507107,41.823513,00143,Mo-Sa,,
DELIZIE REGIONALI BAR CAFFE SAS,BAR CAFFE,Roma,Via Canton,44105,12.437244842839458,41.80360335,00144,Mo-Fr,,
DEMENZ SRLS,GIANGUSTO,Roma,Viale Eritrea,93/95,12.5158881,41.9269385,00199,Mo-Su,,
DESA SRL,SUPERMERCATO IPERDEM,Roma,Via Tuscolana,761,12.5559552,41.8606311,00174,Mo-Su,,
DESA SRL,NEW SUPERMERCATO IPERDEM,Roma,Via Delle Ciliegie,100,12.5752998,41.8830058,00172,Mo-Su,,
DESA SRL,SUPERMERCATO DEM,Roma,Via S Maria Ausiliatrice,63/A,,,00181,Mo-Su,,
DI BI FOOD SRL,BURGER KING,Roma,Lungotevere Degli Inventori,124/136,12.4686737,41.8611527,00146,Mo-Su,,
DI CARLO PIETRO E C. SNC,DI CARLO ALIMENTARI,Roma,Via Di Acqua Bullicante,52,12.5432671,41.8832486,00177,Mo-Su,,
DI SAVERIO PASQUALINO,IL TAVOLINETTO,Roma,Via Massimo D'Azeglio,46,11.8051105,42.0969552,00184,Mo-Su,,
DI TOMMASO SARA,SALUMERIA NORCINERIA,Roma,Via Dei Quintili,18,12.5465346,41.867103,00175,Mo-Sa,,
DI TRONO CAFFE' SRL,ROTONDI CAFFE',Roma,Viale B Vergine Del Carmelo,175,,,00144,Mo-Sa,,
DI TTA INDIVIDUALE DI MARCO CATA',SUPERMERCATI DELLA CONVENIENZA,Roma,Largo Primavera,18/24,,,00171,Mo-Su,,
DICO SPA,TUODI' SUPERMERCATO,Roma,Via L'aquila,19,12.7400661,41.4588686,00176,Mo-Su,,
DICO SPA,TUODI' SUPERMERCATO,Roma,Via Dei Castani,186,12.5650615,41.8893207,00171,Mo-Su,,
DICO SPA,TUODI' SUPERMERCATO,Roma,Via Zara,24,12.5094202,41.9152886,00198,Mo-Su,,
DICO SPA,TUODI' SUPERMERCATO,Roma,Viale Delle Provincie,168,12.5209455,41.9116299,00162,Mo-Su,,
DICO SPA,TUODI' SUPERMERCATO,Roma,Largo Forano,9,12.5112782,41.9351422,00199,Mo-Su,,
DICO SPA,TUODI SUPERMERCATO,Roma,Circonvallazione Gianicolense,11,12.4472381,41.8740116,00152,Mo-Su,,
DICO SPA,TUODI' SUPERMERCATO,Roma,Via Delle Camelie,19/B,12.5663546,41.8778303,00172,Mo-Su,,
DICO SPA,TUODI' SUPERMERCATO,Roma,Via Prenestina,1530,12.6629431,41.8908702,00132,Mo-Su,,
DICO SPA,TUODI' SUPERMERCATO,Roma,Piazzale Delle Medaglie D'oro,58/59/60/61,12.4465154,41.9238575,00136,Mo-Su,,
DICO SPA,TUODI SUPERMERCATO,Roma,Largo Chiaro Davanzati,SNC,12.6222651,41.9417875,00131,Mo-Su,,
DICO SPA,TUODI' SUPERMERCATO,Roma,Via Cristoforo Colombo,436/B,12.4881096,41.8526741,00145,Mo-Su,,
DICO SPA,TUODI' SUPERMERCATO,Roma,Via Dei Platani,56/B,12.5702159,41.8809592,00172,Mo-Su,,
DICO SPA,TUODI SUPERMARKET,Roma,Via Bernardino Alimena,13,12.5988187,41.8485925,00173,Mo-Su,,
DICO SPA,TUODI SUPERMERCATO,Roma,Via Cornelio Magni,1,12.4975555,41.8656565,00147,Mo-Su,,
DICO SPA,TUODI SUPERMECATO,Roma,Viale Ippocrate,56,12.5183316,41.9076443,00161,Mo-Su,,
DICO SPA,TUODI SUPERMERCATO,Roma,Circonvallazione Appia,33/A,12.5153411,41.875872,00179,Mo-Su,,
DICO SPA,TUODI SUPERMERCATO,Roma,Via Scarperia,6,12.4560887,41.8445533,00146,Mo-Su,,
DICO SPA,TUODI' SUPERMERCATO,Roma,Viale Giulio Agricola,40,12.5611484,41.8556268,00174,Mo-Su,,
DICO SPA,TUODI' SUPERMERCATO,Roma,Via Annunzio Cervi,7,12.5468501,41.9516326,00137,Mo-Su,,
DICO SPA,TUODI SUPERMERCATO,Roma,Via Liberiana,16,12.4981388,41.8969857,00185,Mo-Su,,
DICO SPA,TUODI' SUPERMERCATO,Roma,Viale Della Staz Prenestina,23-25-27,12.546185,41.896257,00177,Mo-Su,,
DICO SPA,TUODI' SUPERMERCATO,Roma,Viale Delle Gardenie,177,12.5518895,41.536461,00172,Mo-Su,,
DICO SPA,TUODI SUPERMERCATO,Roma,Via Igino Giordani,57/63/A,12.5618949,41.906345,00159,Mo-Su,,
DICO SPA,TUODI SUPERMERCATO,Roma,Via Arrigo Davila,43/45,12.5283484,41.8682016,00179,Mo-Su,,
DICO SPA,TUODI' SUPERMERCATO,Roma,Via Ravenna,35,12.5186407,41.9130439,00161,Mo-Su,,
DICO SPA,TUODI' SUPERMERCATO,Roma,Piazza S. Leonardo Da Porto Maurizio,SNC,12.3656705,41.783313,00125,Mo-Su,,
DICO SPA,TUODI' SUPERMERCATO,Roma,Via Città Della Pieve,62,12.4739616,41.9448359,00191,Mo-Su,,
DICO SPA,TUODI' SUPERMERCATO,Roma,Piazzale Filippo Il Macedone,123,12.3537754,41.7503445,00124,Mo-Su,,
DICO SPA,TUODI' SUPERMERCATO,Roma,Via Buonarroti,37,12.5029308,41.8938352,00185,Mo-Su,,
DICO SPA,TUODI' SUPERMERCATO,Roma,Via Giuseppe Marcotti,38,12.5390803,41.9094592,00157,Mo-Su,,
DICO SPA,TUODI' SUPERMERCATO,Roma,Via Cassia,1778/D,12.3727745,42.0579159,00123,Mo-Su,,
DICO SPA,TUODIS SUPERMERCATO,Roma,Via Di Torre Spaccata,110,12.5875778,41.858814,00173,Mo-Su,,
DICO SPA,TUODI' SUPERMERCATO,Roma,Via Delle Sette Chiese,136,12.4900362,41.8604931,00145,Mo-Su,,
DICO SPA,TUODI' SUPERMERCATO,Roma,Via Marino Laziale,1,12.5318997,41.8712589,00179,Mo-Su,,
DICO SPA,TUODI' SUPERMERCATO,Roma,Via Trionfale,14119,12.4219925,41.9411335,00135,Mo-Su,,
DICO SPA,TUODI' SUPERMERCATO,Roma,Piazza Ledro,7/D,12.5106294,41.9231347,00199,Mo-Su,,
DICO SPA,TUODI SUPERMERCATO,Roma,Via Della Paranzella,20,12.2718102,41.7345101,00121,Mo-Su,,
DICO SPA,TUODI SUPERMERCATO,Roma,Via Annia,18,12.4959074,41.8875565,00184,Mo-Su,,
DICO SPA,TUODI SUPERMERCATO,Roma,Via Eschilo,36,12.3726341,41.7599902,00125,Mo-Su,,
DICO SPA,TUODI' SUPERMERCATO,Roma,Via Di S Croce In Gerusalemme,101,,,00185,Mo-Su,,
DICO SPA,TUODI' SUPERMERCATO,Roma,Via Flavio Stilicone,252,12.5572513,41.8609856,00175,Mo-Su,,
DICO SPA,TUODI' SUPERMERCATO,Roma,Via Alessandria,160/166,12.5005346,41.9105957,00198,Mo-Su,,
DICO SPA,TUODI' SUPERMERCATO,Roma,Via Dei Prati Fiscali,90,12.5252645,41.9459563,00141,Mo-Su,,
DICO SPA,TUODI' SUPERMERCATO,Roma,Piazza Elio Callistio,15/16,12.5226787,41.9293752,00199,Mo-Su,,
DICO SPA,TUODI' SUPERMERCATO,Roma,Via Di Casal Dei Pazzi,35,12.56994857437255,41.92584615,00156,Mo-Su,,
DICO SPA,TUODI' SUPERMERCATO,Roma,Via Flaminia,320,12.4709519,41.923723,00196,Mo-Su,,
DICO SPA,TUODI' SUPERMERCATO,Roma,Via Asmara,50/A,12.5202401,41.9263642,00199,Mo-Su,,
DICO SPA,TUODI' SUPERMERCATO,Roma,Via Luigi Zambarelli,12,12.4465246,41.8775164,00152,Mo-Su,,
DICO SPA,TUODI' SUPERMERCATO,Roma,Via Ugo Ojetti,211-225,12.5523297,41.9447107,00137,Mo-Su,,
DICO SPA,TUODI SUPERMERCATO,Roma,Via Di Macchia Saponara,83,12.3631628,41.7598034,00125,Mo-Su,,
DICO SPA,TUODI'  SUPERMERCATO,Roma,Viale Degli Eroi Di Cefalonia,135,12.4386022,41.7809847,00128,Mo-Su,,
DICO SPA,TUODI' SUPERMERCATO,Roma,Via Di Tor Bella Monaca,441,12.6385329,41.8668637,00133,Mo-Su,,
DICO SPA,TUODI' SUPERMERCATO,Roma,Lungotevere Michelangelo,8,12.4701714,41.9126517,00192,Mo-Su,VIA FORNOVO,
DICO SPA,TUODI' SUPERMERCATO,Roma,Via Statilio Ottato,43/45,12.567881,41.8560705,00175,Mo-Su,,
DICO SPA,TUODI' SUPERMERCATO,Roma,Viale Paolo Orlando,18,12.2883699,41.7300756,00122,Mo-Su,,
DICO SPA,TUODI' SUPERMERCATO,Roma,Via Sant' Agatone Papa,47,,,00165,Mo-Su,,
DICO SPA,TUODI' SUPERMERCATO,Roma,Via Casal Tidei,101,12.580236,41.9412252,00156,Mo-Su,,
DICO SPA,TUODI' SUPERMERCATO,Roma,Viale Vasco De Gama,295,12.2722572,41.7353496,00121,Mo-Su,,
DICO SPA,TUODI' SUPERMERCATO,Roma,Via Amedeo Bocchi,224,12.3504183,41.7760065,00125,Mo-Su,,
DICO SPA,TUODI' SUPERMERCATO,Roma,Via Nicola Spedalieri,59,12.483665,41.8430766,00142,Mo-Su,,
DICO SPA,TUODI' SUPERMERCATO,Roma,Piazza R Balsamo Crivelli,43191,,,00159,Mo-Su,,
DICO SPA,TUODI' SUPERMERCATO,Roma,Via Etruria,32,12.5127238,41.8790316,00183,Mo-Su,,
DICO SPA,TUODI' SUPERMERCATO,Roma,Via Acqua Bullicante,45/A,12.5432671,41.8832486,00177,Mo-Su,,
DICO SPA,TUODI' SUPERMERCATO,Roma,Viale Furio Camillo,56/56A/B/C,12.5246087,41.8757209,00181,Mo-Su,,
DICO SPA,TUODI' SUPERMERCATO,Roma,Via Gargano,21/A,12.5342262,41.936277,00141,Mo-Su,,
DICO SPA,TUODI SUPERMERCATO,Roma,Via Della Marsica,15,12.525936,41.9165775,00162,Mo-Su,,
DICO SPA,TUODI' SUPERMERCATO,Roma,Via Montegiberto,31/A,,,00138,Mo-Su,,
DICO SPA,TUODI' SUPERMERCATO,Roma,Via Tagliamento,29,12.5042192,41.9208829,00198,Mo-Su,,
DICO SPA,TUODI' SUPERMERCATO,Roma,Via Raffaele Rossetti,5,12.4504157,41.9148131,00136,Mo-Su,,
DICO SPA,TUODI SUPERMERCATO,Roma,Via Cassia,344,12.4265864,41.9746287,00189,Mo-Su,,
DICO SPA,TUODI' SUPERMERCATO,Roma,Via Di Tor Pignattara,128,12.5414541,41.8768353,00177,Mo-Su,,
DICO SPA,TUODI' SUPERMERCATO,Roma,Via Antonio Roiti,30,12.4675344,41.8618656,00146,Mo-Su,,
DICO SPA,TUODI' SUPERMERCATO,Roma,Via Duccio Di Buoninsegna,67/73,12.4900693,41.8297961,00142,Mo-Su,,
DICO SPA,TUODI' SUPERMERCATO,Roma,Via Carlo Santarelli,100,12.6073839,41.8627457,00133,Mo-Su,,
DICO SPA,TUODI' SUPERMERCATO,Roma,Viale Paolo Orlando,78/88,12.2883699,41.7300756,00122,Mo-Su,,
DICO SPA,TUODI' SUPERMERCATO,Roma,Via Cipro,10,12.4465457,41.9072904,00136,Mo-Su,,
DICO SPA,TUODI SUPERMERCATO,Roma,Via Ginori,32/34/36/38,12.4760259,41.8788611,00153,Mo-Su,,
DICO SPA,TUODI' SUPERMERCATO,Roma,Via Portuense,851,12.4216153,41.8497718,00148,Mo-Su,,
DIESSE 2010 SRL,DEM SUPERMERCATO,Roma,Via Casilina,769,12.5646576,41.8748036,00172,Mo-Su,,
DIETRO LE QUINTE SNC,WINE BAR,Roma,Via Tirso,85,12.5000975,41.9171761,00198,Mo-Sa,,
DIFRA SUPERMERCATI SRL,CONAD,Roma,Via Francesco D'ovidio,95,12.5490079,41.941751,00137,Mo-Sa,,
DIPERDI SRL,CARREFOUR MARKET,Roma,Via Vittorio Emanuele Orlando,92/93,12.4957243,41.9031408,00185,Mo-Su,,
DIPERDI SRL,CARREFOUR EXPRESS SUPERMERCATO,Roma,Via Del Gesù,58/59,12.4787962,41.8972951,00186,Mo-Su,,
DIPERDI SRL,CARREFOUR EXPRESS SUPERMERCATO,Roma,Via Po,106-108,12.4995156,41.9176565,00198,Mo-Su,,
DIPERDI SRL,CARREFOUR EXPRESS MARKET,Roma,Piazza Irnerio,SNC,12.430145,41.8981923,00165,Mo-Su,,
DIPERDI SRL,CARREFOUR EXPRESS SUPERMERCATO,Roma,Via Del Viminale,35,12.4951875,41.9000481,00184,Mo-Su,,
DIPERDI SRL,CARREFOUR EXPRESS SUPERMERCATO,Roma,Viale Somalia,74/82,12.5124388,41.9355515,00199,Mo-Su,,
DIPERDI SRL,CARREFOUR EXPRESS MARKET,Roma,Via Sebastiano Veniero,10/A,12.4550444,41.9079131,00192,Mo-Su,,
DIPERDI SRL,CARREFOUR EXPRESS MARKET,Roma,Viale Degli Astri,117/129,12.4472917,41.8119589,00144,Mo-Su,,
DIPERDI SRL,CARREFOUR EXPRESS MARKET,Roma,Via Dei Santissimi Quattro,SNC,,,00184,Mo-Su,,
DIPERDI SRL,CARREFOUR EXPRESS MARKET,Roma,Via Guglielmo Mengarini,82,12.4575184,41.8622624,00149,Mo-Su,,
DIPERDI SRL,CARREFOUR EXPRESS MARKET,Roma,Via Appiano,31,12.4382798,41.9135424,00136,Mo-Su,,
DIPERDI SRL,CARREFOUR EXPRESS MARKET,Roma,Corso Vittorio Emanuele Ii,290,12.4670919,41.8989216,00186,Mo-Su,,
DIPERDI SRL,CARREFOUR EXPRESS MARKET,Roma,Via Giovanni Nicotera,13/27,12.468457,41.9146276,00195,Mo-Su,,
DIPERDI SRL,CARREFOUR EXPRESS MARKET,Roma,Via Di Monte Del Gallo,23,12.4521353,41.8963761,00165,Mo-Su,,
DISTRIBUZIONE LAZIO UMBRIA SRL,COOP SUPERMERCATO,Roma,Viale Ettore Franceschini,SNC,12.5750517,41.9122267,00155,Mo-Su,LARGO FRANCHELLUCCI,
DISTRIBUZIONE LAZIO UMBRIA SRL,COOP IPERMERCATO C/COMM EUROMA 2,Roma,Via Cristoforo Colombo,SNC,12.4612872,41.8148799,00144,Mo-Su,ANG VIA OCEANO,
DISTRIBUZIONE LAZIO UMBRIA SRL,COOP SUPERMERCATO,Roma,Largo Agosta,26,12.5581714,41.891562,00171,Mo-Su,,
DISTRIBUZIONE LAZIO UMBRIA SRL,COOP SUPERMERCATO,Roma,Viale Gino Cervi,SNC,12.5323398,41.9629501,00139,Mo-Su,ANG. VIA ANNA BETTINI,
DISTRIBUZIONE LAZIO UMBRIA SRL,COOP IPERMERCATO,Roma,Via Casilina,1011,12.5923893,41.8672093,00169,Mo-Su,,
DISTRIBUZIONE ROMA SRL,COOP SUPERMERCATO,Roma,Via Donato Menichella,170,12.5891197,41.9464242,00156,Mo-Su,,
DISTRIBUZIONE ROMA SRL,COOP SUPERMERCATO,Roma,Viale Parioli,31,12.4890563,41.9253418,00197,Mo-Su,,
DISTRIBUZIONE ROMA SRL,IN COOP SUPERMERCATO,Roma,Via Toscana,"0,125",12.4908031,41.9098917,00187,Mo-Su,,
DISTRIBUZIONE ROMA SRL,COOP SUPERMERCATO,Roma,Corso Del Rinascimento,7,12.474008,41.8978642,00186,Mo-Su,,
DISTRIBUZIONE ROMA SRL,IN COOP SUPERMERCATO,Roma,Via In Arcione,70,12.486135,41.9021792,00187,Mo-Su,,
DISTRIBUZIONE ROMA SRL,COOP SUPERMERCATO,Roma,Viale Leonardo Da Vinci,111,12.4809599,41.8557665,00145,Mo-Su,,
DISTRIBUZIONE ROMA SRL,IN COOP SUPERMERCATO,Roma,Vicolo Della Moretta,10,12.4679369,41.8973084,00186,Mo-Su,,
DISTRIBUZIONE ROMA SRL,IN COOP SUPERMERCATO,Roma,Via Tacito,90/A,12.4681732,41.9060253,00193,Mo-Su,,
DISTRIBUZIONE ROMA SRL,IN COOP SUPERMERCATO,Roma,Corso Vittorio Emanuele Ii,40,12.4776043,41.8957969,00186,Mo-Su,,
DISTRIBUZIONE ROMA SRL,COOP,Roma,Corso Trieste,27/B,12.5076679,41.9151535,00198,Mo-Su,,
DISTRIBUZIONE ROMA SRL,COOP SUPERMERCATO,Roma,Piazza S Giovanni Battista Salle,SNC,,,00165,Mo-Su,,
DISTRIBUZIONE ROMA SRL,COOP TRAFORO,Roma,Via Del Traforo,143,12.4860995,41.9024331,00187,Mo-Su,,
DISTRIBUZIONE ROMA SRL,COOP COLLAZIA,Roma,Via Collazia,4,12.507263,41.8782612,00183,Mo-Su,,
DISTRIBUZIONE ROMA SRL,COOP SUPERMERCATO,Roma,Via Pinerolo,17/19,12.5158894,41.8824937,00182,Mo-Su,,
DISTRIBUZIONE ROMA SRL,COOP,Roma,Via Nazionale,211,12.4923664,41.9003117,00184,Mo-Su,,
DISTRIBUZIONE ROMA SRL,IN COOP SUPERMERCATO,Roma,Via Cavour,60/64,12.4950416,41.8964541,00184,Mo-Su,,
DISTRIBUZIONE ROMA SRL,IN COOP SUPERMERCATO,Roma,Circonvallazione Appia,55,12.5153411,41.875872,00179,Mo-Su,,
DISTRIBUZIONE ROMA SRL,IN COOP SUPERMERCATO,Roma,Via Carlo Santarelli,91,12.6073839,41.8627457,00133,Mo-Su,,
DISTRIBUZIONE ROMA SRL,IN COOP SUPERMERCATO,Roma,Via Marsala,SNC,12.5041579,41.901252,00185,Mo-Su,STAZIONE TERMINI,
DISTRIBUZIONE ROMA SRL,COOP SUPERMERCATO,Roma,Via Alberico Ii,3,12.4616107,41.9051181,00193,Mo-Su,,
DISTRIBUZIONE ROMA SRL,COOP SUPERMERCATO,Roma,Via Prospero Alpino,16/20,12.4871363,41.8693543,00154,Mo-Su,,
DISTRIBUZIONE ROMA SRL,COOP,Roma,Via Clelia,66,12.526141,41.8743078,00181,Mo-Su,,
DISTRIBUZIONE ROMA SRL,COOP SUPERMERCATO,Roma,Via Della Farnesina,42,12.4639454,41.938754,00135,Mo-Su,,
DISTRIBUZIONE ROMA SRL,IN COOP SUPERMERCATO,Roma,Via Simon Boccanegra,9,12.5251956,41.9147811,00162,Mo-Su,,
DISTRIBUZIONE ROMA SRL,IN COOP SUPERMERCATO,Roma,Via La Spezia,84,12.5144548,41.8861993,00182,Mo-Su,,
DISTRIBUZIONE ROMA SRL,COOP,Roma,Via Venti Settembre,51/55,12.4956205,41.9052704,00187,Mo-Su,,
DISTRIBUZIONE ROMA SRL,COOP SUPERMERCATO,Roma,Via Dei Pettinari,70,12.4714489,41.8928529,00186,Mo-Su,,
DISTRIBUZIONE ROMA SRL,COOP SUPERMERCATO,Roma,Via Della Croce,48/49,12.4811328,41.9065249,00187,Mo-Su,,
DISTRIBUZIONE ROMA SRL,COOP SUPERMERCATO,Roma,Via Galeazzo Alessi,261,12.5351531,41.8807651,00176,Mo-Su,,
DISTRIBUZIONE ROMA SRL,IN COOP SUPERMERCATO,Roma,Via Pisino,101/107,12.561266,41.8996293,00177,Mo-Su,,
DISTRIBUZIONE ROMA SRL,COOP SUPERMERCATO,Roma,Via Andrea Busiri Vici,24,12.4576768,41.8827043,00152,Mo-Su,,
DISTRIBUZIONE ROMA SRL,COOP SUPERMERCATO,Roma,Via Goffredo Mameli,11,12.591341672234234,41.7797942,00153,Mo-Su,,
DISTRIBUZIONE ROMA SRL,COOP SUPERMERCATO,Roma,Via Giuseppe Ferrari,SNC,12.4641816,41.9146895,00195,Mo-Su,,
DISTRIBUZIONE ROMA SRL,COOP SUPERMERCATO,Roma,Via Giorgione,54,12.4931693,41.8504131,00147,Mo-Su,,
DISTRIBUZIONE ROMA SRL,COOP SUPERMERCATO,Roma,Via Andrea Doria,44/46,10.1805011,43.9552922,00192,Mo-Su,,
DISTRIBUZIONE ROMA SRL,IN COOP SUPERMERCATO,Roma,Via Di S Bartolomeo Vaccinari,SNC,,,00186,Mo-Su,,
DISTRIBUZIONE ROMA SRL,COOP SUPERMERCATO,Roma,Via Di Baccanello,315,12.3370977,42.0677421,00123,Mo-Su,,
DISTRIBUZIONE ROMA SRL,COOP SUPERMERCATO,Roma,Via Del Pozzetto,119/124,12.4821951,41.9025621,00187,Mo-Su,,
DOLCE CAFFE SRLS,DOLCE CAFFE',Roma,Via Tripolitania,103,12.5235371,41.9302882,00199,Mo-Sa,,
DOLCE CALABRIA SAS DI MORELLO ALESSANDRA & C.,LA FOLLIA BAR,Roma,Via Ostilia,24,12.4952402,41.8888602,00184,Mo-Su,,
DOLCE VITA SRL,LA DOLCE VITA,Roma,Via Bomcompagni,67,,,00187,Mo-Sa,,
DON NINO CORSO ITALIA SRL,DON NINO,Roma,Piazza Fiume,77-78-79,12.4981727,41.9105769,00198,Mo-Su,,
DONATIELLO MARCO,L' INSALATONA,Roma,Via Marche,15,12.4904417,41.9084253,00187,Mo-Fr,,
DONNINELLI AMEDEO,CRAI,Roma,Via Pietro Giordani,2,12.4785322,41.8548507,00145,Mo-Sa,,
DOPPIO GUSTO SRLS,DOPPIO GUSTO,Roma,Via Ventiquattro Maggio,52,12.4867669,41.8980055,00187,Mo-Fr,,
DOPPIOZERO 2 SRL,VINILE RISTORANTE,Roma,Piazza Della Libertà,19,12.6504175,41.7463166,00192,Mo-Su,,
DREAM BAR SRL,DREAM BAR,Roma,Via Val Pellice,19,12.5204467,41.9444557,00141,Mo-Sa,,
DROGHERIA ALESSE DI ALESSE PAOLO,DROGHERIA ALESSE,Roma,Piazza Pietro Thouar,39/40,12.420808989466487,41.943060700000004,00135,Mo-Sa,,
DUBAI WORLD SRL,BAR TAVOLA CALDA,Roma,Via Del Pescaccio,22,12.38027823104353,41.866111599999996,00166,Mo-Sa,,
DUE P 2010 SRL,AL MERCATO SUPERMERCATO,Roma,Via Massimo Troisi,15,12.3903941,41.7856254,00125,Mo-Su,,
DUEFFE SRLS,DUEFFE SRLS,Roma,Via Sicilia,245,12.4957061,41.9098926,00187,Mo-Sa,,
DUEFFE SRLS,BAR CODE,Roma,Via Sicilia,245,12.4957061,41.9098926,00187,Mo-Sa,,
DURANTE GIUSEPPE,TAZZA D'ORO,Roma,Via Marche,52,12.4904417,41.9084253,00187,Mo-Fr,,
DUSSMANN SERVICE SRL,ENI MATTEI MENSA,Roma,Piazzale Enrico Mattei,1,12.471662476346204,41.8271836,00144,Mo-Fr,,
ECCELLENZE DEL BUONGUSTO SRL,ECCELLENZE DEL BUON GUSTO,Roma,Via Fiume Bianco,42,12.4404153,41.8152642,00144,Mo-Su,,
EDRALINA FELIPE,BAR FIVE,Roma,Viale Imperatore Giustiniano,61,12.4887308,41.8535836,00145,Mo-Su,,
EFFEPI LEONARDI SRL,BAR LEONARDI,Roma,Via Dei Marrucini,44,12.5141143,41.899842,00185,Mo-Su,,
ELISA IMPAVIDI,ELISA BISTRO',Roma,Via Monteporzio,3,12.5422136,41.8632469,00178,Mo-Su,,
EMME PIU' SRL,EMME PIU',Roma,Viale Aventino,88/94 39,,,00153,Mo-Su,,
EMME PIU' SRL,EMME PIU',Roma,Via Renzo Da Ceri,71,12.5384788,41.8865124,00176,Mo-Su,,
EMME PIU' SRL,EMME PIU',Roma,Via Della Rustica,265,12.6023606,41.9113326,00155,Mo-Su,,
EMME PIU' SRL,EMME PIU',Roma,Via Roberto Fancelli,7,12.5758023,41.8659879,00169,Mo-Su,,
EMME PIU' SRL,EMME PIU',Roma,Via Carlo Sigonio,53,12.5210739,41.8742951,00179,Mo-Su,,
EMME PIU' SRL,EMME PIU',Roma,Via Di Tor Vergata,1,12.6256618,41.855845,00133,Mo-Su,,
EMME PIU' SRL,EMME PIU',Roma,Viale Eretum,19,12.5976349,41.9440672,00131,Mo-Su,,
EMME PIU' SRL,EMME PIU',Roma,Via Tiberina,73/A,12.496641,42.0018252,00188,Mo-Su,,
EMME PIU' SRL,EMME PIU',Roma,Via Cassia,1705/1707,12.3727745,42.0579159,00123,Mo-Su,,
EMME PIU' SRL,EMME PIU',Roma,Viale Manzoni,40/44,12.5096921,41.8931157,00185,Mo-Su,,
EMME PIU' SRL,EMME PIU',Roma,Via Claudio Asello,29,12.5582029,41.8631911,00175,Mo-Su,,
EMME PIU' SRL,EMME PIU',Roma,Via Edoardo D'Onofrio,140/142,12.5739963,41.9135622,00155,Mo-Su,,
EMME PIU' SRL,EMME PIU',Roma,Via Gabriello Chiabrera,89,12.4794471,41.8539248,00145,Mo-Su,,
EMME PIU' SRL,EMME PIU',Roma,Via Della Pineta Sacchetti,51,12.4235148,41.9104231,00167,Mo-Su,,
EMME PIU' SRL,EMME PIU',Roma,Via Amalia Bettini,56,12.5259455,41.9639355,00139,Mo-Su,,
EMME PIU' SRL,EMME PIU',Roma,Via Volusia,16,12.4274734,41.9762983,00189,Mo-Su,,
EMME PIU' SRL,EMME PIU',Roma,Via Di Baccanello,316/318/320,12.3877103,42.0637063,00123,Mo-Su,,
EMME PIU' SRL,EMME PIU',Roma,Via Della Fotografia,113,12.5151297,41.8353819,00142,Mo-Su,,
ENRICO UGOLINELLI,AL PANINO,Roma,Via Pietro Borsieri,5/A,12.4613179,41.9130953,00195,Mo-Su,,
ERNESTI ENRICO,PASTA ALL'UOVO NORCINERIA,Roma,Via Stefano Oberto,BOX15,,,00173,Mo-Su,,
ESPERIA SNC,TRATTORIA ESPERIA,Roma,Via Firenze,16/17,12.4944882,41.9016626,00184,Mo-Sa,,
ESSEGI SNC DI RAVIOLI GIULIO & C.,VINO E RAVIOLI,Roma,Viale B Vergine Del Carmelo,161,,,00144,Mo-Sa,,
ESSELUNGA SPA,ESSELUNGA MARKET,Roma,Viale Palmiro Togliatti,1021-1023,12.5752593,41.9017473,00155,Mo-Su,,
ESTER SRL,IPERCARNI GASTRONOMIA,Roma,Via Carlo Lorenzini,91,12.5544128,41.9455083,00137,Mo-Su,,
ESTER SRL,IPERCARNI GASTRONOMIA,Roma,Via Delle Vigne Nuove,232,12.5355308,41.9640846,00139,Mo-Su,,
EUR 2008 SRL,IL RAZIONALE,Roma,Viale Della Civilta Del Lavoro,72/76,12.4676864,41.8361219,00144,Mo-Fr,,
EUR CITY SRL,GILOTTI EUR,Roma,Viale Oceania,90,12.461762038101872,41.8288963,00144,Mo-Su,,
EUR FOOD SRL,CASA  NOVECENTO,Roma,Piazza Guglielmo Marconi,32,12.4707861,41.8345953,00144,Mo-Sa,,
EUR MARGHERITA SRL,MARGHERITA OSTERIA RISTORANTE,Roma,Via Praga,43409,12.4491176,41.8239258,00144,Mo-Su,,
EUROPA BAKERY SRLS,LIEVITO PIZZA PANE,Roma,Viale Europa,339,12.4738315,41.8297913,00144,Mo-Sa,,
EUSTACCHI ALBERTO,PIZZERIA ALBERT,Roma,Circonvallazione Ostiense,225,12.4934056,41.8673282,00154,Mo-Sa,,
EVENGELISTI STEFANO,BAR,Roma,Via Vigne Nuove,624,12.7372552,41.6574919,00139,Mo-Sa,,
F E F SRLS,L'ANTICO CASALE,Roma,Via Di Salone,155/157,12.6246003,41.9348949,00131,Mo-Sa,,
F E R LAB GASTRONOMIA ALIMENTARE DI FABIO ROBERTO TAORMIN,F E R LAB,Roma,Via Giambattista Vico,44D/E 46,,,00196,Mo-Sa,,
F.E G. SRLS,BAR TAVOLA CALDA,Roma,Via Zoe Fontana,220,12.606986256058027,41.92805025,00131,Mo-Fr,,
F.L.F.SRL,CAFFE' TESTACCIO,Roma,Via Giovanni Branca,64,12.476231,41.8813256,00153,Mo-Su,,
F.LLI CARRA DI CARRA V. SAS,RISTORANTE JONNY GALLO,Roma,Piazza Della Repubblica,64/65/66,12.729850971603963,41.9524123,00185,Mo-Su,,
F.LLI CARRA DI CARRA V. SAS,CAFFE' BAR PICCAROZZI,Roma,Piazza Della Repubblica,62/63,12.729850971603963,41.9524123,00185,Mo-Su,,
FA.PI. SA. SRL,LA FONTE DEL PANE,Roma,Via Gabriello Chiabrera,156/ABC,,,00145,Mo-Sa,,
FABIO CONSOLE,L ' AMBASCIATA CALABRESE,Roma,Via Michelangelo Poggioli,23/25,12.5163746,41.9071014,00161,Mo-Sa,,
FALUNI SRL,CONAD,Roma,Via Conversano,SNC,12.5777602,41.893519,00171,Mo-Su,,
FALUNI SRL,CONAD,Roma,Via Delle Vigne Di Morena,23,12.6051211,41.8109457,00118,Mo-Sa,,
FAMILY BAR DI RUSSO MARC,BAR GASTRONOMIA,Roma,Via Venti Settembre,121,12.4956205,41.9052704,00187,Mo-Su,,
FAMILY SAS DI FABIO BRUNO,LA BAGUETTERIA,Roma,Via Venti Settembre,23/A,12.4956205,41.9052704,00187,Mo-Sa,,
FANTO SRL,INFARINARE RISTORANTE PIZZERIA,Roma,Piazza Vescovio,16/17,12.5124757,41.9330533,00199,Mo-Su,,
FARINIAMO SRLS,FARINIAMO,Roma,Circonvallazione Ostiense,313/315,12.4934056,41.8673282,00154,Mo-Su,,
FAST FISH SRLS,LA PARANZA RISTORANTE PIZZERIA,Roma,Viale Dell'Oceano Pacifico,83,12.45950934721992,41.817101550000004,00144,Mo-Su,,
FAST FOOD INDIANO DI ZAHEER R.M. & M.J.,FAST FOOD,Roma,Via Delle Azzorre,348,12.266948,41.740303,00121,Mo-Su,,
FAUSTO D'AMBROSIO,UNDERGROUND CAFFE,Roma,Via Gela,41587,,,00182,Mo-Sa;Su afternoon,,
FC SRL,META' SUPERMERCATO,Roma,Viale Val Padana,1,12.5228556,41.9427979,00141,Mo-Su,,
FELICIANO BUSCAINI SRL,EFFEPIU' SUPERMERCATI,Roma,Via Dobbiaco,1,12.3834004,41.7385469,00124,Mo-Su,,
FELICIANO BUSCAINI SRL,EFFE PIU  SUPERMERCATI,Roma,Via Sarsina,72/A,12.4062671,41.7959555,00127,Mo-Su,,
FELICIANO BUSCAINI SRL,EFFEPIU' SUPERMERCATI,Roma,Via Delle Ebridi,4,12.2641379,41.7394445,00121,Mo-Su,MULTISTORE GLI AQUILONI,
FERDINANDO SRL,ROSSO POMODORO,Roma,Largo Torre Argentina,1,12.4769722,41.8958998,00186,Mo-Su,,
FERRARA SAS DI ANGELA FERRARA,PIZZERIA TAVOLA CALDA FERRARA,Roma,Viale Della Marina,56/58,12.2774527,41.7310203,00122,Mo-Su,,
FERRI BARBARA,DOLCE ROMA BAR,Roma,Via Serafico,167,12.4908341,41.8307928,00142,Mo-Fr,,
FIORENZA DI DI MATTIA EMANUELA,CAFFE' FIORENZA,Roma,Piazza Vescovio,22,12.5124757,41.9330533,00199,Mo-Su,,
FLUNCH ITALIA SRL,FLUNCH ROMA BUFALOTTA RISTORANTE,Roma,Via Alberto Lionello,201,12.5386784,41.9701141,00139,Mo-Su,C.C  PORTA DI ROMA,
FLUNCH ITALIA SRL,FLUNCH CAFFE ROMA BUFALOTTA BAR,Roma,Via Alberto Lionello,201,12.5386784,41.9701141,00139,Mo-Su,C.C. PORTA DI ROMA,
FOOD AND FOOD SRL,CANTIERI BISTROT,Roma,Via Cola Di Rienzo,16/20,12.4652093,41.9079707,00192,Mo-Su,,
FOOD FACTORY SRLS,FOOD FACTORY,Roma,Piazza Di San Cosimato,48/49,12.4693233,41.8875504,00153,Mo-Sa,,
FOOD IT SRLS,L' OTTAVA MERAVIGLIA,Roma,Via Po,62,12.4995156,41.9176565,00198,Mo-Sa,,
FOOD SERVICE SRL,D.P.C.,Roma,Via Vitorchiano,7,12.4877452,41.9564943,00189,Mo-Sa,,
FOOD SERVICE SRL,SUPREMA CORTE CASS.,Roma,Piazza Cavour,1,12.667968938588432,41.78781214999999,00193,Mo-Sa,,
FOOD SERVICE SRL,MIN. INTERNO,Roma,Via Tuscolana,1548,12.5862858,41.8412955,00173,Mo-Sa,MINISTERO INTERNO,
FOOD SERVICE SRL,BAR RETTORATO,Roma,Via Cracovia,SNC,12.6295217,41.8514639,00133,Mo-Sa,,
FOOD SERVICE SRL,RISTORANTE LA LIMONAIA,Roma,Via Lazzaro Spallanzani,1A,12.5108893,41.9123034,00161,Mo-Sa,,
FOOD SERVICE SRL,BAR C/O FACOLTA MEDICINA,Roma,Via Montpellier,SNC,12.6309093,41.8557061,00133,Mo-Sa,,
FOOD ZONE SRL,LE MARK SUPERMERCATO,Roma,Viale Di Castel Porziano,302,12.3523332,41.7324848,00124,Mo-Su,,
FORNO DEGLI AMICI SRL,FORNO DEGLI AMICI,Roma,Via Firenze,51/52,12.4944882,41.9016626,00184,Mo-Sa,,
FRAMA 2010 SRL,PUNTO SIMPLY MARKET,Roma,Piazza Cola Di Rienzo,86/C,12.466607,41.9083086,00192,Mo-Su,,
FRANCESCO COLUMBU & C. SNC,SNACK BAR GENNARGENTU,Roma,Via Di Portonaccio,43 A/B,12.5345194,41.9074398,00159,Mo-Sa,,
FRANCESCO GIORDANO,RINGO BAR,Roma,Viale Vasco De Gama,43318,12.2722572,41.7353496,00121,Mo-Sa,,
FRANCESCO ONOFRI,FRAICHE,Roma,Via Salaria,121/D,12.4985167,41.9195328,00198,Mo-Fr,,
FRATELLI  FABIO E ROBERTO STAROCCIA E C SNC,STAROCCIA,Roma,Via Sicilia,121,12.4893577,41.9081518,00187,Mo-Sa,,
FRATELLI CATALDI SAS,CARREFOUR EXPRESS,Roma,Via Aureliana,1,12.4954548,41.9068003,00187,Mo-Su,,
FRATELLI CAVALIERI SRL,IL VELIERO CAFE RISTORANTE,Roma,Via Ostiense,131/N/O,12.4789164,41.8639051,00154,Mo-Sa,,
FRATELLI CRISCIOTTI SAS DI CRISCIOTTI BERNARDINO E C,TRATTORIA F.LLI CRISCIOTTI,Roma,Via Massimo D'azeglio,5,12.6490684,41.7469194,00184,Mo-Sa,,
FRATELLI GARBATELLA SRLS,RISTORANTE PIZZERIA LA TORRICELLA 2,Roma,Circonvallazione Ostiense,192,12.4876818,41.8669898,00154,Mo-Su,,
FRATELLI ROCCHI SRL,BOTTEGA ROCCHI,Roma,Via Del Caravita,9,12.4800329,41.899282,00186,Mo-Su,,
FRIENDS FOOD 2017 SRL,SAPORI D' ISCHIA,Roma,Via Marche,19,12.4904417,41.9084253,00187,Mo-Su,,
FROB SRL,ALICE IL NOME DELLA PIZZA,Roma,Circonvallazione Ostiense,353,12.4934056,41.8673282,00154,Mo-Sa,,
FROLLANO MIRKO,MODENA PANINERIA,Roma,Via Modena,49,12.4940855,41.9021053,00184,Mo-Sa,,
FRUTTA CAPITALE SRL,ZAZIE,Roma,Via Cesare Bosi,7,12.5000237,41.9118554,00198,Mo-Fr,,
FUTURA PORTICO SRL,CATINARI,Roma,Via Di Santa Maria Del Pianto,16,12.4761049,41.8934747,00186,Mo-Su,,
G.A.R. SRL,IL PAPERO GIALLO SELF SERVICE,Roma,Via Vaglia,13/21,12.5146581,41.9498629,00139,Mo-Sa,,
G.P. SRL,CARREFOUR EXPRESS,Roma,Via Alessandro Piola Caselli,101,12.2859795,41.7378588,00122,Mo-Su,,
G.P. SRL,CARREFOUR EXPRESS,Roma,Via Casal Palocco,28,12.356838846135048,41.74441063287904,00124,Mo-Su,,
GAGE SRL,CAFFE CAMBRIDGE,Roma,Viale Regina Margherita,67/69,12.5053302,41.9140578,00198,Mo-Su,,
GAGLIO GIUSEPPE,PIZZERIA DI GIANNI,Roma,Via Dei Sommozzatori,53,12.4814222,41.8222131,00143,Mo-Sa,,
GAIA 2010 SRLS CON SOCIO UNICO,TERRA MIA-RISTORANTE BAR PIZZERIA,Roma,Via Reggio Emilia,10,12.5029981,41.9121665,00198,Mo-Sa,,
GAMFOOD SRL,PAGNOTELLA GOURMET,Roma,Via Tacito,34/36,12.4671573,41.9075572,00193,Mo-Su,,
GAO CHI LANG,RISTORANTE VIP CINESE E GIAPPONESE,Roma,Via Dell'Arcadia,71,12.4920514,41.8531391,00147,Mo-Su,,
GARGANI VALERIO SRL,GARGANI RISTORANTE,Roma,Via Lombardia,15/17,12.4874906,41.907668,00187,Mo-Su,,
GATTI SRL,CONAD CITY,Roma,Via Georges Sorel,25,12.564326,41.8969851,00177,Mo-Su,,
GATTI SRL,CONAD CITY,Roma,Via Prenestina,250/H,12.559325,41.8949716,00177,Mo-Su,,
GE.BAR SRL,TOMAS BAR,Roma,Via Oreste Tommasini,38/44,12.5257375,41.9197577,00162,Mo-Sa,,
GE.PI.R. SNC DI FULLONE D. E G.,TAVOLA CALDA,Roma,Via Castani,50,12.566727,41.8826474,00172,Mo-Sa,,
GELATI DI PIETRA SRL,IL PANINO INGEGNOSO,Roma,Piazza Di Pietra,35,12.4791901,41.8999682,00186,Mo-Su,,
GEMA COMMERCIALE SRL IN LIQUIDAZIONE,TUODI MARKET,Roma,Via Di Boccea,236A-238,,,00167,Mo-Su,,
GERVIT SRL,RED CARPET,Roma,Via Forlì,47,12.5139095,41.9091726,00161,Mo-Sa,,
GESCRALBAR SRL,GESCRAL BAR,Roma,Via Antonio Baiamonti,25,12.459963,41.9146559,00195,Mo-Fr,,
GESPAC SRL,CONAD SUPERSTORE SUPERMERCATO,Roma,Via Nocera Umbra,SNC,12.5288369,41.8781401,00181,Mo-Su,,
GESPAC SRL,CONAD SUPERSTORE SUPERMERCATO,Roma,Viale Isacco Newton,51/53/55 59,,,00151,Mo-Su,,
GESPAC SRL,CONAD SUPERSTORE,Roma,Via Ignazio Giorgi,53/A,12.5226236,41.918752,00162,Mo-Su,,
GESPAC SRL,CONAD SUPERSTORE SUPERMERCATO,Roma,Via Attilio Ambrosini,183,12.4915688,41.8504685,00147,Mo-Su,,
GESPAC SRL,CONAD SUPERSTORE,Roma,Via Tuscolana,950,12.5498634,41.8634222,00174,Mo-Su,,
GESTAR 1 SRL,CONAD MARKET,Roma,Via Taranto,204,12.517281,41.8840145,00182,Mo-Sa,,
GESTI. DIR. SRL,BAKE,Roma,Largo Del Bronzino,43377,12.4948946,41.8307048,00142,Mo-Sa,,
GESTI. DIR. SRL,COFFEE AND CO,Roma,Viale Palmiro Togliatti,2,12.571520021216994,41.853063000000006,00173,Mo-Su,,
GESUALDI ANTONIETTA,CAFFETTERIA TREVIS,Roma,Via Giacomo Trevis,46,12.4987097,41.8644638,00147,Mo-Sa,,
GFM SRL,CONAD,Roma,Corso Trieste,200,12.5076679,41.9151535,00198,Mo-Su,,
GFM SRL,CONAD,Roma,Via Cardinale Di York,2,,,00148,Mo-Su,,
GI.MAD. DE SANTIS SANDRO & C. SNC,PIZZA E POLLI ATENEO,Roma,Piazza Dell'Ateneo Salesiano,40,12.5241323,41.9595239,00139,Mo-Su,,
GIGLIO SRL,RISTORANTE DEL GIGLIO,Roma,Via Torino,137,12.4955986,41.9014889,00184,Mo-Sa,,
GIOVA SRL,BEAT,Roma,Via Fabio Massimo,51,12.4622124,41.9088108,00192,Mo-Sa,,
GIRODOLIO DI GIANLUCA REGAZZO,GIRODOLIO,Roma,Via Fabio Massimo,16,12.4628212,41.9077239,00192,Mo-Sa,,
GIUMA SRL,RISTORANTE GIUMA,Roma,Piazza Alessandria,23,12.501552593108695,41.911280700000006,00198,Mo-Sa,,
GO DISTRIBUZIONE SRL,PAM,Roma,Via Lemonia,187,12.5590766,41.8527284,00174,Mo-Su,,
GO DISTRIBUZIONE SRL,META,Roma,Viale Dei Colli Portuensi,191,12.443919,41.8666232,00151,Mo-Su,,
GOLA SRL,BAR TENTAZIONI,Roma,Via Silvio D'Amico,115,12.481293,41.8502818,00145,Mo-Su,,
GOURMET SERVICE SRL,PAGNOTELLA GOURMET,Roma,Viale Beethoven,90,12.467229,41.8339338,00144,Mo-Sa,,
GOURMETTANDO SRLS,PANINA GASTRONOMIA,Roma,Viale Europa,310,12.4737349,41.8294942,00144,Mo-Fr,,
GPS  ALIMENTARI SRL,IPERTRISCOUNT  GPS  ALIMENTARI,Roma,Via Orvieto,44,12.517058375000001,41.884914825,00182,Mo-Su,,
GRACOS SRL,PEWEX SUPERMERCATI,Roma,Viale Guglielmo Marconi,37,12.4707132,41.8587925,00146,Mo-Su,,
GRAMAR SRL,IPERCARNI,Roma,Via Casilina,1846,12.6637961,41.8643865,00132,Mo-Su,,
GRAN CAFFE' FRUIT E COFFEE SRLS,GRAN CAFFE' FRUIT E COFFEE,Roma,Via Di Capo Le Case,27,12.4844145,41.9038497,00187,Mo-Su,,
GRAN CAFFE' SWEET & SAVORY SRLS,GRAN CAFFE',Roma,Via Delle Quattro Fontane,28,12.4923341,41.9010516,00184,Mo-Sa,,
GRAN CATERING SRL,GU GRAN CAFFE,Roma,Viale Dell'Aeronautica,25/31,12.4754014,41.8259588,00144,Mo-Su,,
GREEN BAR SNC,GREEN BAR,Roma,Via Cesare Beccaria,9,12.4745476,41.9127761,00196,Mo-Fr,,
GRIF CAFE' 2 SRL,GRIF CAFE',Roma,Via Gracchi,203,12.4648278,41.9085687,00192,Mo-Sa,,
GRIF CAFE' SRL,GRIF CAFE' TAVOLACALDA,Roma,Viale Giuseppe Mazzini,49/51,12.4566886,41.9157881,00195,Mo-Sa,,
GRUPPO ARGENTI SRL,PUNTO SIMPLY,Roma,Piazza Cola Di Rienzo,86/C,12.466607,41.9083086,00192,Mo-Su,,
GRUPPO ARGENTI SRL,SIMPLY MARKET,Roma,Via Fabio Massimo,35/37,12.4622124,41.9088108,00192,Mo-Su,,
GRUPPO ARGENTI SRL,PUNTO SIMPLY,Roma,Piazza Di S Maria Liberatrice,43160,,,00153,Mo-Su,,
GRUPPO CATALDI SRL,CARREFOUR EXPRESS,Roma,Viale Arturo Crocco,51,12.3952561,41.821671,00148,Mo-Su,,
GRUPPO CATALDI SRL,CARREFOUR EXPRESS,Roma,Via Di Grotta Perfetta,141/147,12.514968,41.8323737,00142,Mo-Su,,
GRUPPO NEGOZI SRL,LA PIADINERIA,Roma,Via Alberto Lionello,201,12.5386784,41.9701141,00139,Mo-Su,GALL. COMM. PORTA DI ROMA,
GRUPPO NEGOZI SRL,LA PIADINERIA,Roma,Via Appia Nuova,48,12.5100799,41.8852976,00183,Mo-Su,C.C. HAPPIO,
GRUPPO NEGOZI SRL,LA PIADINERIA,Roma,Viale Palmiro Togliatti,2,12.571520021216994,41.853063000000006,00173,Mo-Su,,
GRUPPO NEGOZI SRL,LA PIADINERIA,Roma,Via Alberto Pollio,50,12.5342341,41.9002133,00159,Mo-Su,,
GRUPPO NEGOZI SRL,LA PIADINERIA,Roma,Viale Luigi Schiavonetti,426,12.6048745,41.8435365,00173,Mo-Su,CARREFOUR,
GRUPPO NEGOZI SRL,LA PIADINERIA,Roma,Viale Di Valle Aurelia,SNC,12.4363929,41.9061455,00167,Mo-Su,,
GRUPPO NEGOZI SRL,LA PIADINERIA,Roma,Corso Vittorio Emanuele Ii,275,12.4675571,41.8988862,00186,Mo-Su,,
GRUPPO NEGOZI SRL,LA PIADINERIA,Roma,Viale America,143,12.4694882,41.8293026,00144,Mo-Su,,
GRUPPO NEGOZI SRL,LA PIADINERIA,Roma,Via Enrico Ferri,8,12.599349833988352,41.85117005,00173,Mo-Su,C.C. LA ROMANINA,
GRUPPO NEGOZI SRL,LA PIADINERIA,Roma,Via Collatina,SNC,12.582641,41.9032967,00153,Mo-Su,C.C. ROMA EST,
GRUPPO NEGOZI SRL,LA PIADINERIA,Roma,Viale Dell'Oceano Pacifico,SNC,12.4598185,41.8212777,00144,Mo-Fr,C.C. EROMA 2,
GS SPA,CARREFOUR MARKET,Roma,Via Gregorio Vii,127,12.4397948,41.8958826,00165,Mo-Su,,
GS SPA,CARREFOUR MARKET,Roma,Via Casilina,288,12.5382651,41.8811773,00176,Mo-Su,,
GS SPA,CARREFOUR MARKET,Roma,Viale Ventuno Aprile,23,12.5201971,41.9191856,00162,Mo-Su,,
GS SPA,CARREFOUR MARKET,Roma,Via Di Grotta Di Gregna,SNC,12.5649442,41.9083202,00155,Mo-Su,,
GS SPA,CARREFOUR MARKET,Roma,Via Giacomo Bove,4-A-C-D,12.4814999,41.8711025,00154,Mo-Su,,
GS SPA,CARREFOUR MARKET,Roma,Piazzale Eugenio Morelli,52,12.4428671,41.8612153,00151,Mo-Su,,
GS SPA,CARREFOUR MARKET,Roma,Via Elio Donato,27,12.4423835,41.9127756,00136,Mo-Su,,
GS SPA,CARREFOUR MARKET,Roma,Piazzale Della Staz Del Lido,18/20,12.2839754,41.7324772,00122,Mo-Su,,
GS SPA,CARREFOUR MARKET,Roma,Via Tuscolana,1039,12.5222244,41.879158,00182,Mo-Su,,
GS SPA,CARREFOUR MARKET,Roma,Via Ottone Fattiboni,117/147,,,00126,Mo-Su,,
GS SPA,CARREFOUR MARKET,Roma,Via Antonio Criminali,32,12.3406407,41.7768415,00126,Mo-Su,,
GS SPA,CARREFOUR MARKET,Roma,Via Città Della Pieve,42/52,12.4739616,41.9448359,00191,Mo-Su,,
GS SPA,CARREFOUR MARKET,Roma,Via Gregorio Xi,201/209,12.3947661,41.885911,00166,Mo-Su,,
GS SPA,CARREFOUR MARKET,Roma,Viale Antonio Ciamarra,243/253,12.5902893,41.8559673,00173,Mo-Su,,
GS SPA,CARREFOUR MARKET,Roma,Via Ernesto Boezi,SNC,12.3685145,41.7390275,00124,Mo-Su,,
GS SPA,CARREFOUR MARKET,Roma,Viale Degli Eroi Di Rodi,16,12.4361548,41.7820318,00128,Mo-Su,,
GS SPA,CARREFOUR MARKET,Roma,Vale Apelle,SNC,12.355475,41.7519507,00124,Mo-Su,,
GS SPA,CARREFOUR MARKET,Roma,Via Delle Fornaci,136/154,12.4570427,41.8964101,00165,Mo-Su,,
GS SPA,CARREFOUR MARKET,Roma,Via Della Pineta Sacchetti,199,12.428591972243575,41.93678755,00168,Mo-Su,,
GS SPA,CARREFOUR MARKET,Roma,Via Dei Sabelli,125/129,12.5173145,41.8980117,00185,Mo-Su,,
GS SPA,CARREFOUR MARKET,Roma,Via Cesare Baronio,161/165,12.5188502,41.871966,00179,Mo-Su,,
GS SPA,CARREFOUR MARKET,Roma,Via Alesia,35/37,12.5016557,41.8809017,00183,Mo-Su,,
GS SPA,CARREFOUR MARKET,Roma,Via Ignazio Persico,82,12.4864774,41.866354,00154,Mo-Su,,
GS SPA,CARREFOUR MARKET,Roma,Via Dell'Acquedotto Peschiera,22/30/A,,,00135,Mo-Su,,
GS SPA,CARREFOUR MARKET,Roma,Viale Giorgio De Chirico,78/88,12.5850091,41.9021353,00155,Mo-Su,,
GS SPA,CARREFOUR MARKET,Roma,Via Teodoro Monticelli,44440,12.4804131,41.9233954,00197,Mo-Su,,
GS SPA,CARREFOUR MARKET,Roma,Largo Del Bronzino,13,12.4948946,41.8307048,00142,Mo-Su,,
GS SPA,CARREFOUR MARKET,Roma,Via Dei Prati Fiscali,SNC,12.5252645,41.9459563,00141,Mo-Su,,
GS SPA,CARREFOUR MARKET,Roma,Via Casilina,995,12.5646576,41.8748036,00172,Mo-Su,,
GS SPA,CARREFOUR MARKET,Roma,Via Ugo Ojetti,SNC,12.5523297,41.9447107,00137,Mo-Su,,
GS SPA,CARREFOUR MARKET,Roma,Piazzale Degli Eroi,13,12.447084089193737,41.90899835,00128,Mo-Su,,
GS SPA,CARREFOUR MARKET,Roma,Largo Lamberto Loria,6,12.498873911370925,41.86186285,00147,Mo-Su,,
GS SPA,CARREFOUR MARKET,Roma,Via Germania,SNC,12.4695077,41.6154456,00196,Mo-Su,,
GS SPA,CARREFOUR MARKET,Roma,Via Dei Cessati Spiriti,8/BC,12.5297399,41.866568,00179,Mo-Su,,
GUSTOFFICE SRLS,GUSTOFFICE BISTROT,Roma,Via Zoe Fontana,220,12.606986256058027,41.92805025,00131,Mo-Fr,,
HABEMUS PINSA SRL,HABEMUS PINSA RISTORANTE PIZZERIA,Roma,Via Umbria,19/21/23,12.4922009,41.9062845,00187,Mo-Sa,,
HD SRL,CONAD,Roma,Via Di Valle Aurelia,124,12.4366853,41.9079387,00167,Mo-Su,,
HEDI'S BAR SNC DI MOSBAHI HEDI BEN ALI',HEDI'S BAR,Roma,Via Francesco Carrara,7,12.4746954,41.9123859,00196,Mo-Sa,,
HOJATI HAMID REZA E C. S.A.S.,HOJATI SNACK BAR,Roma,Viale Castrense,7/C,12.5186271,41.8883978,00182,Mo-Sa,,
HOME CAFE' E BISTROT DI NAPOLI MARIATERESA,HOME CAFE' AND BISTROT,Roma,Via Calabria,26,12.5607132,42.1186727,00187,Mo-Sa,,
HOPE SRLS,BAR OASIES,Roma,Via Villafranca,1/A,12.5054399,41.904855,00185,Mo-Su,,
HUG E CO BURGER COMPANY SRL,UVE E FORME,Roma,Via Padova,43318,12.5190571,41.9110415,00161,Mo-Sa,,
I DUE CIARLI SRLS,HOSTERIA DEL PANINO,Roma,Via Nizza,42/44,12.5002095,41.912433,00198,Mo-Fr,,
I DUE FRATELLI DI SERAFINI E C. SNC,I DUE FRATELLI,Roma,Via Orazio Dello Sbirro,SNC,12.276632,41.7331764,00121,Mo-Sa,MERCATO COPERTO ORAZIO DELLO SBIRRO,
I DUE SECONDA 90 SRL,I DUE SECONDA,Roma,Circonvallazione Nomentana,580,12.5273399,41.9174465,00162,Mo-Sa,,
I MOLISANI SNC,PIZZERIA TAVOLA CALDA,Roma,Via Bergamo,5/B/C,12.5001093,41.9112646,00198,MERCOLEDI',Th-Tu,
I SICILIANI EUR S.R.L.,I SICILIANI,Roma,Viale Europa,134,12.4601280240879,41.82740918242351,00144,Mo-Su,,
I SICILIANI SUNRISE SRLS,RISTORANTE I SICILIANI,Roma,Via Servio Tullio,43382,12.4975316,41.9073517,00187,Mo-Su,,
I SICILIANI SUNRISE SRLS,I SICILIANI,Roma,Via Venti Settembre,45,12.4956205,41.9052704,00187,Mo-Su,,
IANNUZZIELLO NUNZIO DONATO,MORDI E FUGGI,Roma,Via Silvio Spaventa,9,12.4954548,41.9068003,00187,Mo-Fr,,
IL BARONE RAMPANTE DI BARBETTI ALBERTO,IL BARONE RAMPANTE,Roma,Via Tito Omboni,163/165,12.5013806,41.8656284,00147,Mo-Sa,,
IL BOSCHETTO SRL,CONAD CITY SUPERMERCATO,Roma,Via Val Di Non,41/43/45/47,12.5175807,41.9447064,00141,Mo-Su,,
IL BOSCHETTO SRL,CONAD CITY SUPERMERCATO,Roma,Via Del Boschetto,52,12.4904147,41.897518,00184,Mo-Su,,
IL CAFFETTINO SRL,IL CAFFETTINO,Roma,Via Monte Santo,43255,12.4594935,41.9154825,00195,Mo-Sa,,
IL MAGNACOLO DI RE.AR. SRL,IL MAGNACOLO,Roma,Via Andrea Solario,58,12.4867442,41.8379542,00142,Mo-Fr,,
IL MIGLIO 2018 SRL,MORENO,Roma,Piazza Bologna,39/A,12.5206233,41.9139636,00162,Mo-Su,,
IL NUOVO PAPERO SNC DI VITIELLO GAETANO E ROCCHI MAURO,IL NUOVO PAPERO,Roma,Largo Luigi Antonelli,41609,12.4845302,41.8510301,00145,Mo-Fr,,
IL NUOVO SOLE SRL,LA CUCCUMA,Roma,Via Merulana,221,12.5033626,41.8894574,00185,Mo-Su,,
IL PIZZETTIERE SNC DI LANCIOTTI MASSIMO & C.,IL PIZZETTIERE,Roma,Piazza S Maria Liberatrice,21,,,00153,Mo-Sa,,
IL QUADRIFOGLIO SRL,CONAD CITY SUPERMERCATO,Roma,Via Ipogeo Degli Ottavi,61/79,12.4079884,41.9656285,00135,Mo-Su,,
IL SICILIANO PSG SRL,IL SICILIANO,Roma,Viale Europa,351,12.4691938,41.8308093,00144,Mo-Su,,
INCANTESIMO SRL,MIMI' COCO' E PIZZA,Roma,Viale Leonardo Da Vinci,264/266,12.4805662,41.8585698,00145,Mo-Sa,,
INNOVATION LAB SRLS,XTRA ONE COFFEE,Roma,Via Lombardia,21,12.4874906,41.907668,00187,Mo-Su,,
INVERSA LUCIANO,LA PIZZERIA DEL MERCATO,Roma,Via Cesare Ricotti,72,12.5352028,41.8993528,00159,We-Mo,,
IPERCARNI SRL,IPERCARNI SUPERMERCATO,Roma,Via Enrico Ferri,26,12.5989964,41.8505818,00173,Mo-Su,,
IPPOCRATE 94 SRL,PIZZERIA IPPOCRATE,Roma,Viale Ippocrate,92/94,12.5183316,41.9076443,00161,Mo-Sa,,
IRIS BAR SRL,IRIS BAR,Roma,Via Giovanni Battista Morgagni,30/L,12.5106639,41.9098011,00161,Mo-Su,,
ITALIANA SUPERMERCATI SRL,PEWEX SUPERMERCATI,Roma,Via Cassia,2019,12.375529494959308,42.032481149999995,00123,Mo-Su,,
JENKY SRLS,CAFFE' VINTAGE,Roma,Via Sicilia,148,12.4893577,41.9081518,00187,Mo-Fr,,
JESSICA 95 SRL,BUDDY,Roma,Corso Vittorio Emanuele Ii,107/A,12.4728305,41.8968872,00186,Mo-Su,,
JOHNNMEZZANOTTE SRL,JOHNNMEZZANOTTE,Roma,Viale Europa,322,12.4691938,41.8308093,00144,Mo-Su,,
JUSTIN SRL,JUSTIN BAR,Roma,Corso D'Italia,38/G/L,12.4940073,41.9109926,00198,Mo-Sa,,
KEPAL SRL,CARREFOUR MARKET,Roma,Via Ajaccio,29,12.5093341,41.9190832,00198,Mo-Su,,
KIKO SRL,RISTORANTE ANNI CINQUANTA,Roma,Via Flavia,3/A/D,12.670462,41.7205491,00187,Mo-Su,,
KOINE SRL,VERO FOOD AND SMILES,Roma,Via Venti Settembre,26,12.4956205,41.9052704,00187,Mo-Su,,
L ESSENZA DEL CIBO SRLS,L ESSENZA DEL CIBO,Roma,Piazza Attilio Pecile,54,12.4856417,41.8687779,00154,Mo-Sa;Su afternoon,,
LA CICOLANA SRLS,PIZZERIA RUSTICA,Roma,Via Gerolamo Cardano,66,12.4683476,41.8634439,00146,Mo-Sa,,
LA GINESTRA SRL,BAR INTERNO,Roma,Via Venti Settembre,20,12.4953601,41.9052907,00187,Mo-Fr,MINISTERO AGRICOLTURA,
LA MACELLERIA POKER SRLS,LA MACELLERIA POKER,Roma,Via Roberto Malatesta,21/23,12.5371934,41.8874287,00176,Mo-Sa,,
LA NUOVA ERA SRL,LA NUOVA ERA BAR,Roma,Via Cina,56,12.4376759,41.8163368,00144,Mo-Sa,,
LA NUOVA NAPOLETANA SRL,LA NUOVA NAPOLETANA,Roma,Via Antoniotto Usodimare,34,12.4944923,41.8679824,00154,Mo-Sa,,
LA RICCA IDEA SRL,LA RICCA IDEA,Roma,Via Fulcieri Paulucci Calboli,50/52,12.461485,41.9165456,00195,Mo-Su,,
LA RINASCENTE SPA,LA RINASCENTE BAR,Roma,Via Aniene,1,12.4969064,41.9116588,00198,Mo-Su,RINASCENTE,
LA RINASCENTE SPA,LA RINASCENTE,Roma,Piazza Fiume,SNC,12.4981727,41.9105769,00198,Mo-Su,,
LA ROSA DEI VENTI SNC DI DE SANTIS ROSA MARIA E C.,LA ROSA DEI VENTI,Roma,Piazza Monte Baldo,3/A,12.5340195,41.9370738,00141,Mo-Sa,,
LAB 14 SRL,IPERCARNI MARKET,Roma,Via Marco Papio,30/32,12.5513989,41.8658191,00175,Mo-Su,,
LADISA SPA,BAR MINISTERO,Roma,Viale Dell'Arte,16,12.4741815,41.832004,00144,Mo-Fr,,
LAGABI SRL,LA GALLINA BIANCA,Roma,Via Antonio Rosmini,9,12.4975118,41.8998681,00184,Mo-Su,,
L'ALIMENTARISTA SRL,CENTRO ALIMENTARI,Roma,Via Cesare Ricotti,38/40,12.5352028,41.8993528,00159,Mo-Sa,,
L'ANGOLO DELLE BONTA' SNC DI SALVATORI CESARE,L'ANGOLO DELLE BONTA',Roma,Via Caio Canuleio,16/18/20,12.5626529,41.8515235,00174,Mo-Sa,,
L'ARANCINA SRL,MONDO ARANCINA,Roma,Via Marcantonio Colonna,38/40,12.4665671,41.9106758,00192,Mo-Su,,
L'ARTE DELLA PIZZA DI MOHAMMED TOPON,L'ARTE DELLA PIZZA,Roma,Via Luigi Santini,43224,12.469176,41.887049,00153,Mo-Su,,
LATROFA ANNAMARIA SNC,BAR,Roma,Via Vercelli,56,12.5166393,41.8818098,00182,Mo-Sa,,
LE DELIZIE DELLA TAVOLA SRL,LE DELIZIE DELLA TAVOLA,Roma,Via Del Ponte Delle Sette Miglia,40,12.6031129,41.8423655,00173,Mo-Sa,,
LE DOLCI TENTAZIONI SRL,TORNATORA,Roma,Viale Della Grande Muraglia,320,12.4556417,41.8227544,00144,Mo-Su,,
LEGNO E FERRO - ATENA SRLS,FERRO 54,Roma,Via Angelo Bargoni,60,12.4691019,41.8809892,00153,Su-fr,,
LEONINA 2017 SRLS,PIZZERIA LEONINA,Roma,Via Leonina,84,12.4913222,41.894647,00184,We-Mo,,
LIN SHUANGQIANG,RISTORANTE TOYAMA,Roma,Via Della Lega Lombarda,41913,,,00162,Mo-Su,,
LO SPUNTINO 2014 SRL,LO SPUNTINO,Roma,Viale Giulio Cesare,28,12.4568508,41.9090795,00192,Mo-Fr,,
LOMETA SRL,LE MARK SUPERMERCATO,Roma,Via Del Fosso Di San Matteo,17/35,12.6501991,41.8203925,00133,Mo-Su,,
LOPEZ SARA DEBORA,PIZZAMANIA,Roma,Via Dei Traghetti,69,12.2782974,41.7360992,00121,We-Mo,,
LUCARELLI ORIGINAL SRL,BISTRO L,Roma,Piazza Ragusa,61,12.5222158,41.8814116,00182,Mo-Su,,
LUEMA SRL,PIZZA E DINTORNI,Roma,Via Laurentina,912,12.4808313,41.8010134,00143,Mo-Sa,,
LUNA MEDITERRANEA SRL,ALICE PIZZA,Roma,Via Romagna,28,12.4943201,41.9094296,00187,Mo-Sa,,
LUPI SUPERMERCATI SRL,PUNTO SIMPLY SUPERMERCATO,Roma,Piazza Di S Maria Liberatrice,43160,,,00153,Mo-Su,,
LUPI SUPERMERCATI SRL,PUNTO SIMPLY SUPERMERCATO,Roma,Piazza Testaccio,21/25,12.4765733,41.8797335,00153,Mo-Su,,
LUSTRATI DOMENICO,POK POLL'OK,Roma,Via Cesare Paoletti,24/26,12.5001516,41.9109151,00198,Mo-Su,,
M & D SRL,GEDA CAFFE,Roma,Via Giacomo Trevis,86,12.4987097,41.8644638,00147,Mo-Fr,,
M E C SAS DI CENESI MASSIMO E C,BAR CAFFETTERIA TAVOLA CALDA,Roma,Via Benedetto Croce,53/55,12.4842044,41.8417514,00142,Mo-Sa,,
M. & R. FOOD HALL SRL,CAFE' BUD BAR,Roma,Via Ovidio,42705,12.4643799,41.9066354,00193,Mo-Sa,,
M. E G. DI M. E G. LATTANZI SNC,PIZZIDEA,Roma,Viale Adriatico,135,12.536697,41.9420685,00141,Mo-Sa,,
M.ANT.A 97 SRL,ALARI,Roma,Via Portuense,106/B,12.4680428,41.8774685,00153,Tu-Su,,
M.V.M. SRL,CAFFETTERIA DEI GRACCHI,Roma,Via Gracchi,108/112,12.4648278,41.9085687,00192,Mo-Su,,
M2G SRL,REGUSTO,Roma,Viale Dell'Arte,5,12.4755924,41.8319658,00144,Mo-Su,,
MA.LU.GIO. SRL,CAFE' BISTROT,Roma,Via Gabriello Chiabrera,128,12.4793762,41.8542127,00145,Mo-Su,,
MACAO SRL,COFFEE AND CAKE,Roma,Corso Trieste,18,12.5076679,41.9151535,00198,Mo-Sa,,
MACCHIA MARIANNA,PIZZERIA MEDITERRANEA,Roma,Via Agostino Depretis,76,12.4959881,41.8989269,00184,Mo-Sa,,
MACINANTI SRL,MACINANTI RISTORANTE,Roma,Via Elio Vittorini,45/47,12.4702692,41.8187209,00144,Mo-Sa,,
MAGESTIC SRL,CONAD,Roma,Via Della Magliana,224,12.4459624,41.8331116,00146,Mo-Su,,
MAIORINO ANTONIO,GRAN CAFFE' MAIORINO,Roma,Viale Giuseppe Mazzini,104,12.4566886,41.9157881,00195,Mo-Sa,,
MALICA SNC DI TIMPANARO E CARTA,ALICE PIZZA,Roma,Via Lazio,15,12.487691,41.9085176,00187,Mo-Sa,,
MALVA SRL,AGOSTINI DAL 1968,Roma,Via Costantino Corvisieri,28/32,12.5213504,41.9200352,00162,Mo-Sa,,
MAMA DI GUGGIOLI MAURO,GUSTERIA AL 17,Roma,Via Natale Del Grande,17,12.4698611,41.8871528,00153,Mo-Su,,
MAMIANI BAR SRL,DOMUS ALTIERI BISTROT,Roma,Via Del Gesù,94,12.4787962,41.8972951,00186,Mo-Su,,
MAN GIO SRL,IL GUSTO GASTRONOMIA,Roma,Via Gaetano Lodi,26,12.6053043,41.8423665,00173,Mo-Fr,,
MAO WEI,RISTORANTE CINESE,Roma,Via Gela,81/83,12.520192,41.87853,00182,Mo-Su,,
MAR E PI SRL,LA DOLCE VITA CAFFETTERIA,Roma,Vicolo Del Casal Lumbroso,85,,,00166,Mo-Sa,,
MAR.ISA SRL,RIK'S CAFE' BAR RESTAURANT,Roma,Via Dei Mille,7/A,12.5042998,41.9028948,00185,Mo-Su,,
MARCEDDU SILVANO,PIZZERIA DEL SECOLO,Roma,Via Palestro,62,12.5069418,41.9027291,00185,Mo-Su,,
MARCELLINI IVANO,BAR TRATTORIA DA IVANO,Roma,Via Portuense,1433,12.347866194444439,41.8184825,00148,Mo-Sa,,
MARCOCCI BRUNO,PANBISCOTTO,Roma,Viale Antonio Ciamarra,164/A,12.5902893,41.8559673,00173,Mo-Sa,,
MARGIOTTA ALESSANDRO,MACELLERIA MARGIOTTA,Roma,Via Stefano Oberto,SNC,12.5861323,41.8520525,00173,Mo-Sa,,
MARINVEST SRL,IPERCARNI SUPERMERCATO,Roma,Viale Dell'Esercito,38,12.4963641,41.8066958,00143,Mo-Su,,
MARKET 2S SRL,CONAD CITY,Roma,Via Dei Crispolti,60,12.5494097,41.9090007,00159,Mo-Sa,,
MARKET 3S SRL,CONAD,Roma,Piazza R Balsamo Crivelli,29,,,00159,Mo-Sa;Su afternoon,,
MARTINA MANDARA,MOKASIRS COFFE BAR,Roma,Circonvallazione Ostiense,253,12.4934056,41.8673282,00154,Mo-Sa,,
MASED DI FRATINI SERGIO E C,MINI MARKET,Roma,Via Enzo Benedetto,7/A/B,12.5815347,41.8329421,00173,Mo-Su,,
MAUGERI MAURIZIO,MACELLERIA,Roma,Via Dell'Appagliatore,BOX C1,,,00121,Mo-Sa,MERCATO BOX C1,
MAURO DONFRANCESCO,BAR GASTRONOMIA,Roma,Via Magenta,7,13.2795689,41.5385711,00185,Mo-Su,,
MAX ANT SRL,BAR MAX CAFFE NIAGARA,Roma,Piazza Dell'Indipendenza,18,12.50247900915856,41.90436605,00185,Mo-Su,,
MAZAL SRL,CREO BOULANGERIE,Roma,Via Salaria,22,12.4985167,41.9195328,00198,Mo-Su,,
MAZZA MASSIMO,SCACCO MATTO BAR,Roma,Viale Vasco De Gama,251,12.2722572,41.7353496,00121,Mo-Sa;Su afternoon,,
MBGOODS SRLS,HOMY,Roma,Viale Avignone,128,12.4539196,41.818499,00144,Mo-Su,,
MC RISTORAZIONE SRL,LA LOCANDA DEL TEMPIO,Roma,Via Di Pietra,85,12.4802101,41.8999958,00186,Mo-Su,,
MECAM SRL,SIMPLY,Roma,Via Tagliamento,36,12.5042192,41.9208829,00198,Mo-Su,,
MEDIS SRL,TIGRE AMICO SUPERMERCATO,Roma,Via Faleria,30,12.5106793,41.8835905,00183,Mo-Su,,
MELA VERDE SRL,MELA VERDE CAFFE',Roma,Via Paolo Di Dono,41/43/45,12.493346,41.8300845,00142,Mo-Sa,ROMA EUR,
MENNI SRL,TIGRE AMICO SUPERMERCATO,Roma,Largo Benedetto Marcello,1,12.4975656,41.9187051,00198,Mo-Su,,
MENU COMPANY SRL,BISTROT LUCE,Roma,Via Silvestri,232,12.4378197,41.8777895,00164,Mo-Su,,
MENU COMPANY SRL,HOSTARIA LUCE,Roma,Via Della Luce,44,12.4746903,41.8880893,00153,Mo-Su,,
MERCATO CENTRALE ROMA TERMINI SRL,MERCATO CENTRALE ROMA,Roma,Via Giovanni Giolitti,36,12.5035512,41.8988768,00185,Mo-Su,,
MERCEDE 19 SRLS,PASTA MIA,Roma,Via Della Mercede,19,12.4821672,41.903293,00187,Mo-Su,,
MERCURI SRL,MERCURI,Roma,Viale Ventuno Aprile,65,12.5202526,41.9158292,00162,Mo-Sa,,
MIDA SNC,BAR MIDA,Roma,Via Nomentana,61,12.5133326,41.917478,00161,Mo-Fr,,
MIGLIARO COSTANZA,BAR DELLO STADIO,Roma,Via Mar Arabico,28,12.3009917,41.7342094,00122,Mo-Su,,
MILELLIS BAR SAS DI FRANCIS ELLIS,BADAPEST BAR,Roma,Viale Capitan Consalvo,13,12.2784839,41.7325452,00122,Mo-Sa,,
MILLEVOLTEEMME SRLS,ACQUA E FARINA,Roma,Corso Vittorio Emanuele Ii,260,12.4728305,41.8968872,00186,Mo-Sa;Su afternoon,,
MINI MONDO SRL,CARREFOUR SUPERMERCATO,Roma,Via Dei Giardinetti,137/139,,,00133,Mo-Su,,
MINI SNC DI BELCIUG E MICHELE PATACCHIA,BAR I GASTRONOMI,Roma,Via Gaeta,43,12.5020383,41.9055951,00185,Mo-Su,,
MISSIONE BENESSERE ROMA SRL,VITALITY FOOD,Roma,Piazza Dell'Indipendenza,8,12.503113,41.904244,00185,Mo-Su,,
MISTER PIZZA DI ALBERTO PAOLETTI,MISTER PIZZA,Roma,Via Alessandria,80,12.5005346,41.9105957,00198,Mo-Sa,,
MITICA COUTURE SRL,LE MYTHIQUE BISTROT,Roma,Via Ugo Ojetti,466,12.5523297,41.9447107,00137,Mo-Su,,
MOCCA SRL,CONAD,Roma,Via Di S Croce In Gerusalemme,14,,,00185,Mo-Su,,
MOLLICA OSVALDO,ALIMENTARI,Roma,Via Oreste Tommasini,51/53,12.5257375,41.9197577,00162,Mo-Sa,,
MONDO PIZZA SAS DI ATTA MOUSTAFA A.M. E C,MONDO PIZZA,Roma,Via Giuseppe Marotta,5,12.4823277,41.8150358,00143,Su-fr,,
MONFORTANI SRL,RISPARMIO PIU SUPERMERCATO,Roma,Via Prenestina,1390,12.6629431,41.8908702,00132,Mo-Su,,
MONICA OLIVIA,MAOLI LA BOUTIQUE DEI SAPORI,Roma,Via Toscana,32,12.4908031,41.9098917,00187,Mo-Sa,,
MONICH SRLS,BAR RISTORANTE ANTICHE MURA,Roma,Via Leone Iv,51/53,12.4551105,41.9095658,00192,Mo-Su,,
MONTEDORO 94 SRL,CAFFE MONTE D'ORO,Roma,Piazza Di Monte D'oro,91/92,12.476943,41.9047956,00186,Mo-Su,,
MONTI ELISABETTA,ALICE PIZZA,Roma,Via Teulada,61,12.4551811,41.9194397,00195,Mo-Sa,,
MONTUORI GIOVANNI,TRATTORIA PIZZERIA DA GIOVANNI,Roma,Via Carlo Citerni,43381,12.4931446,41.8679018,00154,Tu-Su,,
MSM AURORA SRL,BAR RISTORANTE,Roma,Largo Santa Susanna,108,,,00187,Mo-Sa,,
MUCELLI GIANCARLO,TECNO PIZZA TAKE AWAY,Roma,Via Zoe Fontana,220,12.606986256058027,41.92805025,00131,Mo-Fr,,
NAZIONALE SRL,CAFFE' DEL QUIRINALE,Roma,Via Ventiquattro Maggio,49,12.4867669,41.8980055,00187,Mo-Fr,,
NEW ART GALLERY SRLS,NEW ART GALLERY,Roma,Via Francesco Gai,8,12.4654846,41.9315692,00196,Mo-Sa,,
NEW FLAVIA SAS DI SIMEONI MARGHERITA & C.,ALICE PIZZA,Roma,Circonvallazione Appia,450,12.5153411,41.875872,00179,Mo-Su,C/C HAPPIO,
NEW FLAVIA SAS DI SIMEONI MARGHERITA & C.,ALICE PIZZA,Roma,Via Cimino,91,12.5344172,41.9457881,00139,Mo-Su,,
NEW FLAVIA SAS DI SIMEONI MARGHERITA & C.,ALICE PIZZA,Roma,Viale Dei Colli Portuensi,582,12.443919,41.8666232,00151,Mo-Su,,
NEW FLAVIA SAS DI SIMEONI MARGHERITA E C,ALICE PIZZA,Roma,Via Flavia,91,12.4967995,41.9068305,00187,Mo-Sa,,
NEW WAY ROMA SRL,HAM HOLY BURGER  RISTORANTE PIZZERIA,Roma,Via Brescia,24/32,12.4999594,41.9122927,00198,Mo-Su,,
NIBBI DAL 1936 SRL,BAR PANINOTECA,Roma,Via Emilia,42/44,12.4884049,41.907899,00187,Mo-Sa,,
NICCODIFRA SRL,CONAD,Roma,Via Massa Di San Giuliano,265,12.6951599,41.9033795,00132,Mo-Sa,,
NICE BREAK SRL,CAFFE IL DOLLARO,Roma,Circonvallazione Ostiense,355,12.4934056,41.8673282,00154,Mo-Sa,,
NIEVO AL 51 SRL,NIEVO AL 51,Roma,Via Ippolito Nievo,51,12.4674265,41.8784339,00153,Su-fr,,
NINA SRL,NINA BAR,Roma,Via Flavia,46,12.4967995,41.9068305,00187,Mo-Su,,
NON CI RESTA CHE PIZZA SRL,IL CILENTANO PIZZA,Roma,Via Diego Angeli,40/42,12.5512584,41.9074896,00159,We-Mo,,
NONNA LIA S. PAOLO SRL,NONNA LIA PANZEROTTI,Roma,Via Gabriello Chiabrera,166/A,12.4793762,41.8542127,00145,Mo-Sa,,
NUOVA TURISTICA ROMANA SRL,RISTORANTE LA GROTTA ROMANA,Roma,Via Palestro,93,12.5069418,41.9027291,00185,Mo-Su,,
OASI DUE SRL,PIZZA RUSTICA,Roma,Circonvallazione Ostiense,149,12.4858684,41.8674609,00154,Mo-Su,,
OASI DUE SRL,RISTORANTE DA LUIGI  ORTO DI ROMA,Roma,Via Di Grotta Perfetta,551,12.514968,41.8323737,00142,Mo-Su,,
OBELISCO 15 SRL,PIER,Roma,Piazza Guglielmo Marconi,6,12.4705265,41.8335959,00144,Mo-Su,,
ODEON BAR SNC DI SANNA STEFANO E C.,ODEON BAR,Roma,Via R Bianchi Bandinelli,33,12.5867116,41.817653,00178,Mo-Sa,,
OPERA 12 SRL,BAR TRATTORIA IL GROTTINO,Roma,Piazza Di San Bernardo,108,,,00187,Mo-Su,,
OPERE E CAFFE' SRL,OPERE E CAFFE',Roma,Via Della Lungaretta,18,12.4759117,41.8893139,00153,Mo-Su,,
OPERE E CAFFE' SRL,BRUCIA PADELLE,Roma,Piazza Ippolito Nievo,13/14,12.467085707648954,41.87970385,00153,Mo-Su,,
OPERE E CAFFE' SRL,BAR BELLI DAL1938,Roma,Piazza G Gioacchino Belli,4,,,00153,Mo-Su,,
ORIOLO SRL,CONAD,Roma,Corso Francia,124,12.4695182,41.9466939,00191,Mo-Su,,
ORTOPOINT SRL,ORTOPOINT SIGMA,Roma,Via Diego Angeli,112,12.5512584,41.9074896,00159,Mo-Sa,,
OSTERIA DEL CURATO DI VISCUSO ANGELO,OMAR BAR,Roma,Via Firenze,28,12.4944882,41.9016626,00184,Mo-Su,,
OTHERSIDE SRL,HAM HOLY BURGER FAST FOOD,Roma,Via Ponte Di Piscina Cupa,SNC,,,00128,Mo-Su,,
OTTO ROMA SRLS,OTTO BAR PIZZERIA,Roma,Via Giuseppe Donati,89/95,12.5501801,41.9073836,00159,Mo-Su,,
OUALLI BOUALEM,PIZZERIA AL BARAKA,Roma,Via San Martino Ai Monti,29,,,00184,Mo-Su,,
P.P. E P. SRLS,RISTORANTE PIZZERIA,Roma,Via Attilio Benigni,34,12.5606632,41.9307686,00156,Mo-Su,,
PAAAST SRL,SERENELLA PIZZA E...,Roma,Via Salaria,70,12.4985167,41.9195328,00198,Mo-Su,,
PADDOCK 2014 SRL,PADDOCK RISTO CAFFE',Roma,Via Portuense,1585A/B,12.4131849,41.845908,00148,Mo-Fr,,
PALLANTUCCI MASSIMILIANO,PALLANTUCCI BAR,Roma,Via Terni,76/78/80,12.5194364,41.8851397,00182,Mo-Sa,,
PALOMBINI EUR SRL,PALOMBINI EUR BAR,Roma,Piazzale Konrad Adenauer,12,12.4676187,41.8364354,00144,Mo-Su,,
PAM FRANCHISING SPA,META',Roma,Via Scribonio Curione,29/35,12.5545008,41.8644337,00175,Mo-Su,,
PANAPESCA SPA,CRIOS,Roma,Viale Repubbliche Marinare,66,12.267615,41.7337767,00121,Mo-Su,,
PANAPESCA SPA,CRIOS,Roma,Via Dei Georgofili,108/118,12.4940063,41.8517908,00147,Mo-Su,,
PANAPESCA SPA,CRIOS,Roma,Via Roberto Malatesta,120,12.5371934,41.8874287,00176,Mo-Su,,
PANCHO SRL,PANCHO CAFFE',Roma,Via Baldassarre Castiglione,78/80,12.4857163,41.8436451,00142,Mo-Sa,,
PANDOLFI MAURO,BAR DELLE GRAZIE,Roma,Via Grazie,41974,,,00193,Mo-Sa,,
PANTAREI  SRL,TELE BAR FAUSTO,Roma,Via Teulada,47/49/51,12.4551811,41.9194397,00195,Mo-Fr,,
PAOLUCCI ALESSANDRO,RIO BAR,Roma,Via Gaeta,48,12.6557998,41.4780966,00185,Mo-Fr,,
PAPERO GIALLO SNC DI R.BERARDI E C.,PAPERO GIALLO,Roma,Via Taranto,64/66,12.517281,41.8840145,00182,Mo-Su,,
PAPILI STEFANO,TRATTORIA DALLA PADELLE ALLA BRATE,Roma,Via Di Ponte Galeria,303,12.3349214,41.8427831,00148,Mo-Su,,
PARIS BAR SRLS,PARIS BAR,Roma,Corso Trieste,132,12.5076679,41.9151535,00198,Mo-Sa,,
PAS SRL,VIVO SUPERMERCATI,Roma,Via Della Bufalotta,164,12.5411868,41.9496855,00139,Mo-Su,,
PAS SRL,VIVO SUPERMERCATI,Roma,Via Leopoldo Traversi,36,12.4931446,41.8679018,00154,Mo-Su,,
PASTA IMPERIALE MONTI SRL,PASTA IMPERIALE,Roma,Via Del Boschetto,112,12.4912643,41.8953691,00184,Mo-Su,,
PASTATION ROMA SRL,PASTATION,Roma,Piazza In Campo Marzio,6,12.476224235164928,41.901525899999996,00186,Mo-Su,,
PASTIFICIO RANA SPA,DA GIOVANNI RISTORANTE,Roma,Viale Oceano Pacifico,SNC,12.4972305,41.6298767,00144,Mo-Su,,
PASTITALY SRLS UNINOMINALE,PIZZERIA,Roma,Via Appia Nuova,224,12.5100799,41.8852976,00183,Mo-Su,,
PAZZAMENTE PIZZA DI BOTTONI EMILIANO E CLAUDIO SNC,PAZZAMENTE PIZZA,Roma,Viale Della Grande Muraglia,166/168,12.4556417,41.8227544,00144,Mo-Sa,,
PAZZAMENTE PIZZA DI BOTTONI SERGIO,PAZZAMENTE PIZZA DA SERGIO,Roma,Via Alberto Ascari,198,12.5037643,41.8347244,00142,Mo-Su,,
PENTA SUPERMERCATI SRL,CONAD SUPERSTORE MARKET,Roma,Via Del Trullo,100,12.4365771,41.8347459,00148,Mo-Su,,
PEONIA SRLS,BAR MIRAGE,Roma,Via Alessio Baldovinetti,98,12.4945979,41.8317502,00142,Mo-Su,,
PERGEGA SRL,CAPPUCCINO E CORNETTO,Roma,Via Tripolitania,22,12.5235371,41.9302882,00199,Mo-Sa,,
PERL FOOD E DRINK SRL,GRAN CAFFE' MAZZINI,Roma,Piazza Giuseppe Mazzini,10,12.4641659,41.9157197,00195,Mo-Su,,
PETITTA EDMONDO,BAR CUBA,Roma,Via Ignazio Giorgi,64,12.5226236,41.918752,00162,Mo-Sa,,
PETROCCO LUIGI,CHAMONIX BAR,Roma,Viale Regina Margherita,109,12.5016274,41.9172117,00198,Mo-Sa,,
PEWEX AL.PA. SRL,PEWEX SUPERMERCATO,Roma,Viale Paolo Ferdinando Quaglia,120,12.6424248,41.8692573,00133,Mo-Su,,
PEWEX AL.PA. SRL,PEWEX SUPERMERCATO,Roma,Via Di Tor Bella Monaca,469/475,12.6385329,41.8668637,00133,Mo-Su,,
PG ROMA SRL,PANINO GIUSTO,Roma,Piazza Cavour,17/BCD 18,,,00193,Mo-Su,,
PG ROMA SRL,PANINO GIUSTO,Roma,Viale Dell'Oceano Pacifico,83,12.45950934721992,41.817101550000004,00144,Mo-Su,C.C EUROMA 2,
PI NO SRLS,CENTOTRENTAGRAMMI,Roma,Via Cornelio Magni,34,12.4974888,41.8653681,00147,Mo-Sa,,
PIAZZA DI SPAGNA SRL,LA BARCACCIA,Roma,Piazza Di Spagna,65,12.4821294,41.9057477,00187,Mo-Su,,
PIAZZA TRILUSSA 43 SRL,PIZZERIA LUIGI,Roma,Via La Spezia,56,12.5144548,41.8861993,00182,Mo-Su,,
PINTA SRL,GASTRONOMIA,Roma,Via Flavia,48/50,12.075345,41.9528497,00187,Mo-Su,,
PINTO FABIANA MARILIA BUONAFINA,MR. KEBAB TURCO ISTANBUL,Roma,Viale Di Trastevere,51,12.4720747,41.886744,00153,Mo-Su,,
PIU BIO 153 SRL,PIU BIO,Roma,Via Tuscolana,1241,12.6002843,41.8370236,00173,Mo-Su,,
PIU BIO 7 SRL,PIU BIO,Roma,Viale Dei Consoli,165,12.5518017,41.8641693,00175,Mo-Su,,
PIU' BIO 72 SRL,PIU' BIO,Roma,Via Dei Ruderi Di Torrenova,23,12.6052531,41.8683966,00133,Mo-Su,,
PIZZA APOLLINARE SRL,PIZZA CIRO,Roma,Via Della Mercede,43/45,12.4821672,41.903293,00187,Mo-Su,,
PIZZA BOOM A.M.N. DI A. MESSALI,PIZZA BOOM ROSTICCERIA FRIGGITORIA,Roma,Viale Di Trastevere,271A/273,,,00153,Mo-Su,,
PIZZA E CACIO DI ATAA SALAMA,PIZZA E CACIO,Roma,Via Andrea Meldola,170/174,12.507107,41.823513,00143,Mo-Su,,
PIZZA SPRINT SRL,SFIZI DI PIZZA,Roma,Via Genova,15,12.4920503,41.8992199,00184,Mo-Sa,,
PIZZANDO GRIGLIANDO 97 S.I.R. SRL,PIZZANDO GRIGLIANDO,Roma,Piazzale Jonio,39/C,12.5257838,41.9459476,00141,Mo-Su,,
PIZZERIA M. M. 2 SRL,PIZZERIA M. M. 2,Roma,Via Della Lega Lombarda,16,12.5253453,41.9085614,00162,Mo-Sa,,
PIZZERIA ROSTICCERIA RICCI CURZIO,PIZZIAMOCI,Roma,Via Benedetto Croce,129,12.4840372,41.8414371,00142,Mo-Sa,,
PLUTO'S PIZZA SNC DI D'AMICO E ZAPPATA,PLUTO'S PIZZA,Roma,Piazza Ragusa,37,12.5234088,41.8812427,00182,Mo-Su,,
PONTE PIZZA 1 SRLS,PONTE PIZZA,Roma,Viale Antonio Ciamarra,183,12.5902893,41.8559673,00173,Mo-Su,,
POTITO' TERESA,GRAN CAFFE' SALANDRA,Roma,Via Antonio Salandra,36/38,12.4951701,41.90592,00187,Mo-Sa,,
PRATI 2013 SRLS,PRATI BAR ALIMENTARI,Roma,Viale Giulio Cesare,22/26,12.4568508,41.9090795,00192,Mo-Fr,,
PRIMOPIANO SRL,HAM HOLY BURGER RISTORANTE,Roma,Piazza Dei Cinquecento,SNC,12.4999429,41.900755,00185,Mo-Su,,
PRO.FOOD E CO. SRL,ANGOLO SCIARRA,Roma,Via Marco Minghetti,8,12.4821649,41.9000287,00187,Mo-Su,,
PRODOTTI DI ECCELLENZA SRL,DON NINO,Roma,Viale Eritrea,103/109,12.5158881,41.9269385,00199,Mo-Su,,
PULCINELLI ALESSANDRO,BAR,Roma,Vicolo Cinque,5,12.4696954,41.8910307,00153,Mo-Su,,
PUNTO EAT SRL,CARREFOUR ECPRESS,Roma,Via Del Governo Vecchio,119,12.4700606,41.8984445,00186,Mo-Su,,
QUADRANI GIOVANNI,BAR QUADRANI,Roma,Viale Trastevere,110,12.3944992,41.7826788,00153,Mo-Sa,,
QUATTRO FONTANE DI F.LLI IANNARILLI SNC,BAR GELATERIA PASTICCERIA QUATTRO FONTANE,Roma,Via Quattro Fontane,128,12.4923341,41.9010516,00184,Mo-Sa,,
QUATTRO SRLS,QUATTRO,Roma,Via Marche,62,12.4904417,41.9084253,00187,Mo-Sa,,
QUICIBO SRL,LA GRANOTECA FAST FOOD,Roma,Via Zoe Fontana,220,12.606986256058027,41.92805025,00131,Mo-Fr,COMPRENSORIO TECNOCITTA,
R.A.F.SRL,RAF RISTORANTE PIZZERIA,Roma,Via Plinio,17/A,12.4653844,41.9073121,00193,Mo-Su,,
R.C. SRL,MAZZINI CAFFETTERIA,Roma,Viale Giuseppe Mazzini,75,12.4566886,41.9157881,00195,Mo-Sa,,
RA.BU. SRLS,SPAGHETTI,Roma,Via Leone Iv,29,12.4551105,41.9095658,00192,Mo-Su,,
RA.BU. SRLS,BOX,Roma,Via Cicerone,29,12.4690202,41.9067463,00193,Mo-Su,,
RA.BU. SRLS,ORTO,Roma,Via Giuseppe Gioacchino Belli,142,12.7171166,41.9584826,00193,Mo-Su,,
RAGU' SRL,ALICE PIZZA TAKE AWAY,Roma,Via Collatina,858,12.6610072,41.9156089,00132,Mo-Su,,
RAM DI LEO ANTONIO E C. SNC,BAR DANTE,Roma,Via Del Corso,259,12.4798279,41.9024271,00186,Mo-Su,,
RAM DI LEO ANTONIO E C. SNC,SOCIETA' RAM DI LEO ANTONIO E C. SNC,Roma,Via Ripetta,72,12.0984514,41.9985604,00186,Mo-Su,,
RAM SRL,VOICE,Roma,Piazza John Fitzgerald Kennedy,13/14,12.5996669,41.8049586,00144,Mo-Sa,,
RAMA SAS DI LEO MAURIZIO & C,ESPRESSAMENTE ILLY BAR,Roma,Viale Palmiro Togliatti,2,12.571520021216994,41.853063000000006,00173,Mo-Su,,
RAMI2016 SRLS,PIZZERIA TAVOLA CALDA,Roma,Viale Cesare Pavese,368/370,12.4744966,41.817393,00144,Mo-Su,,
RANIERI ILENIA,EAT AND GO,Roma,Viale Europa,325,12.4691938,41.8308093,00144,Mo-Fr,,
RARO SRL,FRESCO RISTORANTE PIZZERIA,Roma,Stazione Termini,185,,,00185,Mo-Su,,
RE SAPORE SRL,CHIU' SAPORE,Roma,Via Maputo,2,12.4449047,41.8218846,00144,Mo-Su,,
REAL PIZZA DI MARCO CRISTINA,REAL PIZZA,Roma,Via Alberto Einstein,16,12.4690645,41.8671955,00146,Mo-Su,,
REGINA MARGHERITA SRLS,ANTICA PASTICCERIA,Roma,Viale Regina Margherita,39/41,12.5053302,41.9140578,00198,Mo-Sa,,
REGINA SRL,M'BARUZZO,Roma,Piazza Regina Margherita,22,12.5053962,41.9137054,00198,Mo-Su,,
REMO FIERIMONTE,BAR,Roma,Via Giosuè Carducci,26/28/30,12.4941134,41.9062178,00187,Mo-Sa,,
REPPA SRL,BAIAMONTI DRINK & FOOD,Roma,Via Antonio Baiamonti,12,12.459963,41.9146559,00195,Mo-Fr,,
RESTAURANT SAKURA SUSHI SRL,SAKURA SUSHI RESTAURANT,Roma,Porta Pia,122/123,12.501775912526433,41.909606600000004,00187,Mo-Su,,
RICCA AVENTINO SRL,L'INSALATA RICCA,Roma,Piazza Albania,38445,12.4832867,41.8799551,00153,Mo-Su,,
RICCA CHIAVARI SRL,RISTORANTE INSALATA RICCA,Roma,Largo Dei Chiavari,85,12.4739196,41.8963426,00186,Mo-Su,,
RICCA GAZOMETRO SRL,INSALATA RICCA,Roma,Via Gazometro,62,12.4793879,41.8706693,00154,Mo-Su,,
RICCI SRLS,BINARIO 9 3/4,Roma,Via Cicerone,53,12.4687838,41.9071489,00193,Mo-Su,,
RIFRA SRL,TIKI BAR,Roma,Viale America,117-123,12.4694882,41.8293026,00144,Mo-Su,,
RINASCITA S A RLS,PAN BERNARDO,Roma,Piazza Di San Bernardo,112,,,00187,Mo-Sa,,
RISPARMIO PIU SRL,RISPARMIO PIU',Roma,Via Borghesiana,332,12.6719091,41.8742724,00132,Mo-Su,,
RISTO ITALIA SRL,I GABBIANI,Roma,Via Vito Volterra,41,12.4708126,41.8545109,00146,Mo-Su,,
RISTO ITALIA SRL,RISTO ITALIA SRL,Roma,Via R Bianchi Bandinelli,130,12.5867116,41.817653,00178,Mo-Su,,
RISTO ITALIA SRL,DON CARLOS,Roma,Piazza Barberini,52,12.4882437,41.9037182,00187,Mo-Su,,
RISTO1 SRLS,PASSIONE PANINO,Roma,Via Enrico Ferri,8,12.599349833988352,41.85117005,00173,Mo-Su,,
RISTO1 SRLS,PASSIONE PANINO,Roma,Viale Avignone,42,12.458412,41.8207394,00144,Mo-Su,,
RISTOCAFFE' SRL,RISTOCAFFE',Roma,Via Cicerone,68,12.4679324,41.9081547,00193,Mo-Sa,,
RISTOCENTER SRL,RISTOCENTER BAR TAVOLA CALDA,Roma,Via Zoe Fontana,220,12.606986256058027,41.92805025,00131,Mo-Fr,CENTRO DIREZIONALE TECNOCITTA' ZONA TIBURTINA,
RISTOFIRENZE SRLS,FEEL GOOD,Roma,Via Firenze,57,12.4944882,41.9016626,00184,Mo-Su,,
RISTOITALIA S.R.L.,L'ANTICA FRASCHETTA,Roma,Via Venezia,17,12.4929515,41.8999585,00184,Mo-Su,,
RISTORANTE JULIE'S  SAS DI CAO GIULIA XUE,RISTORANTE JULIE'S,Roma,Via Palestro,65,12.5069418,41.9027291,00185,Mo-Sa,,
RISTOSERVICE SRL,GRAN CAFFE' BONANNI,Roma,Viale Della Grande Muraglia,40/42/44,12.4556417,41.8227544,00144,Mo-Su,,
RO.MA. SAS DI MASSIMO MARCUCCI E C.,IL CHICCO MATTO,Roma,Via Cesena,16,12.5138242,41.8843468,00182,Mo-Sa,,
ROAZZI ADELMO,MARGHERITA CONAD,Roma,Via Augusto Dulceri,64/68,12.5342682,41.8849726,00176,Mo-Sa,,
ROBERTA CERULLI,BAR TABACCHI,Roma,Via Giosuè Carducci,14,12.4941134,41.9062178,00187,Mo-Sa,,
ROBLU SRL,RISTORANTE LA GRANDE BELLEZZA,Roma,Via Flavia,59,12.4967995,41.9068305,00187,Mo-Su,,
ROBY PIZZA SNC DI PALLADINI FRANCESCA & C.,ALICE PIZZA,Roma,Via Marche,21,12.4904417,41.9084253,00187,Mo-Sa,,
ROCCA SPA,SMA SUPERMERCATO,Roma,Via Trionfale,10104,12.4277732,41.9373887,00135,Mo-Su,,
ROCCA SPA,SUPERSTORE SMA SUPERMERCATO,Roma,Via Dei Laterani,39/41,12.5030898,41.884141,00184,Mo-Su,,
ROCCA SPA,SMA SUPERMERCATO,Roma,Circonvallazione Appia,190/200,12.5153411,41.875872,00179,Mo-Su,,
ROCCA SPA,SMA SUPERMERCATO,Roma,Viale Beethoven,48,12.4662665,41.832531,00144,Mo-Su,,
ROCCA SPA,SMA SUPERMERCATO,Roma,Piazza Santa Maria Maggiore,5/B,12.6976598,41.6743574,00185,Mo-Su,,
ROGER SERVICE SOC. COOP.,MAMMA PIZZA,Roma,Via Andrea Barbato,31,12.4013906,41.9305093,00168,Mo-Sa,C/C TORRESINA,
ROGER SERVICE SOC. COOP.,MAMMA PIZZA,Roma,Via Dei Castani,72,12.566727,41.8826474,00172,Mo-Sa,,
ROGER SERVICE SOC. COOP.,MAMMA PIZZA,Roma,Via Ravenna,32,12.51696,41.9132437,00161,Mo-Sa,,
ROGER SERVICE SOC. COOP.,MAMMA PIZZA,Roma,Via Borghesiana,253/259,12.6719091,41.8742724,00132,Mo-Sa,,
ROGER SERVICE SOC. COOP.,MAMMA PIZZA,Roma,Viale Palmiro Togliatti,1489/A,12.5707704,41.9125739,00155,Mo-Sa,,
ROGER SERVICE SOC. COOP.,MAMMA PIZZA,Roma,Via Biagio Petrocelli,240,12.6083329,41.8389711,00173,Mo-Sa,,
ROMA FOOD SRL,PANICUNZATO ROMA,Roma,Viale Dell'Oceano Pacifico,83,12.45950934721992,41.817101550000004,00144,Mo-Su,C.COM EUROMA 2,
ROMAMAGNA SNC,PIADINA E CRESCIONE,Roma,Via Venezia,20,12.4925682,41.9001838,00184,LUNEDI' POMERIGGIO,,
ROMANA SRL,FRATELLI LA BUFALA,Roma,Via Delle Vigne Nuove,SNC,12.5355308,41.9640846,00139,Mo-Su,C.C. PORTA DI ROMA,
ROMINA PASQUALONE,GRANGUSTO,Roma,Viale Europa,312,12.4691938,41.8308093,00144,Mo-Sa,,
RONCONI AMEDEO,CARNI AMEDEO E VALERIO,Roma,Via Orazio Dello Sbirro,SNC,12.276632,41.7331764,00121,Mo-Sa,MERCATO COPERTO BOX 11-12,
ROSATI G. SRL,BAR ROSATI,Roma,Via Sabotino,37,12.4585621,41.9173728,00195,Mo-Su,,
ROSI SRL,CARREFOUR EXPRESS,Roma,Via Capo Palinuro,43381,12.2864679,41.7359147,00122,Mo-Su,,
ROSMARINO AVEZZANA SRL,ROSMARINO AVEZZANA,Roma,Via Giuseppe Avezzana,17,12.466901,41.9160804,00195,Mo-Sa,,
ROSSETTI BROS SNC DI ALFONSO & PIETRO ROSSETTI,META',Roma,Via Olivi,54/56/58,,,00171,Mo-Su,,
ROYAL GOURMET SRL,TONY'S RESTURANT,Roma,Via Delle Botteghe Oscure,35,12.4800024,41.8949533,00186,Mo-Su,,
RUSCONI SRL,RUSCONI,Roma,Via Bernardino Alimena,91,12.5979496,41.8484832,00173,Mo-Sa,,
RUSSO GIUSEPPE,PIZZERIA RUSSO,Roma,Viale Carso,27,12.4591132,41.9190171,00195,Mo-Sa,,
S.A.E.D.A. SRL,CASTRONI BAR,Roma,Via Ottaviano,55,12.4577401,41.9078541,00192,Mo-Su,,
S.LLE OTTAVIANI,S.LLE OTTAVIANI BAR TC,Roma,Via Crescenzio,91/B,12.4659426,41.9055688,00193,Mo-Sa,,
S.S.C. SOCIETA' SVILUPPO COMMERCIALE SRL,CARREFOUR SUPERMERCATO,Roma,Viale Luigi Schiavonetti,420/426/432,,,00173,Mo-Su,,
S.S.C. SOCIETA' SVILUPPO COMMERCIALE SRL,CARREFOUR SUPERMERCATO,Roma,Via Dario Niccodemi,1,12.5493477,41.9567354,00137,Mo-Su,,
S.S.C. SOCIETA' SVILUPPO COMMERCIALE SRL,CARREFOUR IPERMERCATO,Roma,Via Enrico Ferri,43,12.6007787,41.8506228,00173,Mo-Su,CENTRO COM.LE LA ROMANINA,
SA.PE. SNC DI PELLE SPARTACO E C.,ER CAFFETTIERE,Roma,Via Urbana,72/73,12.4929144,41.8949856,00184,Mo-Sa,,
SA.TO. SRL,CARREFOUR EXPRESS,Roma,Via Carlo Tavolacci,1,12.4713944,41.8857044,00153,Mo-Su,,
SALAMA MOHAMED EID MOBARAK,CAFFE VALADIER,Roma,Via Ennio Quirino Visconti,38,12.4696771,41.9075874,00193,Mo-Sa,,
SALOTTO PORTESE SNC DI BELLITTI CATIA E FEDERICA MONTI,ROLLI 1,Roma,Via Ettore Rolli,1,12.4680609,41.8764799,00153,Mo-Sa,,
SALSAMENTERIA FABBI SAS,SALSAMENTERIA,Roma,Via Della Croce,27/28,12.4811328,41.9065249,00187,Mo-Sa,,
SALUMERIA IL CAPRICCIO DI MICOCCI PAOLO,SALUMERIA IL CAPRICCIO,Roma,Via Raffaele Cadorna,33,12.4985141,41.9085929,00187,Mo-Sa,,
SAMA SRL,NON SOLO CAFFE',Roma,Viale Antonio Ciamarra,108/110,12.5902893,41.8559673,00173,Tu-Su,,
SAN BASILIO 2016 SRL,PIM SUPERMERCATO,Roma,Via Casal Tidei,SNC,12.5782145,41.9417969,00156,Mo-Su,,
SANDRO SAS DI F CIABATTINI E C,FORNO CIABATTINI,Roma,Via Di S Croce In Gerusalemme,23,,,00185,Mo-Sa;Su afternoon,,
SANO E SALAD SNC DI FRANCESCO GALLO E DIEGO PARENTE,SANO E SALAD,Roma,Via Cesare Paoletti,28,12.5001516,41.9109151,00198,Mo-Sa,,
SANT' ELIA SRL,SIMPLY MARKET,Roma,Via Della Giustiniana,271,12.4705762,42.0079116,00188,Mo-Su,,
SANT' ELIA SRL,SIMPLY MARKET,Roma,Via Aldo Maria Scalise,SNC,12.4109189,41.9817885,00135,Mo-Su,ANGOLO VIA GHERARDI,
SANT' ELIA SRL,SIMPLY MARKET,Roma,Via Dei Monti Di San Paolo,51,12.357608,41.7905006,00126,Mo-Su,,
SANT' ELIA SRL,SIMPLY MARKET,Roma,Via Di Macchia Saponara,251,12.3646753,41.758617,00124,Mo-Su,,
SANT' ELIA SRL,SIMPLY MARKET,Roma,Via Tripoli,134,12.5251062,41.9287891,00199,Mo-Su,,
SANT' ELIA SRL,SIMPLY SUPERMERCATO,Roma,Via Antonio Sant'elia,13,12.484387,41.930954,00197,Mo-Su,,
SAPORE ROMANO 1 SRL,SAPORE ROMANO,Roma,Via Alessandria,150,12.5005346,41.9105957,00198,Mo-Su,,
SCACCHI VALTER,IL FORNETTO DI TRASTEVERE,Roma,Viale Trastevere,128,12.3944992,41.7826788,00153,Mo-Su,,
SCAGNOLI GESTIONI EVENTI SRL,CAFFE' GUAXUPE,Roma,Via Scipioni,197,12.457841,41.9084843,00192,Mo-Sa,,
SCALINGI VITTORIO,CAFFE RIT,Roma,Via Calabria,33,12.5607132,42.1186727,00187,Mo-Fr,,
SCARFO' MARTINO,LE SPECIALITA' DEL FORNO E DELLA TAVOLA,Roma,Via Stimigliano,43379,12.5122879,41.9346793,00199,Mo-Sa,,
SCOPELLITI ANTONIO,CAFFÈ DELL' ARCO,Roma,Viale Delle Milizie,88/89,12.4586561,41.9112751,00192,Mo-Su,,
SEDICIDICIOTTO SNC,SEDICIDICIOTTO RISTORANTE,Roma,Via Antoniotto Usodimare,16/18,12.4944923,41.8679824,00154,Mo-Sa,,
SEDICIDICIOTTO SNC,PICCHIAPO' PANINOTECA,Roma,Circonvallazione Ostiense,269,12.4934056,41.8673282,00154,Mo-Sa,,
SEMAR 3017 SRL,BAR DEI CONGRESSI,Roma,Viale Della Civilta Del Lavoro,126-128,12.4676864,41.8361219,00144,Mo-Sa,,
SEME LUC SNC DI LUCIGNANO MANILA & C,GUSTO DI PIZZA,Roma,Via Quintino Sella,47,12.4957291,41.9076898,00187,Mo-Fr,,
SERENISSIMA RISTORAZIONE SPA,MENSA PRESSO AGENZIA DELLE ENTRATE DI ROMA,Roma,Via Giorgione,159,12.4931693,41.8504131,00147,Mo-Su,,
SERENISSIMA RISTORAZIONE SPA,MENSA PRESSO AGENZIA DELLE ENTRATE DI ROMA,Roma,Via Cristoforo Colombo,426,12.4867546,41.8522768,00145,Mo-Su,,
SERENISSIMA RISTORAZIONE SPA,VICARIATO MENSA,Roma,Via Della Pigna,13/A,12.4782337,41.8970492,00186,Mo-Su,PALAZZO VICARIATO MENSA 1 PIANO,
SERENISSIMA RISTORAZIONE SPA,BAR INTERNO OSPEDALE S. GIOVANNI ADDOLORATA,Roma,Via Dell'Amba Aradam,SNC,12.5014101,41.8845867,00184,Mo-Su,OSPEDALE S. GIOVANNI ADDOLORATA,
SERIST SRL,ENAV SALARIA,Roma,Via Salaria,716,12.50759026139928,41.944762749999995,00138,Mo-Su,,
SERIST SRL,GEDI ROMA,Roma,Via Cristoforo Colombo,90,12.495978,41.8664298,00147,Mo-Su,,
SESAMO GROUP SRLS,SESAMO PIZZA E CUCINA,Roma,Viale Di Trastevere,83,12.4720747,41.886744,00153,Mo-Su,,
SGM SUPERMERCATI SRL,IPERTRISCOUNT SUPERMERCATO,Roma,Via Salaria,1380,12.5181836,41.9996703,00138,Mo-Su,,
SIDEROS SRL,CONAD MARGHERITA,Roma,Via Carmelo Maestrini,251/259,12.4422913,41.7975584,00128,Mo-Su,,
SIDEROS SRL,CONAD CITY SUPERMERCATO,Roma,Via Rosa Guarnieri Carducci,29,12.490796634618171,41.857002949999995,00145,Mo-Su,,
SILMAR SRL,ORANGE CAFE',Roma,Via Garigliano,15,12.5009902,41.9198334,00198,Mo-Sa,,
SIRIO DUE SRL,IL FIAMMIFERO STRANO,Roma,Via Lombardia,32,12.4874906,41.907668,00187,Mo-Sa,,
SIRIO SPA,BAR INTERNO POLICLINICO TOR VERGATTO TORRE 6,Roma,Viale Oxford,81,12.6303302,41.8581846,00133,Mo-Su,,
SIRIO SPA,BAR INTERNO  OSPEDALE SANT'ANDREA,Roma,Via Di Grottarossa,1035/39,12.4486529,41.9728228,00189,Mo-Su,,
SIRIO SPA,INTERNO POLICLINICO TOR VERGATA PIASTRA BAR,Roma,Viale Oxford,81,12.6303302,41.8581846,00133,Mo-Su,,
SIRIO SPA,BAR INTERNO OSPEDALE SAN FILIPPO NERI EDIFICIO A,Roma,Via Giovanni Martinotti,20,12.4160664,41.9465418,00135,Mo-Su,,
SIT SUPERMERCATI SRL,IPERTRISCOUNT SUPERMERCATO,Roma,Via Di Portonaccio,72,12.5361119,41.902142,00159,Mo-Su,"ANG VIA DOMENICO DE DOMINICIS, 38/A",
SMA SPA,PUNTO SMA SUPERMERCATO,Roma,Via Corsica,13,12.5090945,41.9191576,00198,Mo-Su,,
SMA SPA,SIMPLY SUPERMERCATO,Roma,Via Portuense,97,12.4682308,41.8773782,00153,Mo-Su,,
SMA SPA,SIMPLY SUPERMERCATO,Roma,Via Delle Gondole,SNC,12.2776772,41.7350197,00121,Mo-Su,,
SMA SPA,SMA SUPERMERCATO,Roma,Via Luigi Zambarelli,31,12.4460294,41.8775058,00152,Mo-Su,,
SMA SPA,PUNTO SMA SUPERMERCATO,Roma,Via Dei Platani,175,12.5702159,41.8809592,00172,Mo-Su,,
SMA SPA,PUNTO SMA SUPERMERCATO,Roma,Via Cassia,713,12.4265864,41.9746287,00189,Mo-Su,,
SMA SPA,SMA SUPERMERCATO,Roma,Via Roberto Malatesta,221/237,,,00176,Mo-Su,,
SMA SPA,SIMPLY SUPERMERCATO,Roma,Via Torre Di Mezzavia,101,12.5954084,41.8384027,00173,Mo-Su,,
SMA SPA,PUNTO SMA SUPERMERCATO,Roma,Via Cassia,1822,12.3727745,42.0579159,00123,Mo-Su,,
SMA SPA,SIMPLY SUPERMERCATO,Roma,Via Ponzio Cominio,19,12.55745,41.8603188,00175,Mo-Su,,
SMA SPA,SIMPLY SUPERMERCATO,Roma,Via Biagio Petrocelli,SNC,12.6083329,41.8389711,00173,Mo-Su,,
SMA SPA,SMA SUPERMERCATO,Roma,Via Cesare Ferrero Da Cambiano,82,12.4682197,41.9482811,00191,Mo-Su,,
SMA SPA,SIMPLY SMA SUPERMERCATO,Roma,Via Costanzo Casana,200,12.2681668,41.7387204,00121,Mo-Su,,
SMA SPA,SIMPLY SUPERMERCATO,Roma,Via Acerenza,4/D,12.5522421,41.8418059,00178,Mo-Su,,
SMA SPA,PUNTO SMA SUPERMERCATO,Roma,Via Cassia,865,12.4265864,41.9746287,00189,Mo-Su,,
SMA SPA,SIMPLY SUPERMERCATO,Roma,Piazza Giureconsulti,5,12.4257266,41.9019434,00167,Mo-Su,,
SMA SPA,PUNTO SMA SUPERMERCATO,Roma,Piazza Dei Re Di Roma,15/19,12.5134501,41.881323,00183,Mo-Su,,
SMA SPA,SIMPLY SUPERMERCATO,Roma,Viale Della Primavera,194,12.56021802263739,41.88211365,00172,Mo-Su,,
SMA SPA,PUNTO SMA SUPERMERCATO,Roma,Viale Della Serenissima,16,12.5585646,41.8967934,00177,Mo-Su,,
SMA SPA,PUNTO SMA SUPERMERCATO,Roma,Via Fonteiana,59/73,12.4546502,41.8816509,00152,Mo-Su,,
SMA SPA,SIMPLY SUPERMERCATO,Roma,Via Saponara,220,12.6512153,41.7456533,00125,Mo-Su,,
SMA SPA,PUNTO SMA SUPERMERCATO,Roma,Via Portuense,323,12.4467389,41.8569599,00149,Mo-Su,,
SMA SPA,PUNTO SMA SUPERMERCATO,Roma,C.Ne Gianicolense,SNC,12.452100694422759,41.87667527285082,00152,Mo-Su,,
SMA SPA,MY AUCHAN,Roma,Viale Delle Provincie,156,12.5209455,41.9116299,00162,Mo-Su,,
SMA SPA,PUNTO SMA,Roma,Via Rubicone,39,12.5009902,41.9198334,00198,Mo-Su,,
SMA SPA,PUNTO SMA SUPERMERCATO,Roma,Via Archimede,61,12.4801997,41.9246581,00197,Mo-Su,,
SMA SPA,SIMPLY SUPERMERCATO,Roma,Viale Caduti Per La Resistenza,271,,,00128,Mo-Su,,
SMA SPA,SMA SUPERMERCATO,Roma,Via Due Ponti,190,,,00189,Mo-Su,,
SMA SPA,SIMPLY SUPERMERCATO,Roma,Viale Guglielmo Marconi,176/178,12.4707132,41.8587925,00146,Mo-Su,,
SMA SPA,SIMPLY SUPERMERCATO,Roma,Via Fiume Giallo,43770,12.4283293,41.8109761,00144,Mo-Su,,
SMA SPA,IPERSIMPLY SRUPERMERCATO,Roma,Via Antonio Pacinotti,10,12.4686426,41.8706474,00146,Mo-Su,,
SMA SPA,PUNTO SMA SUPERMERCATO,Roma,Via Di Priscilla,109,12.5093509,41.9299917,00199,Mo-Su,,
SMA SPA,SIMPLY SUPERMERCATO,Roma,Via Amico Aspertini,SNC,12.6265544,41.876473,00133,Mo-Su,,
SMA SPA,PUNTO SMA SUPERMERCATO,Roma,Via Orlando De Tommaso,39,12.4412264,41.9198953,00136,Mo-Su,,
SMA SPA,PUNTO SMA SUPERMERCATO,Roma,Viale Giuseppe Mazzini,153,12.4566886,41.9157881,00195,Mo-Su,,
SMA SPA,SIMPLY SUPERMERCATO,Roma,Via Isole Del Capo Verde,SNC,12.2727971,41.7376548,00121,Mo-Su,,
SMA SPA,PUNTO SMA SUPERMERCATO,Roma,Piazza Bologna,60,12.521327,41.9144018,00162,Mo-Su,,
SMA SPA,PUNTO SMA SUPERMERCATO,Roma,Piazza Pio Xi,20,12.4373365,41.8940832,00165,Mo-Su,,
SMA SPA,SIMPLY SUPERMERCATO,Roma,Via Delle Cave,99/A,12.5323744,41.8717299,00181,Mo-Su,,
SMA SPA,SIMPLY SUPERMERCATO,Roma,Via Anagnina,471,12.6332776,41.805936,00118,Mo-Su,,
SMA SPA,SMA  SUPERMERCATO,Roma,Piazza Minucciano,20,12.514166,41.9529838,00139,Mo-Su,,
SMART SNC DI DARIA ELENA FUA' E MASSIMO CANNATA,SMARTFOOD,Roma,Via Di Piè Di Marmo,19/20,,,00186,Mo-Sa,,
SMILE PIZZA SRLS,SMILE PIZZA,Roma,Viale Oceano Indiano,83,12.4976804,41.6315189,00144,Mo-Su,,
SNACK BAR DI SILIPO DAMIANO,SNACK BAR,Roma,Via La Spezia,30/A,12.5144548,41.8861993,00182,Mo-Sa,,
SOC. SONNINO 91 SRL,QUELLI DI PIAZZA SONNINO,Roma,Piazza Sidney Sonnino,23,12.4740098,41.8894789,00153,Mo-Sa,,
SODIFO SRL,SODIFO,Roma,Largo Esopo,46,12.3465635,41.7445959,00124,Mo-Su,,
SORRISO SRL,GECO,Roma,Piazza Guglielmo Marconi,23,12.4705265,41.8335959,00144,Mo-Su,,
SOUND FOOD SRLS,SOUND FOOD BAR,Roma,Piazza Eugenio Biffi,43445,12.4903439,41.8665227,00154,Mo-Su,,
SOUPER SRL,BIS,Roma,Via Giovanni Vitelleschi,38/40,12.4614851,41.9047693,00193,Mo-Fr,,
SPACE CAFFE' SRL,CAFFETTERIA GUIDO,Roma,Via Pellegrino Matteucci,58/60,12.4834289,41.8718215,00154,Mo-Su,,
SPAM SRL,CARREFOUR MARKET,Roma,Via Di Valle Muricana,576,12.4786582,42.0096454,00188,Mo-Su,,
SPC SRL,SUPERMERCATO PAM,Roma,Piazza Della Balduina,48,12.4417651,41.919488,00136,Mo-Su,,
SPESA FACILE SRL,RISPARMIO PIU',Roma,Via Benozzo Gozzoli,60,12.490366440195256,41.8344348,00142,Mo-Sa;Su afternoon,,
SPESA FACILE SRL,SPESA FACILE SUPERMERCATO,Roma,Via Tor Dè Schiavi,394,12.5608725,41.8894246,00171,Mo-Su,,
SPLENDORI CLAUDIO,QUELLI DI VIA NIZZA,Roma,Via Nizza,16,12.5002095,41.912433,00198,Mo-Su,,
SQUARCIA ALESSANDRO,MACELLLERIA SQUARCIA,Roma,Via Delle Sette Chiese,18,12.4897412,41.8606313,00145,Mo-Sa,,
STAR FOOD 2017 SRLS,STAR FOOD,Roma,Via Andrea Meldola,87/91,12.507107,41.823513,00143,Mo-Fr,,
START SNC,SPACCIO ALIMENTARE,Roma,Viale Giorgio Ribotta,5,12.4587433,41.8202225,00144,Mo-Fr,,
STEMAR SRL,CONAD SUPERMERCATO,Roma,Via Di Grottarossa,169,12.4486529,41.9728228,00189,Mo-Su,,
STRAPIZZAMI SRL,STRAPPIZZAMI,Roma,Via Quintino Sella,19/21,12.4957291,41.9076898,00187,Mo-Fr,,
STRISCIA LA PIZZA SNC,STRISCIA LA PIZZA,Roma,Via Milano,33,12.4896048,41.8994339,00184,Mo-Su,,
SVESS SRL,GRAN CAFFE' SALERNO,Roma,Via Delle Fiamme Gialle,31,12.2916446,41.7342715,00122,Mo-Su,,
T.R.M. GESTIONI SRL,RECAFE',Roma,Piazza Imperatore Augusto,36,12.495508895454545,41.6652019,00186,Mo-Su,,
TACCO SRL,BAR TACCO,Roma,Viale Dello Scalo San Lorenzo,23,12.5161977,41.8936804,00185,Mo-Sa,,
TALENTI SRL,CONAD,Roma,Via Ugo Ojetti,SNC,12.5523297,41.9447107,00137,Mo-Sa,,
TALIANI SRL,BAR TALIANI,Roma,Via Genova,26/28,12.4917373,41.8996304,00184,Mo-Su,,
TARALLO MARCO,BAR BRAZIL,Roma,Via Rodolfo Lanciani,23,12.5206207,41.9210644,00162,Mo-Sa,,
TAVERNA RISORGIMENTO SNC,L' INSALATA RICCA,Roma,Piazza Risorgimento,43223,12.098743984475838,41.998282450000005,00192,Mo-Su,,
TAVERNA ROSSINI SRL,TAVERNA ROSSINI,Roma,Viale Gioacchino Rossini,60,11.7845993,42.1385467,00198,Mo-Su,,
T-BONE 8 SRL,T-BURGER STATION,Roma,Piazza Istria,16,12.5124568,41.9229412,00198,Mo-Su,,
T-BONE 8 SRL,T-BURGER STATION,Roma,Via Appia Nuova,336,12.5216068,41.8757387,00181,Mo-Su,,
T-BONE 8 SRL,T-BURGER STATION,Roma,Via Della Palombella,34/35,12.4765215,41.8981889,00186,Mo-Su,,
T-BONE SRL,T-BONE STATION TB1,Roma,Via Francesco Crispi,25/31,12.4859016,41.9046819,00187,Mo-Su,,
T-BONE SRL,T-BONE STATION TB2,Roma,Via Flaminia,525,12.4848125,41.9509198,00191,Mo-Su,,
T-BONE SRL,T-BONE STATION TB3,Roma,Via Di Santa Dorotea,21,12.4682193,41.8920152,00153,Mo-Su,,
T-BONE SRL,T-BONE STATION TB6,Roma,Via Vittoria Colonna,21,12.826338,41.732155,00193,Mo-Su,,
TESTA IVANO,DROGHERIA,Roma,Via Luciano Manara,61,12.4703803,41.8879394,00153,Mo-Sa,,
TESTA SRL,HAM HOLY BURGER,Roma,Via Chiana,54/60,12.5042443,41.9220737,00198,Mo-Su,,
TIBA ANTONELA,AMERICAN BAR,Roma,Via Emilia,52/54,12.4884049,41.907899,00187,Mo-Su,,
TIELLA E PANZEROTTI SRLS,TIELLA E PANZEROTTI,Roma,Via Carlo Citerni,15,12.4931446,41.8679018,00154,Mo-Sa,,
TIRRENO INSIEME SRL,CONAD CITY,Roma,Via Angelo Emo,37,12.4476279,41.904995,00136,Mo-Su,,
TIRRENO INSIEME SRL,CONAD,Roma,Piazza Ottaviano Vimercati,55,12.5241434,41.9581144,00139,Mo-Su,,
TIRRENO INSIEME SRL,CONAD,Roma,Via Matera,5,12.5179759,41.8831013,00182,Mo-Su,,
TIRRENO INSIEME SRL,CONAD CITY,Roma,Via Sebastiano Ziani,41974,,,00136,Mo-Su,,
TIRRENO INSIEME SRL,SUPERSTORE,Roma,Via Tito,15,12.4869757,41.8544841,00145,Mo-Su,,
TIRRENO INSIEME SRL,CONAD CITY,Roma,Via Migiurtinia,55,12.5218511,41.9302901,00199,Mo-Su,,
TIRRENO INSIEME SRL,CONAD,Roma,Via Giuseppe Belardinelli,SNC,12.3797625,42.0193727,00123,Mo-Su,,
TIRRENO INSIEME SRL,CONAD,Roma,Viale Somalia,275,12.5124388,41.9355515,00199,Mo-Su,,
TIRRENO INSIEME SRL,CONAD,Roma,Via Ostiense,361,12.4774525,41.85356,00146,Mo-Su,,
TIRRENO INSIEME SRL,CONAD,Roma,Via Di Castel Di Leva,SNC,12.5220245,41.7850642,00134,Mo-Su,,
TIRRENO INSIEME SRL,SUPERSTORE,Roma,Via Arola,55,12.3824549,41.9310729,00166,Mo-Su,,
TIRRENO INSIEME SRL,CONAD CITY,Roma,Piazza Dell'Indipendenza,28,12.50247900915856,41.90436605,00185,Mo-Su,,
TIRRENO INSIEME SRL,CONAD CITY,Roma,Via Dei Liguri,43709,12.517184,41.8954173,00185,Mo-Su,,
TIRRENO INSIEME SRL,SUPERSTORE,Roma,Via Dei Sampieri,SNC,12.4160896,41.85215,00148,Mo-Su,,
TIRRENO INSIEME SRL,SAPORI E DINTORNI,Roma,Piazza Dei Cinquecento,SNC,12.4999429,41.900755,00185,Mo-Su,STAZIONE TERMINI,
TIRRENO INSIEME SRL,CONAD,Roma,Via Buonarroti,8B-14A,12.5019323,41.8932491,00185,Mo-Su,,
TIRRENO INSIEME SRL,CONAD,Roma,Viale Kant,289,12.553287000000001,41.93570735,00156,Mo-Su,,
TIRRENO INSIEME SRL,CONAD,Roma,Viale Di Trastevere,62/65,12.4720747,41.886744,00153,Mo-Su,,
TOM SRL,TIME OUT FOOD E CLUB,Roma,Via Cristoforo Colombo,112,12.4945725,41.8571439,00147,Mo-Sa,,
TOMEI'S CAFE SRL,GRAN CAFE VISCONTI,Roma,Via Ennio Quirino Visconti,71,12.4696771,41.9075874,00193,Mo-Sa,,
TOPA SNC DI TOPA DANIELE E PIETRO,CIBARE,Roma,Via Taranto,144,12.517281,41.8840145,00182,Mo-Sa,,
TORRE ANGELA CARNI SRL,IPERCARNI,Roma,Via Del Torraccio Di Torrenova,222,12.6278951,41.8666194,00133,Mo-Su,,
TORREFAZIONE ADRIATICA DEI F.LLI BERTINI SNC,TORREFAZIONE ADRIATICA,Roma,Viale Adriatico,1/C/F,12.536697,41.9420685,00141,Mo-Sa,,
TORTORA SALVATORE E FIGLI SNC,TORTORA BAR,Roma,Via Guido D'arezzo,17/25/29,12.4942049,41.9202543,00198,Mo-Sa,,
TORTORA SALVATORE E FIGLI SNC,RISTORANTE TORTORA,Roma,Via Guido D'arezzo,25,12.4942049,41.9202543,00198,Mo-Fr,,
TOYA 1 SRLS,GU GRAN CAFFE BAR,Roma,Via Portuense,96,12.467625,41.8773107,00153,Mo-Su,,
TOZZI EMANUELA,NICE PIZZA,Roma,Via Laurentina,623,12.4850172,41.8144018,00143,Tu-Su,,
TRASTEVERE MARKET SRL,CONAD MARKET,Roma,Viale Di Trastevere,62/64,12.4720747,41.886744,00153,Mo-Su,,
TRATTORIA DA SILVAN SRLS,TRATTORIA DA SILVAN,Roma,Largo Eduardo Talamo,6,12.5167571,41.8946976,00185,Mo-Su,,
TRE EFFE 94 SRL,LE BON BOULANGER,Roma,Via Collalto Sabino,25,12.5174002,41.9310987,00199,We-Mo,,
TRENTINO SNC,TRENTINO,Roma,Via Giuseppe Sacconi,23/25,12.4667269,41.9308738,00196,Mo-Sa,,
TREPPI' SRL,TRE P GASTRONOMIA,Roma,Via Montebello,39,12.4999646,41.90539,00185,Mo-Sa,,
TRISP SRL,SPACE PIZZA,Roma,Via Carlo Citerni,18,12.4931446,41.8679018,00154,Mo-Sa,,
TURCHETTI CLAUDIO,ALIMENTARI TURCHETTI,Roma,Via Casilina,1840,12.6637961,41.8643865,00132,Mo-Sa,,
TUSCOGEST SRL,CONAD SUPERMERCATO,Roma,Via Tuscolana,881,12.5498634,41.8634222,00174,Mo-Su,,
TUSCOGEST SRL,CONAD,Roma,Piazza Vittorio Bottego,47,12.4782958,41.8744585,00154,Mo-Su,,
U.GIULIANI SRL,CAFFE PASTICCERIA GIULIANI,Roma,Via Volturno,60,12.425598,41.6551496,00185,Mo-Su,,
UN ANGOLO DI SICILIA SNC,L'ANGOLO DI SICILIA,Roma,Via Dardanelli,19,12.4571501,41.9177748,00195,Mo-Sa,,
UNICO SRL,IPER TRISCOUNT SUPERMERCATO,Roma,Via Don Primo Mazzolari,181,12.670297,41.9000359,00132,Mo-Su,,
UNIVERSITA DELLA PIZZA SRLS,UNIVERSITA DELLA PIZZA,Roma,Piazza Antonio Mancini,1,12.4641365,41.9305939,00196,Mo-Sa,,
UNO PUNTO ZERO SRL,UNO PUNTO ZERO,Roma,Via Quintino Sella,34,12.4957291,41.9076898,00187,Mo-Fr,,
VALE JULIA SNC DI RICCUCCI V E C.,ALICE PIZZA,Roma,Via Di San Basilio,56,12.4899708,41.9051604,00187,Mo-Sa,,
VALERIA RELLA,MORDI E FUGGI PIZZERIA,Roma,Viale Paolo Orlando,21,12.2883699,41.7300756,00122,Mo-Su,,
VALMUR SAS DI TURLI LOREDANA,DANY'S BAR,Roma,Viale Europa,123/125,12.466426,41.8318327,00144,Mo-Sa,,
VANNI SRL,VANNI,Roma,Via Col Di Lana,10,12.463406,41.9174907,00195,Mo-Su,,
VELTRI ANTONIO,PIZZERIA,Roma,Via Casilina,489,12.5422337,41.8802089,00177,Mo-Sa,,
VEO SRL,CAFFE' TERME,Roma,Via Vittorio Emanuele Orlando,82,12.4957243,41.9031408,00185,Mo-Su,,
VEROLI SRL,PUNTO SIMPLY,Roma,Via Veroli,25,12.5589645,41.891751,00171,Mo-Sa,,
VISTA MARE SRL,OSTERIA MARE,Roma,Viale Regina Margherita,225,12.5053302,41.9140578,00198,Tu-Su,,
VITIELLO CIRO,PIZZA HOUSE,Roma,Via Franco Mezzadra,81/83,12.2700365,41.7343999,00121,We-Mo,,
VITTORIA SRL,TATA' RISTORANTE PIZZERIA,Roma,Piazza Guglielmo Marconi,11,12.4705265,41.8335959,00144,Mo-Su,,
VITTUCCI FABRIZIO SAS,RISTORANTE DA GIOVANNI DAL 1948,Roma,Via Antonio Salandra,1,12.4955028,41.9058332,00187,Mo-Sa,,
VIVENDA SPA,VIVENDA,Roma,Via Columbia,1,12.620885756285112,41.8525221,00133,Mo-Su,INTERNO AL POLO UNIVERSITARIO LETTERE E FILOSOFIA,
VIVENDA SPA,INVITALIA,Roma,Via Pietro Boccanelli,11293,12.5038261,41.9437276,00138,Mo-Fr,,
VIZI E SFIZI SAS DI CERINI D. &  C.,VIZI E SFIZI,Roma,Via Carlo Del Greco,40/4,12.2904375,41.7335514,00122,MERCOLEDI',Th-Tu,
VM SUPERMERCATI SRL,PAM LOCAL,Roma,Via Emanuele Filiberto,180A/B/C,,,00185,Mo-Su,,
VOY CORPORATION SRL,VERO FOOD AND SMILES,Roma,Via Marcantonio Colonna,30,12.4671275,41.9094875,00192,Mo-Su,,
WILLY BAR SRL,WILLY BAR,Roma,Via Cesare Pascarella,50,12.4673869,41.8766864,00153,Mo-Su,,
YACOPO QUARCHIONI,YO,Roma,Via Giosuè Carducci,24,12.4930477,41.9058458,00187,Mo-Fr,,
Z E J HEALTHY CAFFE DI ZHOU YIFAN SAS,NEAPOLIS CAFFE,Roma,Via Agostino Depretis,71/74,12.4962251,41.8988616,00184,Mo-Sa,,
ZEROCENTO CAFE' SRL,ZEROCENTO CAFE,Roma,Viale Dell'Arte,20,12.4755924,41.8319658,00144,Mo-Su,,
ZIETTO17 SRLS,M'ARRICRIAI TIPICO SICILIANO,Roma,Via Silvio Pellico,22,12.4599877,41.9127526,00195,Mo-Su,,
