lat,lon,name,email,ref:vatin,website,postcode,addr
43.5804949,13.1661271,Belvedere Ostrense,segreteria.belvedere@emarche.it,IT00185520426,https://www.comune.belvedere.an.it,60030,Corso Barchiesi Vittorio N. 22
43.4455544,13.1155997,Cupramontana,comune.cupramontana@emarche.it,IT00208390427,https://www.comune.cupramontana.an.it,60034,"Via Nazario Sauro, 1"
43.4296550,12.9349650,Genga,sindaco@pec.comunedigenga.it,IT00196710420,https://www.comunedigenga.it,60040,Viale Corridoni Snc
43.4326550,12.8572630,Sassoferrato,,,,,
43.5781353,13.3527346,Camerata Picena,,,,,
43.4867580,13.1446680,Castelbellino,comune.castelbellino@emarche.it,IT82002250429,https://www.comune.castelbellino.an.it,60030,Piazza San Marco N. 15
43.6388630,13.3074700,Montemarciano,protocollo@cert.comune.montemarciano.ancona.it,IT00161090428,https://www.comune.montemarciano.ancona.it,60018,"Via Umberto I, 20"
43.5111580,13.0736670,Poggio San Marcello,comune.poggiosanmarcello@pec.it,IT00366480424,https://www.comune.poggiosanmarcello.an.it,60030,Piazza Del Comune 3
43.5255610,13.3920730,Polverigi,comune.polverigi@pec.it,IT00168450427,https://www.comune.polverigi.an.it/,60020,Piazza Umberto I  N.15
43.4545580,13.1727700,San Paolo di Jesi,protocollo@pec.comunesanpaolodijesi.it,IT82002630422,https://www.comunesanpaolodijesi.it,60038,"Piazzale Domenico Ricci, 1"
42.9449356,13.8151143,Acquaviva Picena,protocollo@pec.comuneacquavivapicena.it,IT00376660445,https://www.comuneacquavivapicena.it,63075,Via San Rocco n.9
43.1092251,13.7998781,Altidona,sindaco@pec.altidona.net,IT81000890442,https://www.altidona.net,63824,"Largo Municipale, 1"
43.0193790,13.4960348,Santa Vittoria in Matenano,comunesvittoria@pec.it,IT00330500448,https://www.svittoria.it,63854,Corso Matteotti 13
42.8980866,13.7280424,Castorano,protocollo@pec.comune.castorano.ap.it,IT80003750447,https://www.comune.castorano.ap.it,63081,"Piazza Padre Carlo Orazi, 3"
42.9393500,13.6239870,Castignano,comunecastignano.ap@pec.it,IT00358540441,https://www.comune.castignano.ap.it,63072,Via Margherita 25
42.9898510,13.6091860,Montalto delle Marche,com.montalto.ap@emarche.it,IT80000490443,https://www.comune.montaltodellemarche.ap.it,63068,"Piazza Umberto I, 2"
43.1873550,13.5406820,Francavilla d'Ete,pecomune.francavilladete@emarche.it,IT81001090448,https://www.comunefrancavilladete.it,63816,"Piazza Vittorio Emanuele, 34"
43.0855540,13.7309880,Moresco,,,,,
43.0991640,13.8407771,Pedaso,protocollo@pec.comunedipedaso.it,IT81001950443,https://www.comunedipedaso.it,63827,Piazza Roma N. 6
43.1322530,13.5363830,Montegiorgio,comune.montegiorgio@emarche.it,IT81002030443,https://www.comune.montegiorgio.fm.it,63833,"Piazza Matteotti, 33"
42.8991551,13.3268587,Montemonaco,comunemontemonaco.protocollo@pec.it,IT00357080449,,63088,Piazza Risorgimento N. 5
43.0500664,13.6310024,Monte Vidon Combatte,,,,,
43.0051500,13.4449820,Smerillo,comune.smerillo@emarche.it,IT80000970444,https://www.comune.smerillo.fm.it,63856,"Via Dante Alighieri, 14"
43.1828550,13.6127840,Torre San Patrizio,comune.torresanpatrizio@postcert.it,IT00377160445,https://www.comune.torresanpatrizio.fm.it,63814,Piazza Umberto I N. 1
43.1612526,13.5929049,Rapagnano,comune.rapagnano@pec.it,IT00358210441,comune.rapagnano.fm.it,63831,P.zza Siccone 3
43.0320520,13.6849870,Carassai,protocollo@pec.comune.carassai.ap.it,IT82001930443,https://www.comune.carassai.ap.it,63063,"Piazza Matteotti, 7"
43.0914408,13.5396519,Belmonte Piceno,comune.belmontepiceno@pec.it,IT81001490440,https://www.comunebelmontepiceno.it,63838,"Piazza Giacomo Leopardi, 6"
43.1497719,13.4754066,Massa Fermana,protocollo.massafermana@pec.it,IT00380940445,https://www.comunemassafermana.it,63834,"Via Garibaldi, 60"
42.9632573,13.4909482,Force,segreteria@pec.comune.force.ap.it,IT80000330441,https://www.comune.force.ap.it,63086,Piazza V.Emanuele II N.2
43.0479035,13.5285340,Monteleone di Fermo,monteleonedifermo@pec.it,IT81001850445,https://www.halleyweb.com/c044042/hh/index.php?jvs=0&acc=1&jv,63841,"Via Garibaldi, 9"
42.9430952,13.3448312,Montefortino,comune.montefortino@emarche.it,IT00400660445,https://www.tecuting.it/c044037,63858,Via Roma 21
43.2325226,13.6315802,Montegranaro,,,,,
42.9707330,13.5873048,Montedinove,comune.montedinove@emarche.it,IT00360220446,comune.montedinove.ap.it,63069,"Via Roma, 2"
43.0518954,13.7527903,Montefiore dell'Aso,segreteriamfa@emarche.it,IT00291360444,https://www.comune.montefioredellaso.ap.it,63062,"Piazza Della Repubblica, 2"
43.0677520,13.5556840,Monsampietro Morico,comune@pec.monsampietromorico.net,IT81001450444,https://www.tecuting.it/c044030/hh/index.php,63842,"Via Umberto I, N. 33"
43.0300520,13.6059860,Ortezzano,,,,,
43.1206530,13.4875820,Monte Vidon Corrado,certificata@pec.comune.montevidoncorrado.fm.it,IT81001330448,https://www.comune.montevidoncorrado.fm.it,63836,Piazza Osvaldo Licini N. 7
43.1893550,13.5753830,Monte San Pietrangeli,comune.montesanpietrangeli@emarche.it,IT81001270446,https://www.comune.montesanpietrangeli.fm.it,63815,"Piazza Umberto I, 1"
43.0847540,13.7198870,Monterubbiano,monterubbiano@pec.ucvaldaso.it,IT00357030444,https://www.comune.monterubbiano.fm.it,63825,"Via Trento E Trieste, 1"
43.0282598,13.5801546,Monte Rinaldo,,,,,
43.0569146,13.4254525,Penna San Giovanni,pennasangiovanni@pec.it,IT83002570436,https://www.comune.pennasangiovanni.mc.it,62020,"Piazza Del Municipio, 2"
43.0817007,13.0429675,Muccia,protocollo@pec.comune.muccia.mc.it,IT00263210437,https://www.comune.muccia.mc.it,62034,Via Roma 5
43.1874500,12.9321680,Fiuminata,comune.fiuminata.mc@legalmail.it,IT00266030436,https://www.comune.fiuminata.mc.it,62025,"Via Roma, 30"
42.9944324,13.0010217,Monte Cavallo,comune.montecavallo@pec.it,IT81000130435,https://www.comune.montecavallo.mc.it,62036,Via Roma N. 19
43.3922565,13.1311567,Apiro,comune.apiro.mc@legalmail.it,IT00311510432,https://www.apiro.sinp.net,62021,"Piazza Baldini, 1"
43.1625520,13.2453760,Belforte del Chienti,,,,,
43.0716751,12.9523861,Serravalle di Chienti,comune.serravalledichienti.mc@legalmail.it,IT81000480434,https://www.comune.serravalledichienti.mc.it,62038,"Corso Giacomo Leopardi, 77"
42.9940565,13.2277694,Bolognola,,,,,
43.1385337,13.2248354,Caldarola,comune.caldarola.mc@legalmail.it,IT00217240431,https://www.comune.caldarola.mc.it,62020,"Piazza Vittorio Emanuele, 13"
42.8944925,13.1539297,Castelsantangelo sul Nera,protocollo@pec.comune.castelsantangelosulnera.mc.it,IT00242630432,http://www.comune.castelsantangelosulnera.mc.it/,62039,"Piazza S. Spirito,1"
43.1087889,13.2580261,Cessapalombo,comune.cessapalombo.mc@legalmail.it,IT00242710432,https://www.comune.cessapalombo.mc.it,62020,"Via Mazzini,3"
43.0432872,13.0489107,Pieve Torina,comune.pievetorina.mc@legalmail.it,IT81000190439,https://www.comune.pievetorina.mc.it,62036,"Via Roma, 126"
43.3751550,13.0790690,Poggio San Vicino,comune.poggiosanvicino@emarche.it,IT00312750433,https://www.comune.poggiosanvicino.mc.it,62021,Via Del Comune n.2
43.1084806,13.3187335,San Ginesio,protocollo@pec.comune.sanginesio.mc.it,IT00215270430,https://www.comune.sanginesio.mc.it,62026,"Via Capocastello, N.35"
43.1472457,12.9486299,Sefro,comune.sefro.anagrafe@emarche.it,IT00210940433,https://www.comune.sefro.mc.it,62025,Piazza Bellanti 1
43.2216930,13.4653351,Petriolo,,,,,
43.0319500,13.4386820,Monte San Martino,montesanmartino@pec.it,IT83002470439,https://www.comune.montesanmartino.mc.it,62020,"Piazza XX Settembre, 4"
43.2522080,12.9478268,Esanatoglia,,,,,
43.1864614,13.4809705,Mogliano,ragioneria@pec.comune.mogliano.mc.it,IT00244400438,https://www.comune.mogliano.mc.it,62010,Via A. Adriani n. 6
43.5585540,12.4209510,Apecchio,comune.apecchio@emarche.it,IT82000010411,https://www.comune.apecchio.ps.it,61042,"Via XX Settembre, 8"
43.8676610,12.4712470,Monte Grimano Terme,comune.montegrimanoterme@emarche.it,IT00359290418,https://www.comune.montegrimanoterme.pu.it,61010,Piazzale G. Matteotti N. 1
43.7791620,12.7333550,Petriano,comune.petriano@emarche.it,IT00360540413,https://www.comune.petriano.pu.it,61020,Via San Martino 2
43.7347610,12.8339580,Montefelcino,,,,,
43.6964580,12.4978510,Peglio,comune.peglio@pec.regione.lombardia.it,IT00689040137,https://www.comunepeglio.co.it,22010,"Via Costanzo Antegnati,29"
43.8404600,12.4147470,Monte Cerignone,comune.montecerignone@emarche.it,IT82002090411,https://www.comune.montecerignone.pu.it,61010,"Piazza Clementina,"
43.8115620,12.6310520,Montecalvo in Foglia,comune.montecalvo@emarche.it,IT00360650410,https://www.comune.montecalvo.pu.it,61020,Piazza Municipio 1
43.6319537,12.9018433,Fratte Rosa,comune.fratte-rosa@emarche.it,IT81002490415,https://www.comune.fratte-rosa.pu.it/,61040,"Piazza Matteotti, 11"
43.7304752,12.4414172,Lunano,comune.lunano@emarche.it,IT82001930419,https://www.comune.lunano.pu.it,61026,"Piazza Della Liberta', 11"
43.9668745,12.7563105,Gabicce Mare,comune.gabiccemare@emarche.it,IT00262320419,https://www.comune.gabicce-mare.ps.it,61011,"Via C. Battisti, 66"
43.6907965,12.8126121,Fossombrone,comune.fossombrone@emarche.it,IT00223590415,https://www.comune.fossombrone.ps.it/,61034,Corso Garibaldi 8
43.9388660,12.7712530,Gradara,comune.gradara@emarche.it,IT00347330417,https://www.comune.gradara.pu.it,61012,"Via Mancini, 23"
43.4743093,12.6288151,Cantiano,comune.cantiano@emarche.it,IT00158390419,https://www.comune.cantiano.pu.it,61044,"Piazza Luceoli, 3"
43.8977564,12.7547897,Tavullia,comune@pec.comuneditavullia.it,IT00360380414,https://www.comuneditavullia.it,61010,"Via Roma ,81"
43.6258843,12.6759738,Acqualagna,comune.acqualagna@emarche.it,IT00152230413,https://www.comune.acqualagna.ps.it,61041,"Piazza Mattei,9"
43.8269630,12.8007550,Sant'Angelo in Lizzola,,,,,
43.6857149,12.8716888,Sant'Ippolito,comune.santippolito@emarche.it,IT00360440416,https://www.comune.santippolito.pu.it,61040,Via Raffaello 104
43.7241580,12.4110480,Piandimeleto,comune.piandimeleto@emarche.it,IT00360560411,https://www.comune.piandimeleto.pu.it,61026,Via Giacomo Matteotti 15
43.6896974,13.0456901,Monte Porzio,,,,,
43.6742046,12.9687710,Mondavio,comune.mondavio@emarche.it,IT81001630417,https://www.comune.mondavio.pu.it,61040,"Piazza G.Matteotti, 2"
43.7377610,12.7840570,Isola del Piano,comune.isoladelpiano@emarche.it,IT00360420418,https://www.comune.isola-del-piano.ps.it,61030,Piazza Umberto I N. 1
43.8438497,12.5939243,Tavoleto,comune.tavoleto@emarche.it,IT00352410419,WWW.COMUNE.TAVOLETO.PU.IT,61020,"Piazzale San Vincenzo, 2"
43.4913868,12.7721968,Serra Sant'Abbondio,comune.serrasantabbondio@emarche.it,IT81003370418,serra.segreteria@gmail.com,61040,"Piazzale Del Comune, 1"
43.8402291,12.3591843,Villagrande,,,,,
42.8891265,13.7729827,Spinetoli,protocollo@pec.comune.spinetoli.ap.it,IT00362890444,https://www.comune.spinetoli.ap.it,63078,Piazza Giacomo Leopardi N.31
43.2347405,13.6878517,Sant'Elpidio a Mare,,,,,
43.8051686,12.3782507,Mercato Vecchio,,,,,
43.5137227,12.7344818,Frontone,comune.frontone@emarche.it,IT00314800418,https://www.comune.frontone.pu.it,61040,"Piazza Del Municipio, 19"
43.1661204,13.4164033,Loro Piceno,comune.loropiceno.mc@legalmail.it,IT00185360435,https://www.comune.loropiceno.mc.it,62020,"Piazza Giacomo Matteotti, 2"
